{
"type": "FeatureCollection",
"name": "cmentarze_1933",
"crs": { "type": "name", "properties": { "name": "urn:ogc:def:crs:OGC:1.3:CRS84" } },
"features": [
{ "type": "Feature", "properties": { "id": null }, "geometry": { "type": "MultiPolygon", "coordinates": [ [ [ [ 16.969480414363804, 52.517272744472066 ], [ 16.96969045936029, 52.517357984594625 ], [ 16.97081283538272, 52.517409726059412 ], [ 16.971285251656816, 52.517409370811556 ], [ 16.971387331258487, 52.51664724476737 ], [ 16.970927696295327, 52.516533355961023 ], [ 16.970568176019125, 52.516499655153787 ], [ 16.970295302064361, 52.516544535501261 ], [ 16.970021793338603, 52.516603171419938 ], [ 16.969828770147377, 52.516776078012505 ], [ 16.969666299733682, 52.516971535973241 ], [ 16.969480414363804, 52.517272744472066 ] ] ] ] } },
{ "type": "Feature", "properties": { "id": null }, "geometry": { "type": "MultiPolygon", "coordinates": [ [ [ [ 16.985146432744806, 52.515539394145549 ], [ 16.985588644345015, 52.515541417687423 ], [ 16.985985249743351, 52.514369709918718 ], [ 16.985481424852235, 52.514333597693188 ], [ 16.985146432744806, 52.515539394145549 ] ] ] ] } },
{ "type": "Feature", "properties": { "id": null }, "geometry": { "type": "MultiPolygon", "coordinates": [ [ [ [ 16.986763373702185, 52.510523907811688 ], [ 16.986753648286541, 52.510395847679376 ], [ 16.987164998050375, 52.510380820001529 ], [ 16.987341865525501, 52.510361801878666 ], [ 16.987293035328033, 52.510245327782663 ], [ 16.987287103852683, 52.509782653497382 ], [ 16.987130936751957, 52.509361974109957 ], [ 16.985447620950339, 52.509646713295922 ], [ 16.985638978383232, 52.509804162965146 ], [ 16.985837740447614, 52.509898409868889 ], [ 16.985987530951832, 52.509978055656418 ], [ 16.986035582351629, 52.510210160427278 ], [ 16.986050705454975, 52.510372869270633 ], [ 16.986088269314521, 52.510439590667829 ], [ 16.98637547913318, 52.510474767207945 ], [ 16.986585780054973, 52.510514140956481 ], [ 16.986763373702185, 52.510523907811688 ] ] ] ] } },
{ "type": "Feature", "properties": { "id": null }, "geometry": { "type": "MultiPolygon", "coordinates": [ [ [ [ 16.966315734350125, 52.54378696244413 ], [ 16.967269836941849, 52.543771084823796 ], [ 16.967279152955044, 52.5435598386793 ], [ 16.967208351807777, 52.543332843023975 ], [ 16.966533360962785, 52.543365644844812 ], [ 16.966272635719491, 52.543730121072869 ], [ 16.966315734350125, 52.54378696244413 ] ] ] ] } },
{ "type": "Feature", "properties": { "id": null }, "geometry": { "type": "MultiPolygon", "coordinates": [ [ [ [ 16.988746359436607, 52.472191783355058 ], [ 16.98898954269438, 52.472241087582809 ], [ 16.989261005413212, 52.472260075372908 ], [ 16.989331167777056, 52.471925195360832 ], [ 16.989110382140034, 52.471895138909602 ], [ 16.988802302028443, 52.471876461288545 ], [ 16.988746359436607, 52.472191783355058 ] ] ] ] } },
{ "type": "Feature", "properties": { "id": null }, "geometry": { "type": "MultiPolygon", "coordinates": [ [ [ [ 17.026640850102648, 52.460500392846932 ], [ 17.026441017947118, 52.461013518598477 ], [ 17.026476385392929, 52.461021191011582 ], [ 17.026679614239775, 52.461061538637246 ], [ 17.028104094738897, 52.461226966276129 ], [ 17.028309236387681, 52.460848508770646 ], [ 17.028309028615261, 52.460702734570482 ], [ 17.026640850102648, 52.460500392846932 ] ] ] ] } },
{ "type": "Feature", "properties": { "id": null }, "geometry": { "type": "MultiPolygon", "coordinates": [ [ [ [ 17.018159026455397, 52.467898446545 ], [ 17.018711594788407, 52.467870749781596 ], [ 17.019277942456156, 52.467920615650705 ], [ 17.019537121502125, 52.467541495550236 ], [ 17.018296098338325, 52.46739157237036 ], [ 17.018159026455397, 52.467898446545 ] ] ] ] } },
{ "type": "Feature", "properties": { "id": null }, "geometry": { "type": "MultiPolygon", "coordinates": [ [ [ [ 16.974646190126872, 52.508910392082079 ], [ 16.97482583456879, 52.508618658403485 ], [ 16.974803013242695, 52.508615416269436 ], [ 16.974008306630189, 52.508497642255676 ], [ 16.973790258520221, 52.508725194969095 ], [ 16.974646190126872, 52.508910392082079 ] ] ] ] } }
]
}
