{
"type": "FeatureCollection",
"name": "cmentarze_2024",
"crs": { "type": "name", "properties": { "name": "urn:ogc:def:crs:OGC:1.3:CRS84" } },
"features": [
{ "type": "Feature", "properties": { "gml_id": "OT_ADJA_A.20", "lokalnyId": "322BD60C-5C60-598B-E053-CC2BA8C05138", "przestrzen": "PL.PZGiK.308.BDOT10k", "wersjaId": "2022-01-20T00:00:00", "czyObiektB": 0, "x_kod": "ADJA05", "x_skrKarto": null, "x_katDoklG": "Dok", "x_doklGeom": 1, "x_doklGe_1": "m", "x_zrodloDa": "PRG", "x_zrodlo_1": "PRG", "x_katIstni": null, "x_rodzajRe": "ZP", "x_aktualno": "2022-01-20", "x_aktual_1": "2022-01-20", "poczatekWe": "2022-01-20T00:00:00", "x_dataUtwo": "2012-11-13", "x_kodKarto": "0010_505", "x_kodKar_1": "0025_505", "x_kodKar_2": "0050_505", "x_kodKar_3": "0100_505", "x_kodKar_4": null, "x_kodKar_5": null, "x_kodKar_6": null, "nazwa": "Czerwonak", "idPRG": 1030210420, "idTerytJed": 3021, "idTerytTer": 3021042, "rodzaj": "GW", "PRG|BT_Ref": 1030210420, "PRG|BT_R_1": "PL.PZGiK.200", "x_informDo": null }, "geometry": { "type": "MultiPolygon", "coordinates": [ [ [ [ 16.987151255970346, 52.510531830495317 ], [ 16.987199631594482, 52.510534542382082 ], [ 16.987215511303013, 52.510535442162997 ], [ 16.987434018015726, 52.510547524352866 ], [ 16.98782147859546, 52.509633277791856 ], [ 16.98790537564528, 52.509361817379578 ], [ 16.987477237785807, 52.509424330522606 ], [ 16.986995828861549, 52.509494480267513 ], [ 16.986854333231399, 52.509516626955644 ], [ 16.986825982086831, 52.509585400698569 ], [ 16.986782981206233, 52.510519627631631 ], [ 16.987151255970346, 52.510531830495317 ] ] ], [ [ [ 16.986525197812348, 52.50959647148369 ], [ 16.98645144069269, 52.509584692765628 ], [ 16.986413744905196, 52.509583781322888 ], [ 16.986094225421436, 52.509633837268474 ], [ 16.985734009312903, 52.509687336816732 ], [ 16.985981545988256, 52.510556984073474 ], [ 16.986601752324226, 52.510517622709727 ], [ 16.986659031660682, 52.510519047262314 ], [ 16.986685518041782, 52.509733305229616 ], [ 16.986673006273659, 52.509687760961029 ], [ 16.986641459053505, 52.5096490881769 ], [ 16.98659597841506, 52.509618542956368 ], [ 16.986525197812348, 52.50959647148369 ] ] ], [ [ [ 16.99822754557427, 52.459188199911118 ], [ 16.998184842643816, 52.459084401570593 ], [ 16.998092294075722, 52.458842775152391 ], [ 16.998102141842079, 52.458658872407881 ], [ 16.998500625178838, 52.458655479701122 ], [ 16.99865172217012, 52.458617483389567 ], [ 16.99875916491991, 52.458535659632766 ], [ 16.998789095650618, 52.458424643209113 ], [ 16.998751885327316, 52.458330232741588 ], [ 16.998627148762861, 52.458244479289078 ], [ 16.998317689264301, 52.458206291036738 ], [ 16.998017604027588, 52.458219497928141 ], [ 16.998017768125852, 52.457957890516148 ], [ 16.998293358346785, 52.457919467797019 ], [ 16.998613635172717, 52.45790207772324 ], [ 16.998805844945984, 52.457872380939065 ], [ 16.998727383483697, 52.4575897108801 ], [ 16.99767380803176, 52.457749889479324 ], [ 16.997293556905447, 52.457819811866173 ], [ 16.996659998584143, 52.457936349755059 ], [ 16.996671574134862, 52.45801866445052 ], [ 16.996677910528895, 52.45810286914066 ], [ 16.996645911275142, 52.45817203334046 ], [ 16.996547866373497, 52.458272188399754 ], [ 16.996470547115234, 52.458334198665874 ], [ 16.996440134275243, 52.458358687685227 ], [ 16.996358077054243, 52.45840505734153 ], [ 16.996471036434215, 52.458631470794273 ], [ 16.996885461170699, 52.45943062590743 ], [ 16.998196665224881, 52.45919379329812 ], [ 16.99822754557427, 52.459188199911118 ] ] ], [ [ [ 17.028490580043119, 52.460656252700431 ], [ 17.028318590762112, 52.460620106062208 ], [ 17.027298200534357, 52.460405302351894 ], [ 17.027268736091269, 52.460399054431406 ], [ 17.027092923302721, 52.460362842206472 ], [ 17.026846018056069, 52.460312851389922 ], [ 17.02659896624483, 52.460262857607411 ], [ 17.026506398175073, 52.460515222448137 ], [ 17.026464798428158, 52.460628845997846 ], [ 17.026322394108679, 52.461007738522625 ], [ 17.026937051905758, 52.461069353762632 ], [ 17.027440593852088, 52.461119848112922 ], [ 17.028082854935121, 52.46119648863079 ], [ 17.028315616803553, 52.461220427290833 ], [ 17.028490580043119, 52.460656252700431 ] ] ] ] } },
{ "type": "Feature", "properties": { "gml_id": null, "lokalnyId": null, "przestrzen": null, "wersjaId": null, "czyObiektB": null, "x_kod": null, "x_skrKarto": null, "x_katDoklG": null, "x_doklGeom": null, "x_doklGe_1": null, "x_zrodloDa": null, "x_zrodlo_1": null, "x_katIstni": null, "x_rodzajRe": null, "x_aktualno": null, "x_aktual_1": null, "poczatekWe": null, "x_dataUtwo": null, "x_kodKarto": null, "x_kodKar_1": null, "x_kodKar_2": null, "x_kodKar_3": null, "x_kodKar_4": null, "x_kodKar_5": null, "x_kodKar_6": null, "nazwa": null, "idPRG": null, "idTerytJed": null, "idTerytTer": null, "rodzaj": null, "PRG|BT_Ref": null, "PRG|BT_R_1": null, "x_informDo": null }, "geometry": { "type": "MultiPolygon", "coordinates": [ [ [ [ 17.056251924410894, 52.48639467469004 ], [ 17.056839658848229, 52.486340652668218 ], [ 17.05674899779423, 52.486074462523462 ], [ 17.056182174037858, 52.486158868514288 ], [ 17.056251924410894, 52.48639467469004 ] ] ] ] } }
]
}
