{
"type": "FeatureCollection",
"name": "drogi_glowne_1933",
"crs": { "type": "name", "properties": { "name": "urn:ogc:def:crs:OGC:1.3:CRS84" } },
"features": [
{ "type": "Feature", "properties": { "id": null }, "geometry": { "type": "MultiLineString", "coordinates": [ [ [ 16.95747540509058, 52.541118082881582 ], [ 16.95779703232968, 52.541191758171749 ], [ 16.959377238380139, 52.541563839590232 ], [ 16.960319706082927, 52.541791735108532 ], [ 16.962718056432909, 52.54165603615531 ], [ 16.965610964627508, 52.541471070187647 ], [ 16.967777544321432, 52.541296651001957 ], [ 16.971197745467116, 52.541035944356373 ], [ 16.972627780679932, 52.540956553873848 ], [ 16.974531652627409, 52.541277765430706 ], [ 16.980247274813522, 52.542295156915564 ], [ 16.985670270368448, 52.543230327325716 ], [ 16.987200372092822, 52.543526719596841 ] ], [ [ 16.976096729275017, 52.511432763463986 ], [ 16.976996631676439, 52.511139092937519 ], [ 16.979637833249217, 52.51048386910692 ], [ 16.994055555728362, 52.508270266896609 ], [ 16.997854810429043, 52.507657358591338 ], [ 17.00513549398773, 52.506479692340214 ], [ 17.009176339928892, 52.505816622352 ], [ 17.015081821716798, 52.504915348840349 ], [ 17.019235806780902, 52.504253835274575 ], [ 17.025624604591357, 52.503252382616999 ], [ 17.032965839798639, 52.502097111274274 ], [ 17.035150563150381, 52.501748609103807 ], [ 17.036001416566823, 52.501616510741613 ], [ 17.03689281261483, 52.501423509473668 ], [ 17.037477985906431, 52.501310079844814 ], [ 17.038707567097187, 52.501168852304019 ], [ 17.041686460306639, 52.500825698376588 ], [ 17.044336297181655, 52.500507814849961 ], [ 17.045768828428603, 52.500339084460386 ], [ 17.049275180221855, 52.499758174542301 ], [ 17.053771831021205, 52.499024142413212 ], [ 17.055548591334624, 52.498768602879856 ], [ 17.056518188069802, 52.498621955050652 ], [ 17.05673929234732, 52.498540929477578 ], [ 17.057686819765035, 52.497929252480318 ], [ 17.059195573504748, 52.496957360696165 ], [ 17.060966191666946, 52.495835819194625 ], [ 17.062754774795629, 52.494733786269762 ], [ 17.064680296659461, 52.493526220756571 ], [ 17.066588503435618, 52.492324750681696 ], [ 17.066806910801812, 52.49218722796018 ], [ 17.068514548305306, 52.491199228973763 ], [ 17.071020320676013, 52.48997794687714 ], [ 17.073808838578138, 52.488630382198686 ], [ 17.077028119208357, 52.487085808071555 ], [ 17.07915920458036, 52.48606221214736 ], [ 17.079471594706376, 52.485864277271205 ] ], [ [ 16.981411303496344, 52.465044255709998 ], [ 16.982357639069427, 52.465283822850004 ], [ 16.983155853105725, 52.465739977486592 ], [ 16.984050743339701, 52.466424815859298 ], [ 16.984441931819205, 52.466550776935513 ], [ 16.985499076388042, 52.466718868780823 ], [ 16.986663542534998, 52.467296682523887 ], [ 16.98752807149161, 52.468096421422359 ], [ 16.987976927892579, 52.46875439677131 ], [ 16.988384722492537, 52.469207719827331 ], [ 16.98894714260009, 52.469586708057214 ], [ 16.989699688898998, 52.469941988693549 ], [ 16.990984452358958, 52.470510259098255 ], [ 16.993526093754244, 52.471707854377108 ], [ 16.994736097769881, 52.472259422123997 ], [ 16.996404055873391, 52.472995751513331 ], [ 16.997310649373389, 52.473430555341359 ], [ 16.997910993868597, 52.473948675092565 ], [ 16.998546021306808, 52.474813711296228 ], [ 16.998899399826421, 52.47521989789945 ], [ 16.999624178226949, 52.475913280235304 ], [ 17.000115224292507, 52.476202499207631 ], [ 17.000610830545249, 52.47653027456191 ], [ 17.001211081190899, 52.477052223302408 ], [ 17.002085198657827, 52.478067509109628 ], [ 17.002444236095958, 52.478489172654193 ], [ 17.002735225471334, 52.478882748921528 ], [ 17.002940664672547, 52.479217157812904 ], [ 17.003492889680881, 52.47982679044452 ], [ 17.003758009214831, 52.480235319810539 ], [ 17.003903821628949, 52.480634138692864 ], [ 17.004048212989495, 52.480925185627108 ], [ 17.00425523792406, 52.481224985557418 ], [ 17.004561293683999, 52.481564937306096 ] ], [ [ 16.982666636970052, 52.44052363712381 ], [ 16.983379957005145, 52.442676956760224 ], [ 16.983997964641006, 52.444588491403685 ], [ 16.984301375851494, 52.446494658761331 ], [ 16.984485618665524, 52.448252562951559 ], [ 16.984944467707095, 52.451169595544712 ], [ 16.985028154347393, 52.452371648317936 ], [ 16.984953468778894, 52.453455557024718 ], [ 16.984721935544183, 52.455491136066243 ], [ 16.984392885285175, 52.457178717577705 ], [ 16.984101636145777, 52.458589874972155 ], [ 16.983956936824942, 52.459826514943195 ], [ 16.983873834544983, 52.460817922751957 ], [ 16.983599828276571, 52.461575185717507 ], [ 16.983276570727448, 52.46203145179696 ], [ 16.982881563476479, 52.462678900946109 ], [ 16.98218598141904, 52.463836873137772 ], [ 16.981411303496344, 52.465044255709998 ], [ 16.981331173866415, 52.465169138436337 ], [ 16.980693973700518, 52.466151083404071 ], [ 16.980247467156875, 52.466820733384374 ], [ 16.98006647578201, 52.467333294840792 ], [ 16.979862189399238, 52.469592520625625 ], [ 16.979765803223728, 52.471284062015435 ], [ 16.979478516626521, 52.473703490536607 ], [ 16.979308958333743, 52.475478439844068 ], [ 16.979132593474652, 52.477676568819795 ], [ 16.978969089977518, 52.479043716360756 ], [ 16.978583907796299, 52.481946334383615 ], [ 16.978278583847384, 52.484480893223271 ], [ 16.978116229933146, 52.48637140613863 ], [ 16.977807208660327, 52.489259928629885 ], [ 16.977593005337162, 52.491180338428165 ], [ 16.977550408552986, 52.491833794517781 ], [ 16.97771302867114, 52.492136730206802 ], [ 16.977901907538932, 52.492417025701023 ], [ 16.977792646403703, 52.492599868613617 ], [ 16.977505585605343, 52.492810456496478 ], [ 16.977368652750449, 52.49304669986428 ], [ 16.977159349939939, 52.494859443876976 ], [ 16.976854540798769, 52.49737861160542 ], [ 16.976652608159373, 52.499029858021359 ], [ 16.97632747732105, 52.501440927744135 ], [ 16.976028336651094, 52.503559982179226 ], [ 16.975747421873645, 52.505556206893786 ], [ 16.975644116642364, 52.506431814257311 ], [ 16.975358598349068, 52.506881008050108 ], [ 16.975339155571071, 52.507303970268509 ], [ 16.975476485703396, 52.507883540974518 ], [ 16.975824898432577, 52.508535989846813 ], [ 16.975974961528824, 52.508838711963449 ], [ 16.976016417172431, 52.510132394401211 ], [ 16.976030361634475, 52.511454421182833 ], [ 16.976032899380812, 52.511695018627627 ], [ 16.975746399522233, 52.512713720092158 ], [ 16.975595373541921, 52.512980505124361 ], [ 16.975245496064659, 52.513182316690923 ], [ 16.974759790571643, 52.513320231954793 ], [ 16.974259354464071, 52.513504070606501 ], [ 16.973881425933715, 52.513766968000624 ], [ 16.97372401513617, 52.51417217415181 ], [ 16.973784295497801, 52.514781211596492 ], [ 16.973870142178029, 52.515382990534434 ], [ 16.974782919685332, 52.518577175486563 ], [ 16.975613584135001, 52.521639109644383 ], [ 16.976575152867891, 52.525149657050719 ], [ 16.977285378004343, 52.527817006453354 ], [ 16.977685835165989, 52.529263049493728 ], [ 16.978188635393778, 52.531503552338222 ], [ 16.978377326172211, 52.531791537248701 ], [ 16.979112896425924, 52.532812309740599 ], [ 16.981063882736745, 52.535400764313749 ], [ 16.982076590355405, 52.536711005646943 ], [ 16.984493379992649, 52.53988455885483 ], [ 16.986183688758029, 52.54211445563466 ], [ 16.987821600088786, 52.544389612674706 ], [ 16.988645190073509, 52.545427209963883 ], [ 16.989015837844128, 52.545879889289743 ], [ 16.989743877591554, 52.546523347914174 ], [ 16.991945278045165, 52.548631001565376 ], [ 16.992702104318468, 52.549752094090316 ], [ 16.994513727887441, 52.552661185862021 ], [ 16.995305731812504, 52.553844425757376 ], [ 16.99665083334958, 52.555914389200481 ], [ 16.997356379456551, 52.557057669560344 ], [ 16.998652964801721, 52.559365368662014 ], [ 16.99914646214642, 52.560100837086296 ] ], [ [ 16.98514257537191, 52.440214743089278 ], [ 16.987952184346181, 52.4420467961477 ], [ 16.992910705078266, 52.445399275765972 ], [ 16.995038265395038, 52.446723401837922 ], [ 16.996296211507282, 52.447314254857879 ], [ 16.997751708904293, 52.447716032052682 ], [ 16.999995335531246, 52.448159986815192 ], [ 17.002713903559471, 52.449316102704358 ], [ 17.008364173511175, 52.452035885082744 ], [ 17.009180835828943, 52.452642253128452 ], [ 17.010278030201558, 52.453453440044882 ], [ 17.011696670991324, 52.454400859150084 ], [ 17.01337855892741, 52.455372465136136 ], [ 17.015719503321865, 52.456831196745952 ], [ 17.017946852269006, 52.458361631683502 ], [ 17.018102813503258, 52.458514551130058 ], [ 17.018233041074925, 52.458642237852288 ], [ 17.018454220718617, 52.458908070326295 ], [ 17.018724861359178, 52.459469230773564 ], [ 17.018841120552469, 52.460107228962883 ], [ 17.018861638433414, 52.460497285697244 ], [ 17.018970965161682, 52.460868538432209 ], [ 17.019090687735961, 52.46129768722696 ], [ 17.019152185585444, 52.461693480239546 ], [ 17.019012939628933, 52.461961724446937 ], [ 17.018652887921796, 52.462489046659357 ], [ 17.018602335903385, 52.462772961644376 ], [ 17.019043829975541, 52.463744316325844 ], [ 17.019605047359612, 52.46471575011816 ], [ 17.020268070166711, 52.46510396914784 ], [ 17.021620369014173, 52.46585774617143 ], [ 17.022479379780027, 52.466372371400411 ], [ 17.023254057507039, 52.466800921655818 ], [ 17.024393119892597, 52.468097535746494 ], [ 17.02707043262166, 52.471351825117758 ], [ 17.030285900560333, 52.473567815777571 ], [ 17.033410506575812, 52.475851725786477 ], [ 17.03378213345033, 52.476127052321715 ], [ 17.03493484669081, 52.476292660500853 ], [ 17.036839499470155, 52.476543635005513 ], [ 17.037509903164036, 52.476631723846296 ], [ 17.039452257323422, 52.477452802627589 ], [ 17.042379971746023, 52.478651885660192 ], [ 17.04427893319318, 52.479460621079077 ], [ 17.047715012164918, 52.480856532317127 ], [ 17.049441730451299, 52.48157383348525 ], [ 17.052016083019257, 52.48265140215215 ], [ 17.053748731652473, 52.483380281250817 ], [ 17.05522232562598, 52.483981735930108 ], [ 17.055831106546378, 52.484184149518569 ], [ 17.056310893883055, 52.484596085701192 ], [ 17.056545039882216, 52.485003983846553 ], [ 17.056530825057695, 52.485469370373963 ], [ 17.056559319489828, 52.485823863754703 ], [ 17.056800254697848, 52.486077948842301 ], [ 17.057255553508163, 52.486474086150885 ], [ 17.057617561686246, 52.486841752942283 ], [ 17.058036097836482, 52.487214194783412 ], [ 17.058273121489261, 52.487414339117962 ], [ 17.058418265246633, 52.48784001250916 ], [ 17.058558435224498, 52.488092439667206 ], [ 17.058765865774237, 52.488392147714592 ], [ 17.058881045055792, 52.488782695767554 ], [ 17.059092748242655, 52.489128650447263 ], [ 17.059351124758159, 52.489560028598554 ], [ 17.059693394694293, 52.489804225672948 ], [ 17.060262411259565, 52.489909760903899 ], [ 17.060803655535057, 52.489930179976668 ], [ 17.061351876395229, 52.489935318537391 ], [ 17.061670231046261, 52.489863574081205 ], [ 17.062033187923987, 52.489781015277927 ], [ 17.062559590228847, 52.489708828888652 ], [ 17.062944023817433, 52.489711277152047 ], [ 17.06337266439656, 52.489716079774666 ], [ 17.063963834615283, 52.490174352605329 ], [ 17.065058154683911, 52.491094636847166 ], [ 17.066104400133742, 52.491962175315955 ], [ 17.066588503435618, 52.492324750681696 ] ], [ [ 17.018186366933126, 52.458514218696358 ], [ 17.018902380206331, 52.458511367475829 ], [ 17.019463399430034, 52.458362991944249 ], [ 17.019909908587454, 52.457958719205315 ], [ 17.020783500923219, 52.457161388013049 ], [ 17.021110389599151, 52.457036022522473 ], [ 17.021673884618924, 52.456972337092523 ], [ 17.02286468894804, 52.457107698521931 ], [ 17.023943230596011, 52.457218083035201 ], [ 17.024838101981146, 52.457209945704761 ], [ 17.026167373117421, 52.457066672838501 ], [ 17.027141731172694, 52.45697133785454 ], [ 17.027891337938104, 52.456901107588919 ], [ 17.028427267393582, 52.455268815889518 ], [ 17.028948415882528, 52.453896024311476 ], [ 17.029113617962455, 52.453440850099994 ], [ 17.029149869661349, 52.453287220681396 ] ], [ [ 17.018485936922151, 52.458850054867021 ], [ 17.018882931212918, 52.458593776582774 ], [ 17.019003535087677, 52.458508278885645 ] ], [ [ 17.091795626096239, 52.488650784698265 ], [ 17.093595409538842, 52.489709980508238 ], [ 17.096122548522221, 52.491227636109109 ] ], [ [ 17.120747687919664, 52.507268709306274 ], [ 17.121070495252507, 52.507963698613949 ], [ 17.121710703812177, 52.509070558631734 ], [ 17.122418249850206, 52.509782134589564 ], [ 17.122518253087556, 52.510099261532119 ], [ 17.122751431837724, 52.510399261371596 ], [ 17.12326298888453, 52.510826814492525 ], [ 17.123607254554475, 52.511036221575772 ], [ 17.123910353065558, 52.511175709997438 ], [ 17.124318143315211, 52.511374578154538 ], [ 17.124658815814033, 52.511668582126937 ], [ 17.124886943273083, 52.511791487398341 ], [ 17.125145767576438, 52.511934118901429 ], [ 17.125648033153464, 52.512284553210591 ], [ 17.126164385180584, 52.512600576028341 ], [ 17.12657866537991, 52.51279569094136 ], [ 17.127785699333643, 52.513111097202632 ], [ 17.129029607297316, 52.51346515867251 ] ] ] } }
]
}
