{
"type": "FeatureCollection",
"name": "drogi_glowne_2024",
"crs": { "type": "name", "properties": { "name": "urn:ogc:def:crs:OGC:1.3:CRS84" } },
"features": [
{ "type": "Feature", "properties": { "TERYT": null, "LOKALNYID": null, "WERSJAID": null, "PNAZW": null, "GMLID": null, "X_KOD": null, "X_SKRKARTO": null, "X_SKRK_NIL": null, "X_KATDOKG": null, "X_DOKLGEOM": null, "X_ZRODLOG": null, "X_ZRODLOA": null, "X_KATIST": null, "X_KATI_NIL": null, "X_RODZREPG": null, "X_UWAGI": null, "X_UZYTKOWN": null, "X_AKTG": null, "X_AKTA": null, "POCZWERS": null, "KONIECWERS": null, "X_DATAUTW": null, "X_INFDOD": null, "KOD10K": null, "KOD10K_NIL": null, "KOD25K": null, "KOD25K_NIL": null, "KOD50K": null, "KOD50K_NIL": null, "KOD100K": null, "KOD100_NIL": null, "KOD250K": null, "KOD250_NIL": null, "KOD500K": null, "KOD500_NIL": null, "KOD1000K": null, "KOD1000_NI": null, "KATZARZ": null, "KATZAR_NIL": null, "KLASADROGI": null, "KLDRO_NIL": null, "MATNAWIERZ": null, "MATNAW_NIL": null, "NAZWADROGI": null, "LJEZDNIDR": null, "LJEZDN_NIL": null, "POLOZENIE": null, "POLOZE_NIL": null, "SZERNAWIE": null, "SZERNA_NIL": null, "SZERKORDR": null, "SZKOR_NIL": null, "LICZPASOW": null, "LPASOW_NIL": null, "SZL_NUMER": null, "SZLAK_NIL": null, "UL_EMU_ID": null, "UL_EMU_PN": null, "UL_EM_WERS": null, "UL_IDTERUL": null, "UL_IDTER_N": null, "UL_KODULGM": null, "UL_NAZWA1": null, "UL_NAZWA2": null, "UL_PRZEDR1": null, "UL_PRZEDR2": null, "ULICA_NIL": null, "BD500_ID": null, "BD500_PNA": null, "BD500_WEID": null, "length": null, "TERYT_2": "3021", "LOKALNYID_": "322BD613-54D0-598B-E053-CC2BA8C05138", "WERSJAID_2": "2022-01-20T00:00:00", "PNAZW_2": "PL.PZGiK.308.BDOT10k", "GMLID_2": "OT_SKJZ_L.19876", "X_KOD_2": "SKJZ04", "X_SKRKAR_1": null, "X_SKRK_N_1": "inapplicable", "X_KATDOKG_": "dokladny", "X_DOKLGE_1": 1.0, "X_ZRODLOG_": "ortofotomapa", "X_ZRODLOA_": "pomiarTerenowy", "X_KATIST_2": "eksploatowany", "X_KATI_N_1": null, "X_RODZRE_1": "osGeometryczna", "X_UWAGI_2": null, "X_UZYTKO_1": "Uzytkownik30.xml", "X_AKTG_2": "2022-01-20", "X_AKTA_2": "2022-01-20", "POCZWERS_2": "2022-01-20", "KONIECWE_1": null, "X_DATAUTW_": "2012-11-13", "X_INFDOD_2": null, "KOD10K_2": "0010_116_1", "KOD10K_N_1": null, "KOD25K_2": "0025_116_2", "KOD25K_N_1": null, "KOD50K_2": "0050_116_2", "KOD50K_N_1": null, "KOD100K_2": "0100_116_2", "KOD100_N_1": null, "KOD250K_2": null, "KOD250_N_1": "inapplicable", "KOD500K_2": null, "KOD500_N_1": "inapplicable", "KOD1000K_2": null, "KOD1000__1": "inapplicable", "KATZARZ_2": "powiatowa", "KATZAR_N_1": null, "KLASADRO_1": "glowna", "KLDRO_NIL_": null, "MATNAWIE_1": "masaBitumiczna", "MATNAW_N_1": null, "NAZWADRO_1": null, "LJEZDNIDR_": 1, "LJEZDN_N_1": null, "POLOZENIE_": "naPowierzchniGruntu", "POLOZE_N_1": null, "SZERNAWIE_": 6.0, "SZERNA_N_1": null, "SZERKORDR_": null, "SZKOR_NIL_": "inapplicable", "LICZPASOW_": 2, "LPASOW_N_1": null, "SZL_NUMER_": "2407P", "SZLAK_NIL_": null, "UL_EMU_ID_": "0582031_17394", "UL_EMU_PN_": "PL.ZIPIN.2002", "UL_EM_WE_1": "1900-01-01 00:00:00", "UL_IDTER_1": "17394", "UL_IDTER_2": null, "UL_KODUL_1": null, "UL_NAZWA1_": null, "UL_NAZWA2_": "PoznaĹ„ska", "UL_PRZED_1": null, "UL_PRZED_2": null, "ULICA_NIL_": null, "BD500_ID_2": null, "BD500_PNA_": null, "BD500_WE_1": null, "length_2": 137.69 }, "geometry": { "type": "MultiLineString", "coordinates": [ [ [ 16.95803590754959, 52.540855414941625 ], [ 16.958111315654424, 52.540869609135392 ], [ 16.9585590660927, 52.540954685430449 ], [ 16.958922734612322, 52.541023828927912 ], [ 16.95909470527635, 52.541056386303886 ], [ 16.95932837882966, 52.541100800680049 ], [ 16.959433955587034, 52.541120879749052 ], [ 16.960820045762553, 52.541384831522244 ], [ 16.961167213513811, 52.541447297758488 ], [ 16.961231149033235, 52.541458742761627 ], [ 16.961513742828828, 52.541494911365128 ], [ 16.961780230346836, 52.54151892939052 ], [ 16.962037306881772, 52.541529563109179 ], [ 16.962261649367708, 52.54152713050572 ], [ 16.96254962446633, 52.54152039651553 ], [ 16.9628974377672, 52.541502099911725 ], [ 16.962927755057652, 52.54150046317838 ], [ 16.964145819023258, 52.541420868914088 ], [ 16.965025959886368, 52.541365762238108 ], [ 16.965275250513265, 52.541350171555194 ], [ 16.965576175352265, 52.541331330680968 ], [ 16.965875617626359, 52.541312643444236 ], [ 16.965915401645002, 52.541310449131231 ], [ 16.966198922104034, 52.541294725341075 ], [ 16.966666277629244, 52.54125607636378 ], [ 16.966730102613354, 52.541250787091357 ], [ 16.966798370396734, 52.541245124404888 ], [ 16.967553938335271, 52.541188128343798 ], [ 16.968071399812391, 52.541150514294515 ], [ 16.968432852134036, 52.541124250833683 ], [ 16.971752111522829, 52.540875653043194 ], [ 16.971980401935443, 52.540857889460582 ], [ 16.97213704413268, 52.540829543584742 ], [ 16.972216511753992, 52.540811297813718 ], [ 16.972319157098891, 52.540779867765671 ], [ 16.972306769225042, 52.540798993223454 ], [ 16.972300522453185, 52.540819303224694 ], [ 16.97230188597355, 52.540834526941367 ], [ 16.972306149527888, 52.540847641720902 ], [ 16.972313635187501, 52.540861261426201 ], [ 16.972327658608165, 52.540877061843062 ], [ 16.972345626306016, 52.540890501384411 ], [ 16.972364774947632, 52.540900723213262 ], [ 16.972259856671862, 52.540879048035421 ], [ 16.972141774928502, 52.540864522505949 ], [ 16.971980401935443, 52.540857889460582 ] ], [ [ 16.972364774947632, 52.540900723213262 ], [ 16.972384637472871, 52.540908258983706 ], [ 16.972405770343396, 52.540913837773331 ], [ 16.972429639281348, 52.540917664581258 ], [ 16.972458926496589, 52.540919155762339 ], [ 16.972479031010895, 52.540918241029473 ], [ 16.972500254315712, 52.540915456660997 ], [ 16.972524111837874, 52.540909929191663 ], [ 16.972541946628876, 52.540903848814253 ], [ 16.972555346963553, 52.540897962286884 ], [ 16.972573691930325, 52.540887213614411 ], [ 16.972591023359797, 52.540872849858012 ], [ 16.972601503932154, 52.540859897754792 ], [ 16.972607049863345, 52.540848390136489 ], [ 16.972612122162115, 52.540834356001895 ], [ 16.972612995121185, 52.540825016895475 ], [ 16.972612381648382, 52.540815922151268 ], [ 16.972610175763059, 52.540806170524363 ], [ 16.972603889933559, 52.540792121680134 ], [ 16.972594733086723, 52.540779552676398 ], [ 16.972585991885147, 52.540770768395326 ], [ 16.972574605763899, 52.540761758912403 ], [ 16.972561986598567, 52.540753897560307 ], [ 16.972545539171012, 52.540745880673455 ], [ 16.972521725876184, 52.540737647638942 ], [ 16.972499970336397, 52.540732777744125 ], [ 16.972469001425708, 52.540729368957166 ], [ 16.972444065926407, 52.540729481369972 ], [ 16.972420505015254, 52.540731775960047 ], [ 16.972402946090295, 52.540735072815423 ], [ 16.972387417628173, 52.54073912400267 ], [ 16.972366257229133, 52.540746946231451 ], [ 16.972350554777925, 52.540754772034994 ], [ 16.972333040364024, 52.540766704162507 ], [ 16.972319157098891, 52.540779867765671 ] ], [ [ 16.972594733086723, 52.540779552676398 ], [ 16.972673304383385, 52.540822362478586 ], [ 16.972741473457315, 52.540854020986757 ], [ 16.97286673138149, 52.540895291947834 ], [ 16.972746107035281, 52.540887918899891 ], [ 16.972665599630709, 52.540890317260541 ], [ 16.972555346963553, 52.540897962286884 ] ], [ [ 16.978123327984679, 52.530679116396691 ], [ 16.978211950407079, 52.530801424116319 ], [ 16.978260017241318, 52.530978263794857 ], [ 16.978316723636237, 52.531182144006074 ], [ 16.978390938265822, 52.531377329020074 ], [ 16.978482867749431, 52.531559325185953 ], [ 16.978610682416608, 52.531785286815506 ], [ 16.978886667642346, 52.532166592335329 ], [ 16.978999663608391, 52.53236846550201 ], [ 16.979178673579849, 52.53261023138414 ], [ 16.979362884215533, 52.53286404819206 ], [ 16.979798737325357, 52.533438670368788 ], [ 16.980261937812504, 52.534079685745404 ], [ 16.980432541690472, 52.534305656024536 ], [ 16.980643569569786, 52.534582863807643 ], [ 16.980719653940547, 52.534683009439483 ], [ 16.981035277101991, 52.535098084914281 ], [ 16.981798067793374, 52.536131768875066 ], [ 16.982426886162632, 52.536980489457001 ], [ 16.98308129933589, 52.537863461166005 ], [ 16.983159780030213, 52.537969492226267 ], [ 16.983290226046172, 52.538145394997002 ], [ 16.984918523818227, 52.54034264364806 ], [ 16.9859033613191, 52.54166951559246 ], [ 16.987244534264907, 52.543476617679914 ], [ 16.987077453738802, 52.543446163378306 ], [ 16.98689161594956, 52.543412961299708 ], [ 16.986501351769263, 52.543343361814991 ], [ 16.98639760309489, 52.543324867170305 ], [ 16.985922316708741, 52.543240237676827 ], [ 16.984997360921792, 52.543075456537252 ], [ 16.981756423078444, 52.542492982477029 ], [ 16.978884864654702, 52.541976810117163 ], [ 16.978566047959752, 52.541919557425082 ], [ 16.978450453100749, 52.541898964600769 ], [ 16.978446940167945, 52.541898364932045 ], [ 16.978412859199121, 52.541892026377347 ], [ 16.978366626257664, 52.541883681355039 ], [ 16.978326567807759, 52.541875801571926 ], [ 16.978292380774509, 52.541868561742092 ], [ 16.978146865667682, 52.541840981561492 ], [ 16.978024175153692, 52.541820716797211 ], [ 16.977976877485137, 52.54181307297123 ], [ 16.977710891890077, 52.541765085358975 ], [ 16.977466852210995, 52.541721069946888 ], [ 16.977186234820234, 52.541670492552903 ], [ 16.977134442338738, 52.541661152583039 ], [ 16.977002341030957, 52.541637038224067 ], [ 16.976918662619113, 52.541621756481938 ], [ 16.976430784031965, 52.541532645976119 ], [ 16.976280980028449, 52.541505349912548 ], [ 16.976115347645713, 52.541475804204595 ], [ 16.975805295699377, 52.541420582718118 ], [ 16.975285424461699, 52.541327952081978 ], [ 16.975129889754367, 52.541300196725921 ], [ 16.974750472348067, 52.541232902414286 ], [ 16.974349692713592, 52.54116182337247 ], [ 16.974102846866593, 52.541118022760948 ], [ 16.973947600211027, 52.541090450656 ], [ 16.973848550275193, 52.541072654971657 ], [ 16.973619732326664, 52.541031410591913 ], [ 16.973556240365202, 52.54101988995626 ], [ 16.973306211286886, 52.540974773957664 ], [ 16.973048579997936, 52.540928178065393 ], [ 16.97286673138149, 52.540895291947834 ] ], [ [ 16.978123327984679, 52.530679116396691 ], [ 16.978116021391973, 52.530812466902972 ], [ 16.978242674246271, 52.531224141338498 ], [ 16.978299838195728, 52.531389174011011 ], [ 16.978346296246045, 52.531495111099098 ], [ 16.978425669693696, 52.531658274586889 ], [ 16.978505018221231, 52.531802729455102 ], [ 16.978641535302781, 52.531990164247041 ], [ 16.978735091043223, 52.532111116711235 ], [ 16.978795462856095, 52.532180684501931 ], [ 16.978999663608391, 52.53236846550201 ] ], [ [ 16.978123327984679, 52.530679116396691 ], [ 16.977968767539089, 52.530155885296836 ], [ 16.977699672920714, 52.529214260392926 ], [ 16.977302425494816, 52.527720892146789 ], [ 16.976897157031459, 52.52619725397534 ], [ 16.976629692403939, 52.525205105621552 ], [ 16.976170275999362, 52.523413676894755 ], [ 16.975749457302577, 52.52191558093476 ], [ 16.975697259454861, 52.521729584921161 ], [ 16.975309577132059, 52.520229805170928 ], [ 16.975140742126605, 52.519601630948287 ], [ 16.975040860340137, 52.519243926427642 ], [ 16.974930103590449, 52.518821366511041 ], [ 16.974717788452342, 52.518036036036136 ], [ 16.97450344106139, 52.517227734726362 ], [ 16.974480605936623, 52.517140818418426 ], [ 16.974415437419378, 52.516903691708229 ], [ 16.974394210291305, 52.516826696660502 ], [ 16.974314222982265, 52.516523927442456 ], [ 16.974170299476732, 52.515998982927549 ], [ 16.974081239814588, 52.515659541192647 ], [ 16.974016646092956, 52.515410011857242 ], [ 16.973990525354107, 52.515292008737227 ], [ 16.973967392888671, 52.515189167246788 ], [ 16.973952716907572, 52.515081973409693 ], [ 16.973942362779198, 52.514948140441994 ], [ 16.973949703907554, 52.51482063671007 ], [ 16.973962740011185, 52.514729567573497 ], [ 16.973975867002409, 52.514662155063135 ], [ 16.973992504144292, 52.514579332425875 ], [ 16.974019157443916, 52.514490295343158 ], [ 16.974045897993864, 52.514415380837121 ], [ 16.974094796696495, 52.514297852902843 ], [ 16.974118378893387, 52.514246719254359 ], [ 16.974151875341395, 52.514188380026944 ], [ 16.974212167727348, 52.5140923636975 ], [ 16.974228788966933, 52.514067554144802 ], [ 16.974275898684681, 52.514001712867739 ], [ 16.974301580690454, 52.513965815546221 ], [ 16.974345150154878, 52.513909627493554 ], [ 16.97438597391924, 52.513861847078125 ], [ 16.974446492548207, 52.513796145378393 ], [ 16.974558512120787, 52.513687702913693 ], [ 16.974610510320129, 52.513640563451226 ], [ 16.974627122513013, 52.513625557502344 ], [ 16.974755663510518, 52.513510472071175 ], [ 16.974968473802729, 52.513322895641423 ], [ 16.97504468817279, 52.513255663443061 ], [ 16.975321902513802, 52.513013963597786 ], [ 16.975447128881232, 52.512900349737329 ], [ 16.975557386952751, 52.51279484432721 ], [ 16.975677559775953, 52.512669271241784 ], [ 16.975770628852544, 52.512549620250105 ], [ 16.975843385517617, 52.51244850972494 ], [ 16.975905030643524, 52.512342172222546 ], [ 16.975946322393092, 52.512255273975612 ], [ 16.975997847054984, 52.512141387926718 ], [ 16.976038381491257, 52.512016430698381 ], [ 16.976063757043587, 52.511906954183765 ], [ 16.976089516789056, 52.511750623803493 ], [ 16.976102387921749, 52.511611701795935 ], [ 16.976102703446053, 52.511553513911075 ], [ 16.976104408169498, 52.511461890902424 ], [ 16.976099229538466, 52.511382112585281 ], [ 16.976040154118699, 52.510704458779237 ], [ 16.976033515156143, 52.510605137776267 ], [ 16.975998898447962, 52.510142686846436 ], [ 16.975968438101106, 52.509711697185928 ], [ 16.975943928815749, 52.509343679660901 ], [ 16.975924875585644, 52.509123172506719 ], [ 16.975878910791781, 52.50884994782993 ], [ 16.975840885285304, 52.508724725740251 ], [ 16.975803979002773, 52.50861364388264 ], [ 16.975736370766164, 52.508426484288549 ], [ 16.975466104942566, 52.507728846150655 ], [ 16.975449891455554, 52.507680718831821 ], [ 16.975413961932304, 52.507548426916358 ], [ 16.975399203278208, 52.507439792635793 ], [ 16.975388617090264, 52.507323764466044 ], [ 16.975395565785792, 52.507172598728744 ], [ 16.975573204934523, 52.506174839456421 ], [ 16.975585368875723, 52.506080157406551 ], [ 16.975722008237263, 52.50501855593307 ], [ 16.975752309115826, 52.504750503615483 ], [ 16.976007918696752, 52.502607119891998 ], [ 16.976136762684057, 52.501583160377024 ], [ 16.976291891969371, 52.500362224546443 ], [ 16.976391046054463, 52.499490210635969 ], [ 16.976508003500477, 52.498535303450211 ], [ 16.976509905125308, 52.49850673397318 ], [ 16.976553847961593, 52.498133950647507 ], [ 16.976597182068399, 52.497787240471226 ], [ 16.976621011243346, 52.49759247084895 ], [ 16.976641683417309, 52.49741509624112 ], [ 16.976663237452257, 52.497231350726985 ], [ 16.976735580874571, 52.496637972109951 ], [ 16.976831134272423, 52.495731627421939 ], [ 16.976887354955132, 52.495315970945121 ], [ 16.977009124546374, 52.49433596095929 ], [ 16.977059872214639, 52.493901412546876 ], [ 16.977101039426795, 52.493550347677811 ], [ 16.977135205183274, 52.493226595802859 ], [ 16.977183012681003, 52.492897770539116 ], [ 16.97720372930014, 52.492802784733982 ], [ 16.977231984574296, 52.492726546147971 ], [ 16.977272504769463, 52.492652765886 ], [ 16.97731606895497, 52.492586502974113 ], [ 16.97735931538179, 52.492527160261197 ], [ 16.977412328628745, 52.492457281269864 ], [ 16.977444639471702, 52.4924050369508 ], [ 16.977465799187428, 52.492367802394654 ], [ 16.977475717964776, 52.492334692909516 ], [ 16.977478726375971, 52.492307671361452 ], [ 16.977475385911134, 52.492252029165371 ], [ 16.977452039669735, 52.492179585220526 ], [ 16.977410057934332, 52.492079749613318 ], [ 16.97738468697634, 52.491987213630054 ], [ 16.977363260136727, 52.491901850621616 ], [ 16.977347133912414, 52.491816578251246 ], [ 16.977339667105962, 52.491728845597621 ], [ 16.977344961199297, 52.491587814779678 ], [ 16.977365602096526, 52.491369245267848 ], [ 16.977456758847723, 52.490625532162632 ], [ 16.977550122326875, 52.489856132812726 ], [ 16.977573281788057, 52.489666118383212 ], [ 16.977690540579072, 52.488703389058351 ], [ 16.977763676253655, 52.488117757944345 ], [ 16.977832336367513, 52.487497961623781 ], [ 16.977918965326634, 52.486807596904079 ], [ 16.977995647287354, 52.486157356732086 ], [ 16.978030464188134, 52.48591546410595 ], [ 16.978032862761175, 52.48589850577725 ], [ 16.978050768208288, 52.485749055842888 ], [ 16.978072103227678, 52.485569803268113 ], [ 16.9781640767341, 52.484801278677644 ], [ 16.978194963215511, 52.484555091429925 ], [ 16.978297496861195, 52.483678275199473 ], [ 16.978320261697561, 52.483496708446289 ], [ 16.978372870822014, 52.483117326192335 ], [ 16.978435056672421, 52.482586912395014 ], [ 16.978446594200257, 52.482489520791567 ], [ 16.97850519437257, 52.482021196666615 ], [ 16.978589688971283, 52.481344735820898 ], [ 16.978637878492432, 52.480913830069397 ], [ 16.97872446419877, 52.480207723386229 ], [ 16.978746786492852, 52.480029296945716 ], [ 16.978821506066943, 52.47943091969239 ], [ 16.978838332548378, 52.479298450440837 ], [ 16.979064218443497, 52.477609930860588 ], [ 16.979146285640745, 52.476934597078817 ], [ 16.979276640568557, 52.475951221682806 ], [ 16.979314999931287, 52.475654163522904 ], [ 16.979399706474371, 52.475020698335477 ], [ 16.97958636254938, 52.473595851257194 ], [ 16.979621126330027, 52.473316090629986 ], [ 16.979661486651636, 52.472997749797621 ], [ 16.97975054809773, 52.472313990092836 ], [ 16.979831852684995, 52.471677318221147 ], [ 16.979914314527885, 52.471031401812908 ], [ 16.979937900438497, 52.47084445189963 ], [ 16.979999898024893, 52.470330133276683 ], [ 16.980041094040171, 52.469986982011029 ], [ 16.980095277283802, 52.469537109426582 ], [ 16.980129041074758, 52.469295107823854 ], [ 16.980198731898536, 52.468712383265292 ], [ 16.980230420897893, 52.468486715940266 ], [ 16.980262070505258, 52.468268333374056 ], [ 16.980268276497807, 52.468226075854147 ], [ 16.980427961898837, 52.466919311654159 ], [ 16.980451382484443, 52.466735866538698 ], [ 16.980477419283126, 52.466591771531533 ], [ 16.980493625299527, 52.466501564845572 ], [ 16.980525615347634, 52.46639148030421 ], [ 16.980568053035551, 52.466281574172754 ], [ 16.980603165332525, 52.466199785280523 ], [ 16.980636248353559, 52.46612371812693 ], [ 16.980683195182287, 52.466037544173588 ], [ 16.980775955369356, 52.465867425451535 ], [ 16.981182689355929, 52.465156618549806 ], [ 16.981494422747311, 52.464606807050856 ], [ 16.981699771918024, 52.464244870485324 ], [ 16.981877537752858, 52.463922487806826 ], [ 16.981913437817663, 52.46385879067639 ], [ 16.982077180415985, 52.463569267694155 ], [ 16.982219649763426, 52.463329480186211 ], [ 16.982549702481169, 52.46273914404339 ], [ 16.982828106136143, 52.462241197657505 ], [ 16.98285247660101, 52.462197720807623 ], [ 16.983125762467921, 52.461724600862098 ], [ 16.983236087479167, 52.461533822912848 ], [ 16.983456180793851, 52.46112572378788 ], [ 16.983505984197283, 52.461028354462371 ], [ 16.983506462572397, 52.461027553125902 ], [ 16.983551883828778, 52.460932627477554 ], [ 16.983579522240856, 52.460872386712808 ], [ 16.983607965658205, 52.4607945306796 ], [ 16.983636956003878, 52.460701483459452 ], [ 16.983652814067998, 52.460628359714683 ], [ 16.983681956133832, 52.460441773490075 ], [ 16.983727613006941, 52.460003356302977 ], [ 16.983763361383829, 52.459659301094931 ], [ 16.983782315480752, 52.459463636665944 ], [ 16.98388037968418, 52.458455059489673 ], [ 16.983894190748845, 52.458336479148393 ], [ 16.983909676341078, 52.458203806170303 ], [ 16.983936795486283, 52.458003423932354 ], [ 16.983976866934796, 52.457777358689277 ], [ 16.984043657462259, 52.45743698060798 ], [ 16.984122610426898, 52.456975385614584 ], [ 16.984157727638753, 52.456783594382671 ], [ 16.984204427354996, 52.456547748213538 ], [ 16.984221409808885, 52.456459622906195 ], [ 16.984254061379616, 52.456289556019946 ], [ 16.984267195279003, 52.45621476673189 ], [ 16.984347835564357, 52.455751581310651 ], [ 16.984371781674291, 52.455620581510068 ], [ 16.984411344142025, 52.455402332511305 ], [ 16.984454896059312, 52.455177315764978 ], [ 16.984458590913761, 52.455154443057374 ], [ 16.984475276566219, 52.455053450667144 ], [ 16.984493874879149, 52.454891239087878 ], [ 16.984511090372386, 52.454756077042781 ], [ 16.98452166840222, 52.45460506167089 ], [ 16.984532250450453, 52.454453956419762 ], [ 16.984539543062269, 52.454200798713508 ], [ 16.984544501401722, 52.453769872055496 ], [ 16.984547444610588, 52.453502339103622 ], [ 16.984547906108144, 52.453463221370093 ], [ 16.984547721145674, 52.453144906717256 ], [ 16.984562459436759, 52.452664227824968 ], [ 16.984559145112765, 52.452259693513049 ], [ 16.984558216797254, 52.45214140142722 ], [ 16.984551369487743, 52.452033441939861 ], [ 16.984536655228407, 52.451930115377515 ], [ 16.984508979469126, 52.451685086060095 ], [ 16.984496810003289, 52.451587289445534 ], [ 16.984453333570354, 52.451240174212131 ], [ 16.984387084674392, 52.450737337531599 ], [ 16.984370365631566, 52.450610231543507 ], [ 16.984306886684248, 52.450117695590286 ], [ 16.984256029755279, 52.44972917008284 ], [ 16.984237234861091, 52.449586288466662 ], [ 16.984163051182971, 52.449025212413993 ], [ 16.984129423160137, 52.448478679114473 ], [ 16.984113236445555, 52.448352841328088 ], [ 16.984032989255102, 52.448059964602407 ], [ 16.984036576889405, 52.448020090644256 ], [ 16.984034486058977, 52.447936946747262 ], [ 16.984060620212606, 52.447796630013386 ], [ 16.984086829335372, 52.447609543673707 ], [ 16.984099467462716, 52.447606791009399 ], [ 16.984115860832453, 52.447602393436313 ], [ 16.984133349503434, 52.44759657543225 ], [ 16.984146695016104, 52.447591226448225 ], [ 16.98415932559687, 52.447585415553149 ], [ 16.984169884598089, 52.447579839168434 ], [ 16.984180480536605, 52.447573453916611 ], [ 16.984194472527665, 52.447563618750003 ], [ 16.984206736370478, 52.447552944621535 ], [ 16.984211991905596, 52.447547457698825 ], [ 16.984217096244954, 52.447542058142069 ], [ 16.984220860355059, 52.447536995510809 ], [ 16.984224767449991, 52.447532025261232 ], [ 16.984230808348315, 52.447522234416077 ], [ 16.984235852448549, 52.447511707023885 ], [ 16.984239961315762, 52.447499094974511 ], [ 16.984241978087521, 52.447487166808095 ], [ 16.984242437769193, 52.447477100918135 ], [ 16.984241263710185, 52.447464128966161 ], [ 16.984237103374003, 52.447448857500113 ], [ 16.984230409680745, 52.447434262393507 ], [ 16.984223388311595, 52.447423619235472 ], [ 16.98422091307928, 52.447419799386182 ], [ 16.984211685370052, 52.447409118610324 ], [ 16.98420195483088, 52.447399778420504 ], [ 16.984182893320263, 52.447385242274706 ], [ 16.98416769585333, 52.447376348535414 ], [ 16.984061288977177, 52.447237279709938 ], [ 16.983983073151993, 52.44712558474351 ], [ 16.983923315617869, 52.446983623513709 ], [ 16.983873866221085, 52.446844806180884 ], [ 16.983839128569521, 52.446712625725546 ], [ 16.983821586395134, 52.446645498180288 ], [ 16.983814217831085, 52.446597342421889 ], [ 16.983763457299883, 52.446232653248373 ], [ 16.983715025546765, 52.445871781391475 ], [ 16.98368589142785, 52.445584722870414 ], [ 16.983670154168607, 52.445468426685032 ], [ 16.983635265048406, 52.445307371513756 ], [ 16.983601452313902, 52.445138869329647 ], [ 16.983564927936094, 52.444984621983281 ], [ 16.983509372686996, 52.444776533328302 ], [ 16.983471362914909, 52.444635482379681 ], [ 16.983378826193455, 52.444279974185946 ], [ 16.983275184412914, 52.443951709396423 ], [ 16.983241779306653, 52.443851661438906 ], [ 16.983188687415407, 52.443692813998865 ], [ 16.983168730280852, 52.443636708234067 ], [ 16.983053394051094, 52.443293852649184 ], [ 16.982969365468954, 52.443042194684764 ], [ 16.982764871239034, 52.44239254740944 ], [ 16.98270398387946, 52.442095142732136 ], [ 16.982686402416057, 52.44193231376623 ], [ 16.982690692726543, 52.441722457465026 ], [ 16.982718566568014, 52.441550510257684 ], [ 16.982760681405942, 52.441430883665333 ], [ 16.982740813165023, 52.441437290461892 ], [ 16.982728152094584, 52.441440582244802 ], [ 16.982710171876203, 52.441444322928945 ], [ 16.982689867286414, 52.441447394339917 ], [ 16.982672859825335, 52.441449172846895 ], [ 16.982660464908431, 52.44144986078534 ], [ 16.982640577652205, 52.441450240986221 ], [ 16.982621916233391, 52.441449562772348 ], [ 16.982603148813023, 52.441447983305707 ], [ 16.982576689373406, 52.441444023974107 ], [ 16.982553380003139, 52.441438769229805 ], [ 16.982530879910438, 52.441431909297265 ], [ 16.982505590390403, 52.441421673827122 ], [ 16.982521133725534, 52.441545342375875 ], [ 16.982543332827792, 52.441648977020911 ], [ 16.982552399558152, 52.441779100957788 ], [ 16.982560753391706, 52.441986024979798 ], [ 16.982581400831958, 52.442155831979633 ], [ 16.982605315389364, 52.442279913180975 ], [ 16.982629383329243, 52.442378093095265 ], [ 16.982705221964764, 52.442628532273837 ], [ 16.982758288392148, 52.44281364321332 ], [ 16.982826329957721, 52.443009263252627 ], [ 16.982880052070119, 52.443189708215883 ], [ 16.982993418349277, 52.443511213634956 ], [ 16.983059438338216, 52.443712465491608 ], [ 16.983184062942801, 52.444087229741626 ], [ 16.983250550916072, 52.444304049766075 ], [ 16.983294358610447, 52.4444567125379 ], [ 16.983442044678913, 52.445022731071468 ], [ 16.983517408174748, 52.445373988722359 ], [ 16.983574277401779, 52.445778897290445 ], [ 16.983631357808076, 52.446250098142905 ], [ 16.983657034558789, 52.446503278735477 ], [ 16.983681289981096, 52.446642565952551 ], [ 16.98372057639957, 52.446804055836715 ], [ 16.983746217120792, 52.446887241595476 ], [ 16.983816302717191, 52.447106011338917 ], [ 16.983829379648789, 52.447190331982512 ], [ 16.983820797095714, 52.447410458484725 ], [ 16.983806876874983, 52.447428389791483 ], [ 16.983799319145128, 52.447442382116989 ], [ 16.983793718036754, 52.447458656408578 ], [ 16.983791532831706, 52.447474269399891 ], [ 16.98379237493398, 52.447491283176298 ], [ 16.983795714158102, 52.447505191496433 ], [ 16.98380289344696, 52.447522043509309 ], [ 16.983811969187467, 52.44753604965387 ], [ 16.983822728607073, 52.447548645405305 ], [ 16.983829227915443, 52.447554602596959 ], [ 16.983835723120411, 52.447560649662258 ], [ 16.983849960043777, 52.447571236000158 ], [ 16.983863707135274, 52.447579655327459 ], [ 16.98387995887056, 52.447588027419329 ], [ 16.983896276292377, 52.447594961525056 ], [ 16.983912214023434, 52.447600539994028 ], [ 16.98392528384252, 52.447604450565258 ], [ 16.983936633734967, 52.447607342423055 ], [ 16.983949462741609, 52.44761007961332 ], [ 16.983960710700664, 52.447611980346693 ], [ 16.983972702321953, 52.447613713871611 ], [ 16.983987357989086, 52.447615133045282 ], [ 16.983993666452932, 52.447615600389746 ], [ 16.983999979021732, 52.447615977859876 ], [ 16.984015566489859, 52.447616333590581 ], [ 16.984029854773976, 52.447616127502755 ], [ 16.984050080031796, 52.447614853372443 ], [ 16.984071098205444, 52.447612333542615 ], [ 16.984086829335372, 52.447609543673707 ] ], [ [ 16.982437698189834, 52.441248632048627 ], [ 16.982426312452329, 52.441265886899274 ], [ 16.982418725859166, 52.441283746248857 ], [ 16.982415122447687, 52.441301403741903 ], [ 16.982415199870104, 52.441319034107153 ], [ 16.982418958130843, 52.441336637344612 ], [ 16.982425184501942, 52.441351764267132 ], [ 16.982437002834647, 52.44137013466316 ], [ 16.982453409078595, 52.441387953744083 ], [ 16.982474587271263, 52.441404415151759 ], [ 16.982505590390403, 52.441421673827122 ] ], [ [ 16.982723364788054, 52.441178133625868 ], [ 16.982690214253537, 52.441172441152922 ], [ 16.982666618319502, 52.441170239639462 ], [ 16.98264574688104, 52.441169613661465 ], [ 16.982625267369531, 52.441170073696867 ], [ 16.982598965936816, 52.44117232320815 ], [ 16.982577174351086, 52.441175729000967 ], [ 16.982561122549825, 52.441179142792876 ], [ 16.982548016227994, 52.441182516902245 ], [ 16.982531890498816, 52.441187548422484 ], [ 16.982507756561795, 52.441197120373779 ], [ 16.982485599439034, 52.441208524937025 ], [ 16.982464953280672, 52.441222293828048 ], [ 16.98245009618865, 52.441234992235749 ], [ 16.982437698189834, 52.441248632048627 ], [ 16.982411521319385, 52.44107423342426 ], [ 16.982304375965729, 52.440797175875133 ], [ 16.982271228449157, 52.440714131397662 ], [ 16.982265105694424, 52.440693519642188 ], [ 16.982238173693602, 52.440603295761058 ] ], [ [ 16.982760681405942, 52.441430883665333 ], [ 16.982782731806484, 52.441421815776103 ], [ 16.982800361899102, 52.441412852349487 ], [ 16.982816268213451, 52.441402960067549 ], [ 16.982830299573894, 52.441392226295697 ], [ 16.982841981922675, 52.441381362498888 ], [ 16.982850052475353, 52.441372235958049 ], [ 16.982861409333474, 52.441355610183727 ], [ 16.98286725405999, 52.441343657397674 ], [ 16.982871714320236, 52.441329792163685 ], [ 16.982873641551343, 52.441316603263964 ], [ 16.982873367602593, 52.441300048876322 ], [ 16.982869727488879, 52.441283077278932 ], [ 16.982859274434645, 52.441260592793093 ], [ 16.982845817663328, 52.441242644205211 ], [ 16.982830599426052, 52.441227813604428 ], [ 16.98281594818603, 52.441216680383931 ], [ 16.982793600855921, 52.441203257188036 ], [ 16.98276778882969, 52.441191573752278 ], [ 16.982747360109631, 52.441184479371238 ], [ 16.982723364788054, 52.441178133625868 ], [ 16.982561453448959, 52.440991525041092 ], [ 16.982454298720292, 52.440817723306345 ], [ 16.982366838815139, 52.440580127432007 ] ], [ [ 16.982793600855921, 52.441203257188036 ], [ 16.982891211257041, 52.441215536039699 ], [ 16.982957864822509, 52.441222429671839 ], [ 16.983121885104264, 52.441217942472584 ], [ 16.983485296016458, 52.4412079517069 ], [ 16.983532791774088, 52.441205703722019 ], [ 16.983143685911106, 52.441281994806069 ], [ 16.982995795986586, 52.441313560576454 ], [ 16.982861409333474, 52.441355610183727 ] ], [ [ 17.079465002664836, 52.485860189655902 ], [ 17.079364825460576, 52.485908441963687 ], [ 17.079337737276536, 52.485921493417798 ], [ 17.078693816927654, 52.48623104955697 ], [ 17.077288565871125, 52.486906615387397 ], [ 17.077203088913592, 52.48694767857198 ], [ 17.075802458535826, 52.487620963587943 ], [ 17.075672739113358, 52.487683161877847 ], [ 17.075637979034738, 52.487699775308414 ], [ 17.074942426483947, 52.488033205337693 ], [ 17.074185166167897, 52.488396117037169 ], [ 17.073110048137071, 52.488911424960818 ], [ 17.073076189193927, 52.488927602617181 ], [ 17.072655705634801, 52.489129147839506 ], [ 17.072397605313423, 52.489252839739635 ], [ 17.07205522246138, 52.489416980467396 ], [ 17.071757447567059, 52.489561700373656 ], [ 17.071581755213725, 52.489647249281226 ], [ 17.071154058506963, 52.489855057529454 ], [ 17.070970387057969, 52.489944432881217 ], [ 17.07086339860038, 52.48999530418584 ], [ 17.070762425372738, 52.490043395355222 ], [ 17.070730219748633, 52.490058789834968 ], [ 17.070349483365074, 52.49024046843568 ], [ 17.06978752117934, 52.490516056381566 ], [ 17.069749291393567, 52.490534410327001 ], [ 17.069049214485712, 52.49087150988013 ], [ 17.068593463355814, 52.491090183721667 ], [ 17.068249533439804, 52.491248621950966 ], [ 17.067951757838848, 52.491402866263762 ], [ 17.067887940941763, 52.491436811390116 ], [ 17.067773129965541, 52.491497895514506 ], [ 17.067618588859801, 52.491591339273178 ], [ 17.067495496596575, 52.491673244383122 ], [ 17.067257653562315, 52.491831614104662 ], [ 17.067173560926435, 52.491887713107197 ], [ 17.067042071674123, 52.491982971877029 ], [ 17.066819715149474, 52.492144292072766 ], [ 17.066736311640391, 52.492204809201901 ], [ 17.066610041035361, 52.492288550244545 ], [ 17.066482258047806, 52.492373165855078 ], [ 17.066312595884138, 52.492455117978821 ], [ 17.066256254224097, 52.492479830447209 ], [ 17.066194202729843, 52.492507057865858 ], [ 17.066032220096762, 52.49255837489487 ], [ 17.065999769101882, 52.492565849174106 ], [ 17.065912985020407, 52.492585836447041 ], [ 17.065788935378311, 52.492605484118236 ], [ 17.065692946906868, 52.49261695608984 ], [ 17.065594814184632, 52.492620208172482 ], [ 17.065503482459579, 52.492622941805379 ], [ 17.065402542854567, 52.49262299984445 ], [ 17.065274125876968, 52.492617931370226 ], [ 17.065157211486007, 52.492605945471809 ], [ 17.065029295772014, 52.492589462263673 ], [ 17.064925085767847, 52.492570038867328 ], [ 17.064820966631981, 52.492548548193071 ], [ 17.06473640143281, 52.492521351219111 ], [ 17.064676476394546, 52.492500133758185 ], [ 17.064590969030728, 52.492464196863672 ], [ 17.064490634847882, 52.492420282258742 ], [ 17.064034676191174, 52.492176542104218 ], [ 17.063678633341397, 52.491989660384284 ], [ 17.063572196410796, 52.491933772698843 ], [ 17.063134638055217, 52.491704091389217 ], [ 17.063066225689514, 52.491668163466642 ], [ 17.063027052205697, 52.49164755479201 ], [ 17.062646173277074, 52.491459363757443 ], [ 17.062605368645226, 52.491438998050363 ], [ 17.062499583700884, 52.491385098786445 ], [ 17.062189585678826, 52.491227028689373 ], [ 17.061562606814704, 52.490905644852596 ], [ 17.061245164606394, 52.490742773224262 ], [ 17.060925849479062, 52.490562241320887 ], [ 17.060751853872073, 52.490468007357585 ], [ 17.060579940484388, 52.49035995615121 ], [ 17.060492045998039, 52.490298073692323 ], [ 17.060285000419704, 52.490117851850734 ], [ 17.060006753417152, 52.489861449912752 ], [ 17.059665532518167, 52.489542853442337 ], [ 17.059539403887001, 52.489419092274488 ], [ 17.059531777596966, 52.48941159188626 ], [ 17.059458105731292, 52.489337979620167 ], [ 17.059360866714748, 52.489240775506637 ], [ 17.059337836029886, 52.489215033887376 ], [ 17.059198788857014, 52.489060120198161 ], [ 17.059091493097235, 52.488903568742643 ], [ 17.059073173456788, 52.488874576504976 ], [ 17.059002487617526, 52.488716467087421 ], [ 17.058955957191511, 52.488595360582181 ], [ 17.05887922156052, 52.488393979445839 ], [ 17.058809805273768, 52.488230494182545 ], [ 17.05869287218573, 52.487991756680238 ], [ 17.058664928752865, 52.48793373490318 ], [ 17.058662767021989, 52.487929292244338 ], [ 17.058580704697317, 52.487758583754342 ], [ 17.058577870169135, 52.487752690971931 ], [ 17.058453860845926, 52.487497377587587 ], [ 17.058440480699247, 52.487469995341691 ], [ 17.058329945940592, 52.48726670982753 ], [ 17.058234283260791, 52.487140569125813 ], [ 17.058148698242203, 52.487059924776268 ], [ 17.05796709282556, 52.486921489804786 ], [ 17.057794346417236, 52.486765931067083 ], [ 17.057730690666567, 52.486699227799875 ], [ 17.057656898139701, 52.486621834766638 ], [ 17.057639131725576, 52.48660373440444 ], [ 17.057461500066772, 52.486422011621599 ], [ 17.057400739006557, 52.486359852829999 ], [ 17.057337299657732, 52.486294951742124 ], [ 17.057283873821277, 52.486240198703499 ], [ 17.05724147219566, 52.486196060041841 ], [ 17.05713103096306, 52.486081098336868 ], [ 17.057077498028278, 52.48602544401593 ], [ 17.056932757310889, 52.485863058656882 ], [ 17.056808794757885, 52.485693909024683 ], [ 17.056731102320523, 52.485511218619919 ], [ 17.056691547462574, 52.485405875697637 ], [ 17.056651051690054, 52.485224965622159 ], [ 17.056626210018077, 52.48513344572978 ], [ 17.056577399020885, 52.48495401795639 ], [ 17.056570885919637, 52.484934663247437 ], [ 17.056541843736603, 52.484848201032449 ], [ 17.056532711173521, 52.484821427995598 ], [ 17.056504837718435, 52.484771951333215 ], [ 17.05649390409366, 52.484752613923931 ], [ 17.056483376476574, 52.484734092667402 ], [ 17.056400499306864, 52.484622281423384 ], [ 17.056310890663703, 52.484512787941753 ], [ 17.056304682472216, 52.484506569829648 ], [ 17.056157011951804, 52.484360684702068 ], [ 17.056129203856838, 52.484339810729772 ], [ 17.055989714192233, 52.484235613268538 ], [ 17.055866075438633, 52.48416954197738 ], [ 17.05582778733984, 52.484149125264949 ], [ 17.055528212554265, 52.48401360404312 ], [ 17.055332770920717, 52.483935468658032 ], [ 17.053045596531309, 52.482967205401216 ], [ 17.05237573119398, 52.482683650581293 ], [ 17.051618097574277, 52.482362848920268 ], [ 17.051185346500461, 52.482181230531097 ], [ 17.050133448024056, 52.481735856527322 ], [ 17.049418351181895, 52.481433280581854 ], [ 17.049083146471855, 52.481291488700819 ], [ 17.049045118730881, 52.481275301343061 ], [ 17.048330804783937, 52.480972012070161 ], [ 17.047391253464028, 52.480572359083084 ], [ 17.046721902933864, 52.480288780131609 ], [ 17.046018390037517, 52.480001754749708 ], [ 17.045586397394015, 52.479823995553694 ], [ 17.044437568743831, 52.479354572385965 ], [ 17.044157912239513, 52.479239768139308 ], [ 17.04381026118077, 52.479097035661624 ], [ 17.043112896695089, 52.478815041227016 ], [ 17.042689325443177, 52.478640558592076 ], [ 17.04201207276726, 52.478367075183023 ], [ 17.041523098292764, 52.478169559456759 ], [ 17.040999770283506, 52.477956272309108 ], [ 17.040737046722956, 52.477845338015349 ], [ 17.040403065940772, 52.47771037699966 ], [ 17.039895584726438, 52.477505352354058 ], [ 17.039483466834827, 52.477338872873823 ], [ 17.039436439911988, 52.477319834903405 ], [ 17.03795527557104, 52.476721436309205 ], [ 17.037730674640709, 52.476641258519329 ], [ 17.037512919671375, 52.476582690239688 ], [ 17.037483538155247, 52.476577615597279 ], [ 17.037224510899929, 52.476532932639607 ], [ 17.035242074957477, 52.476309695709745 ], [ 17.034951147395766, 52.476276889893391 ], [ 17.034342083674307, 52.476197152557468 ], [ 17.034104110167554, 52.476152812650447 ], [ 17.033924007851091, 52.476105566798871 ], [ 17.033736245170797, 52.476018708370269 ], [ 17.033371513959441, 52.475787966398094 ], [ 17.032514106723678, 52.475209943085765 ], [ 17.03246877592122, 52.475179417821991 ], [ 17.032291752616981, 52.475059996475984 ], [ 17.029739604440508, 52.473163510536928 ], [ 17.029691813136246, 52.473128805800492 ], [ 17.029422480526602, 52.472933009458181 ], [ 17.028915965265206, 52.472563716935156 ], [ 17.028000928688865, 52.471883873080529 ], [ 17.027700573687195, 52.471660842280485 ], [ 17.027538502221621, 52.471540313784025 ], [ 17.027257973763923, 52.471331823508017 ], [ 17.02715486426132, 52.471256350126815 ], [ 17.026980452542446, 52.47112859941226 ], [ 17.026912712846286, 52.471078989915469 ], [ 17.026549651742855, 52.47075336411114 ], [ 17.026485372932196, 52.470688971503762 ], [ 17.02635957220977, 52.470528212448535 ], [ 17.026284204316031, 52.470431884744855 ], [ 17.02615259562571, 52.470259425859098 ], [ 17.026069155398769, 52.470152619815927 ], [ 17.025800587966771, 52.46980887125973 ], [ 17.02570852389518, 52.469690768029949 ], [ 17.025678302398656, 52.469651947716955 ], [ 17.025568137239453, 52.469510516731532 ], [ 17.025456021083141, 52.46936662459553 ], [ 17.025361168414047, 52.469245056674701 ], [ 17.025315485274295, 52.469186460426883 ], [ 17.025156861365296, 52.468982698744988 ], [ 17.025074268648044, 52.46887680553052 ], [ 17.025051862897236, 52.468847649542433 ], [ 17.024952223884473, 52.468717906451865 ], [ 17.024856750834712, 52.468593809326293 ], [ 17.024739576589852, 52.468441287379108 ], [ 17.024651064385598, 52.468326210714054 ], [ 17.024620173318208, 52.468285939834942 ], [ 17.024585108937593, 52.468240202644957 ], [ 17.024488958471114, 52.468114834679213 ], [ 17.024265172469871, 52.467830563328455 ], [ 17.024139264775066, 52.467669260284026 ], [ 17.024046370826927, 52.467550152420017 ], [ 17.023899856767592, 52.467362331321688 ], [ 17.023852221925591, 52.467301363328772 ], [ 17.023670599003644, 52.467075448915786 ], [ 17.023541095995551, 52.466928745837649 ], [ 17.023471799185767, 52.466858241424148 ], [ 17.023409824552282, 52.466795234697393 ], [ 17.023381520684548, 52.466769577510362 ], [ 17.023285701057702, 52.466682979536067 ], [ 17.023183106395617, 52.466593120212693 ], [ 17.023160096691189, 52.466574207266959 ], [ 17.023095337392423, 52.466520777737209 ], [ 17.02307545242688, 52.466504435421328 ], [ 17.022961439186254, 52.466422929608434 ], [ 17.022784271511842, 52.466321209847429 ], [ 17.022664532704837, 52.466252469884218 ], [ 17.022573637361013, 52.46620390967972 ], [ 17.022338284175881, 52.466082867831219 ], [ 17.022242247172475, 52.466034041490417 ], [ 17.021954141471976, 52.465887472134561 ], [ 17.021600378496867, 52.465707603942853 ], [ 17.021524648401922, 52.46566901049767 ], [ 17.021335321730326, 52.46557257161512 ], [ 17.02112200593006, 52.465462689214007 ], [ 17.021011212019452, 52.465408038421394 ], [ 17.020767130991544, 52.465284778613615 ], [ 17.020583246166407, 52.465191847423583 ], [ 17.020306885257199, 52.465049607943044 ], [ 17.019995546976993, 52.464889423098427 ], [ 17.01980929297379, 52.464793572822579 ], [ 17.019768097573923, 52.464769767557918 ], [ 17.019737377931008, 52.464752073962963 ], [ 17.019660706492406, 52.464691877148553 ], [ 17.019593028051005, 52.464618339402342 ], [ 17.019561444955276, 52.464570680191862 ], [ 17.019517310567888, 52.464504102563325 ], [ 17.019374688226108, 52.464259766428945 ], [ 17.019346514248131, 52.464211624595798 ], [ 17.019318487479055, 52.46416348522088 ], [ 17.019191459725615, 52.463945763424704 ], [ 17.019182982249678, 52.463931230494161 ], [ 17.019054037001247, 52.46371032839857 ], [ 17.018757828564887, 52.463220121848174 ], [ 17.018736439995415, 52.463184865488351 ], [ 17.018715194568255, 52.463149701465888 ], [ 17.018709176296539, 52.463139437036588 ], [ 17.018536856594938, 52.462845043432424 ], [ 17.018516913145096, 52.462784177401915 ], [ 17.018508481702479, 52.462748958228531 ], [ 17.018502053769591, 52.46271503183327 ], [ 17.018499693162731, 52.462652841451884 ], [ 17.018503056653298, 52.462630411986964 ], [ 17.018509771513003, 52.462585822683529 ], [ 17.018525907555894, 52.462541301305102 ], [ 17.018550259743126, 52.462490891397394 ], [ 17.018627756980266, 52.462365369895011 ], [ 17.018752274950167, 52.462163374876482 ], [ 17.018863746466845, 52.461963319788403 ], [ 17.018911590712186, 52.46186194575953 ], [ 17.018954255688325, 52.461738179000157 ], [ 17.018979583632703, 52.461623385938829 ], [ 17.018992647592608, 52.461525926359876 ], [ 17.019010580467874, 52.461402015068344 ], [ 17.019010120141054, 52.461376193624623 ], [ 17.019008003509981, 52.46125608383565 ], [ 17.018997324599813, 52.461136460204123 ], [ 17.018980643119257, 52.461061977498211 ], [ 17.018925157089978, 52.460835110289587 ], [ 17.018810397227444, 52.460423135945753 ], [ 17.018769664594991, 52.460235011566958 ], [ 17.018752161438453, 52.460123098618212 ], [ 17.01873154126659, 52.459955998170287 ], [ 17.01867579559492, 52.459548070484573 ], [ 17.018653329249751, 52.459389303801743 ], [ 17.018626502293536, 52.459252230332503 ], [ 17.018612114535209, 52.459198832723366 ], [ 17.018597583344466, 52.459151908629742 ], [ 17.018565080520748, 52.459059261991108 ], [ 17.018533655045424, 52.458985251669425 ], [ 17.018509419975427, 52.458928181238896 ], [ 17.018449305728932, 52.458827426676073 ], [ 17.018425206904404, 52.458786998030426 ], [ 17.018414078241804, 52.458772510539141 ], [ 17.018340079479202, 52.458676020401597 ], [ 17.018274744307341, 52.458599732782361 ], [ 17.018258790936457, 52.458581206907461 ], [ 17.018195007220619, 52.458516278107261 ], [ 17.018081921832064, 52.458411487504961 ], [ 17.017942342113251, 52.458299956648162 ], [ 17.01770136724744, 52.458134828502011 ], [ 17.017675810563585, 52.458117040983559 ], [ 17.017472514664632, 52.457975209755425 ], [ 17.017216230543248, 52.457803527868066 ], [ 17.017013255448671, 52.457667727410183 ], [ 17.016961367170282, 52.457633038498066 ], [ 17.016811998643494, 52.457533034732428 ], [ 17.016661768235917, 52.457432566598243 ], [ 17.016609880509602, 52.457397877536067 ], [ 17.016467373589176, 52.457302485585878 ], [ 17.016410339144056, 52.457264382190779 ], [ 17.016215083431028, 52.457133836588106 ], [ 17.016028123671777, 52.457008736510268 ], [ 17.015954369455063, 52.456959379252474 ], [ 17.015827433077149, 52.456874681205676 ], [ 17.015785264141769, 52.45684654083842 ], [ 17.015644747758444, 52.456752800248623 ], [ 17.015579849286308, 52.456709527632981 ], [ 17.015280091503481, 52.456509589111562 ], [ 17.015058814139181, 52.456361965219898 ], [ 17.015033656438032, 52.456345173186627 ], [ 17.01490900880572, 52.456262041581773 ], [ 17.014839680386483, 52.456215815984685 ], [ 17.014638539459956, 52.456082110808971 ], [ 17.014442818956088, 52.455949035962455 ], [ 17.014332767329062, 52.45587532306287 ], [ 17.014230073603013, 52.455804971592208 ], [ 17.014089743308798, 52.455710512671033 ], [ 17.013930342746097, 52.455601432249665 ], [ 17.013808961672396, 52.455521052618302 ], [ 17.013766142111105, 52.455494339673614 ], [ 17.013667079599891, 52.45542512801682 ], [ 17.013524572146412, 52.455336568097813 ], [ 17.013501140576615, 52.455320704161878 ], [ 17.013336379284471, 52.455216299854996 ], [ 17.013255342800615, 52.455171855337511 ], [ 17.013099737116441, 52.455096296499356 ], [ 17.012938829066091, 52.455024066196913 ], [ 17.012779900241725, 52.454953667804872 ], [ 17.012659515538648, 52.454900286752107 ], [ 17.012379194010016, 52.45477603997211 ], [ 17.012070828816618, 52.454643585887794 ], [ 17.011949044852006, 52.45459188949846 ], [ 17.01182259666275, 52.454535887208571 ], [ 17.011681437275513, 52.454469833555734 ], [ 17.011500407568818, 52.454377025598156 ], [ 17.011274532094266, 52.454240470081352 ], [ 17.01110474064993, 52.454123745658471 ], [ 17.010804014176678, 52.453910197679043 ], [ 17.009446425592053, 52.452951128009666 ], [ 17.009195658786695, 52.452772685358887 ], [ 17.008450826546049, 52.452245035154696 ], [ 17.008276537465562, 52.452123913480214 ], [ 17.00804534575289, 52.451971881689332 ], [ 17.007904546997857, 52.451891618391407 ], [ 17.007592822770867, 52.451742995834749 ], [ 17.00647681355704, 52.451223648402639 ], [ 17.00630699183499, 52.4511439731331 ], [ 17.006043470731832, 52.451023502057424 ], [ 17.005369478160802, 52.450708394058488 ], [ 17.00508801727208, 52.450577814304459 ], [ 17.004854224028627, 52.450467466069405 ], [ 17.00388797280706, 52.450013671160356 ], [ 17.001705326928807, 52.449017102672947 ], [ 17.000990992579645, 52.448716487838205 ], [ 17.000738919217255, 52.448610409352696 ], [ 17.000561110801879, 52.448538505652586 ], [ 17.000326038856233, 52.448443866805476 ], [ 17.000193323033443, 52.448390444105669 ], [ 17.000000029823482, 52.448312701119903 ], [ 16.999856907304366, 52.448255054528119 ], [ 16.999427150503681, 52.448087503734193 ], [ 16.999177002541298, 52.44799431639526 ], [ 16.999076554217691, 52.447959787002944 ], [ 16.998919162831193, 52.447908463669108 ], [ 16.998760925933347, 52.447856316317214 ], [ 16.998644538919432, 52.447819448059903 ], [ 16.998420837781122, 52.447759896025708 ], [ 16.998208836033353, 52.44770854664484 ], [ 16.997906845255077, 52.447635525660928 ], [ 16.997830400796719, 52.447617051886851 ], [ 16.997425759850387, 52.447519175751054 ], [ 16.99721259188463, 52.447467624924329 ], [ 16.997184198673807, 52.447460757942061 ], [ 16.997050090017943, 52.447428444859369 ], [ 16.997018076683652, 52.447420257295065 ], [ 16.996710079348272, 52.447343443767274 ], [ 16.996322223558106, 52.447239102431205 ], [ 16.996128024725223, 52.447188050986234 ], [ 16.995474944646713, 52.446995473602264 ], [ 16.995251979086277, 52.446929631905697 ], [ 16.995118547318256, 52.446888963307131 ], [ 16.994953291071507, 52.446835972211595 ], [ 16.994856047850579, 52.446799065055295 ], [ 16.994782567906324, 52.446767237931205 ], [ 16.994694015235069, 52.446723732243498 ], [ 16.994602488117906, 52.446674419629218 ], [ 16.994520285003343, 52.446627243865741 ], [ 16.994326228317373, 52.446508374160402 ], [ 16.993974346446105, 52.446276735092901 ], [ 16.993825844848573, 52.446179054730784 ], [ 16.993572021647022, 52.446011769167207 ], [ 16.99340409424703, 52.445901076501649 ], [ 16.993295046686409, 52.445829249347611 ], [ 16.99317058826745, 52.445746727014907 ], [ 16.993074141688489, 52.445682668826123 ], [ 16.992921080448994, 52.44557528589435 ], [ 16.992815495023034, 52.445505046103342 ], [ 16.992628900079147, 52.445387379530175 ], [ 16.9925666026008, 52.445346026915537 ], [ 16.992385414343484, 52.445226023261611 ], [ 16.992187790830936, 52.445095216773119 ], [ 16.99215350069306, 52.445072418290401 ], [ 16.992080009316577, 52.445037711044776 ], [ 16.992017831131218, 52.445003465727083 ], [ 16.991819143229566, 52.444876688002168 ], [ 16.991376144515264, 52.4445874581764 ], [ 16.991257393235959, 52.444489650312477 ], [ 16.990987542364188, 52.444303018586517 ], [ 16.990847633003188, 52.444217352967229 ], [ 16.989769775936068, 52.443531197069099 ], [ 16.989714228576698, 52.443493645378624 ], [ 16.989601990004971, 52.443421040897164 ], [ 16.989556533385599, 52.443391395900527 ], [ 16.989475600523495, 52.44333920126293 ], [ 16.989400497418178, 52.443291512966063 ], [ 16.988799098944934, 52.442903339206318 ], [ 16.988264285336829, 52.442562616484167 ], [ 16.988043453933287, 52.442418366053957 ], [ 16.987795123709699, 52.442254219261613 ], [ 16.987519119971051, 52.442067564577549 ], [ 16.987386688209693, 52.441982831519312 ], [ 16.987262235696559, 52.441897424656197 ], [ 16.987028061100872, 52.441745749581209 ], [ 16.986748950706549, 52.441559579807482 ], [ 16.986544252212067, 52.441426484441493 ], [ 16.98637955649027, 52.44132959795143 ], [ 16.986263143851474, 52.441268072166984 ], [ 16.98620207005774, 52.441235641393988 ], [ 16.986045544964284, 52.441172622621444 ], [ 16.985930709838406, 52.441137836759211 ], [ 16.985805208577652, 52.441101340015045 ], [ 16.985678047127344, 52.441075428248247 ], [ 16.98558822318725, 52.441060226277244 ], [ 16.98548962384621, 52.441047033364079 ], [ 16.98535404475248, 52.441034649308314 ], [ 16.985234016925272, 52.4410298155912 ], [ 16.985073033186318, 52.441032288755366 ], [ 16.984947464224724, 52.441035994938012 ], [ 16.984838606508358, 52.441047631083251 ], [ 16.984729748737234, 52.441059267127656 ], [ 16.983994466267482, 52.441151785720308 ], [ 16.983532791774088, 52.441205703722019 ] ], [ [ 16.98416769585333, 52.447376348535414 ], [ 16.984161812942922, 52.447373010247851 ], [ 16.984144229216859, 52.447364795371605 ], [ 16.984114384387556, 52.447354302724094 ], [ 16.984084971955408, 52.447347235313501 ], [ 16.984057638629469, 52.447342991610157 ], [ 16.984026084188088, 52.447340924525392 ], [ 16.983993671159396, 52.447341541111996 ], [ 16.983957862073893, 52.447345607596908 ], [ 16.983955185730558, 52.447346191568471 ], [ 16.98393215289283, 52.447350925622921 ], [ 16.983912020789415, 52.44735660857674 ], [ 16.983891214118124, 52.447364168848175 ], [ 16.983874076466808, 52.447371971569957 ], [ 16.983856104840207, 52.447381918723813 ], [ 16.983835864591008, 52.447396414332623 ], [ 16.983820797095714, 52.447410458484725 ] ], [ [ 16.983829227915443, 52.447554602596959 ], [ 16.983871800360291, 52.447640955254926 ], [ 16.983887687332391, 52.447712102034238 ], [ 16.983891608615998, 52.44781317600679 ], [ 16.983896733091232, 52.448020044628677 ], [ 16.983904719653985, 52.448103019231681 ], [ 16.983968789211175, 52.448456782105303 ], [ 16.984001063463907, 52.448613924898851 ], [ 16.98406373516476, 52.44882105516637 ], [ 16.984105751613722, 52.448897054674717 ], [ 16.984163051182971, 52.449025212413993 ] ], [ [ 16.982157321759111, 52.565932833553717 ], [ 16.982215283228605, 52.565839470946351 ], [ 16.982880281012282, 52.56471582197684 ], [ 16.983014680957663, 52.564385864957949 ], [ 16.983349151371325, 52.563796774773607 ], [ 16.984216878096692, 52.56232228903761 ], [ 16.984244428427605, 52.562287950515191 ], [ 16.984259411391708, 52.562250879567692 ], [ 16.984347339589558, 52.562113236035607 ], [ 16.984997367579574, 52.561033572073939 ], [ 16.985349201687974, 52.560447650076725 ], [ 16.985931791059841, 52.55959870478457 ], [ 16.986630594506096, 52.558415798549021 ], [ 16.989023705838214, 52.554411411778098 ], [ 16.989886704815401, 52.553019012137547 ], [ 16.990299522743818, 52.552393727217428 ], [ 16.990564487050612, 52.551907140287753 ], [ 16.990726781997569, 52.551532856818191 ], [ 16.990828694089355, 52.551230311513748 ], [ 16.990897323220654, 52.550978018616469 ], [ 16.990954092548165, 52.550678484410611 ], [ 16.990983139271112, 52.550449624091335 ], [ 16.99096286559946, 52.550108577669967 ], [ 16.990954880099654, 52.549892580055072 ], [ 16.990937619850865, 52.549701968659676 ], [ 16.990884043699289, 52.549395524354395 ], [ 16.990760561456703, 52.548920510108609 ], [ 16.990726314776396, 52.548733567723026 ], [ 16.990691027346074, 52.548621080077098 ], [ 16.990591381707357, 52.548357475503295 ], [ 16.990388696053412, 52.547917542631737 ], [ 16.990132963380937, 52.54752788576959 ], [ 16.990202182027744, 52.547508014756289 ], [ 16.990243413324219, 52.547496842553713 ], [ 16.990350686727471, 52.547454592415065 ], [ 16.990464961970172, 52.547417317974414 ], [ 16.990533773775862, 52.547406344174362 ], [ 16.990595953975227, 52.547408119519702 ], [ 16.990695419043277, 52.547420511509372 ], [ 16.990782137679361, 52.547453553681443 ], [ 16.990839621976463, 52.547480612972727 ], [ 16.990880738478836, 52.547504246369876 ], [ 16.99094931707879, 52.547527446539981 ], [ 16.990925428296691, 52.547472265973248 ], [ 16.990885418797824, 52.547437318622883 ], [ 16.990812682312018, 52.547392101838689 ], [ 16.990745931724739, 52.547357959630993 ], [ 16.990667337656632, 52.547327933538938 ], [ 16.990607795962386, 52.547316849004048 ], [ 16.990546795283141, 52.547315093692156 ], [ 16.990497243998863, 52.547317850007147 ], [ 16.990380351151419, 52.547331694959986 ], [ 16.990189652280346, 52.547404457955544 ], [ 16.990210201174914, 52.547439075052452 ], [ 16.990243413324219, 52.547496842553713 ] ], [ [ 16.982880281012282, 52.56471582197684 ], [ 16.983134382315125, 52.56437297426509 ], [ 16.983430087429333, 52.563898529512251 ], [ 16.984335096601349, 52.562377008637064 ], [ 16.984354285315902, 52.562344776252246 ], [ 16.984376035513158, 52.562308180305493 ], [ 16.984452051982618, 52.562166376376815 ], [ 16.984912363808554, 52.561377953639017 ], [ 16.985151933728332, 52.560981068677968 ], [ 16.985437638820827, 52.560491968009963 ], [ 16.985931791059841, 52.55959870478457 ] ], [ [ 16.987244534264907, 52.543476617679914 ], [ 16.987402968542202, 52.543689598236419 ], [ 16.988579892545875, 52.545271282330035 ], [ 16.988631739149501, 52.545340879710253 ], [ 16.988708673371406, 52.545449039121223 ], [ 16.988915279025527, 52.545760693746701 ], [ 16.989297600264397, 52.546178857566488 ], [ 16.989537900790957, 52.546479750743067 ], [ 16.98983164361557, 52.546880038307087 ], [ 16.9901014431269, 52.54725230606735 ], [ 16.990163833221342, 52.547275311652911 ], [ 16.990226374912393, 52.547298229836976 ], [ 16.990285072164973, 52.547314876663513 ], [ 16.990380351151419, 52.547331694959986 ] ], [ [ 16.988915279025527, 52.545760693746701 ], [ 16.989143405917154, 52.546130906529491 ], [ 16.989207548917118, 52.546218791036686 ], [ 16.98963294570898, 52.546827644340397 ], [ 16.990069624059561, 52.547435248501174 ], [ 16.990086619560948, 52.547460451242145 ], [ 16.990132963380937, 52.54752788576959 ] ], [ [ 16.990069624059561, 52.547435248501174 ], [ 16.990145001550108, 52.547416201663758 ], [ 16.990189652280346, 52.547404457955544 ] ], [ [ 16.9901014431269, 52.54725230606735 ], [ 16.990189652280346, 52.547404457955544 ] ], [ [ 16.990983139271112, 52.550449624091335 ], [ 16.991032173182692, 52.550203114546839 ], [ 16.991038854147195, 52.55001165039188 ], [ 16.991035678283353, 52.549777566037228 ], [ 16.990999814367719, 52.549428969591389 ], [ 16.990960258839312, 52.54920640987531 ], [ 16.99086048520682, 52.548822820052642 ], [ 16.990695722043561, 52.548337480995045 ], [ 16.990522169222551, 52.547957405074989 ], [ 16.990243413324219, 52.547496842553713 ] ], [ [ 16.99094931707879, 52.547527446539981 ], [ 16.991653406900227, 52.548147049223708 ], [ 16.99179940456051, 52.548277784830788 ], [ 16.992000064444774, 52.548471598027696 ], [ 16.992144543352794, 52.548619486440366 ], [ 16.992299475357211, 52.548803439067548 ], [ 16.992475389233206, 52.549031999119023 ], [ 16.992602253795262, 52.549229686114806 ], [ 16.992925128368025, 52.549732994090498 ], [ 16.992970958416208, 52.549805365559905 ], [ 16.994130111163408, 52.551661553203722 ], [ 16.994508126762653, 52.552266886296444 ], [ 16.994916135436412, 52.552920125861299 ], [ 16.997061179946485, 52.556350423315784 ], [ 16.997112762113332, 52.55643287395889 ], [ 16.997154325350724, 52.556498785524589 ], [ 16.997770939561853, 52.557475828840062 ], [ 16.998075506419678, 52.557955966238787 ], [ 16.998266218866227, 52.558256361286531 ], [ 16.998563687306742, 52.558694913843944 ], [ 16.998651739846956, 52.558864594895589 ], [ 16.998767660019226, 52.559041312863329 ], [ 16.999361825833692, 52.560000788475378 ], [ 16.999375401109464, 52.560023025365588 ] ], [ [ 17.091839649268177, 52.48862296949104 ], [ 17.091842223604054, 52.488624812390292 ], [ 17.091944081390682, 52.488685007754803 ], [ 17.092222764928184, 52.488850319183094 ], [ 17.092534296749875, 52.489036306658527 ], [ 17.093463592306541, 52.489591120572676 ], [ 17.093770248930749, 52.489774237921672 ], [ 17.094101971382546, 52.489977455617364 ], [ 17.094403692757751, 52.490162380535587 ], [ 17.094570060213051, 52.490264266569682 ], [ 17.094736727211259, 52.490362649454397 ], [ 17.094981696027471, 52.490507354093261 ], [ 17.095294774146105, 52.490692189753396 ], [ 17.095368476877201, 52.49073582911322 ], [ 17.096059298980379, 52.49114368436075 ], [ 17.096139652753017, 52.491191017589252 ] ], [ [ 17.120922420457372, 52.50730286741841 ], [ 17.12098457446913, 52.507427350922505 ], [ 17.121064545701088, 52.507580981632891 ], [ 17.121535361705117, 52.508465475775985 ], [ 17.121673896127664, 52.508687311955875 ], [ 17.121804207266667, 52.50888770132525 ], [ 17.122122222809619, 52.509363412267078 ], [ 17.122165376242883, 52.50942651646745 ], [ 17.122344012136786, 52.509703672578759 ], [ 17.122441048511249, 52.509841023898183 ], [ 17.122551914435796, 52.50999631302232 ], [ 17.122712189041106, 52.510199425324913 ], [ 17.122924060182122, 52.510412889810787 ], [ 17.123092081209528, 52.510558831905918 ], [ 17.123267215018252, 52.510693553988489 ], [ 17.123523302121779, 52.510865806136735 ], [ 17.123880797650486, 52.511083377308665 ], [ 17.124268949337456, 52.511321940008123 ], [ 17.124416117740328, 52.511410796642167 ], [ 17.12489973590375, 52.511706274411729 ], [ 17.125655199875919, 52.512181802296126 ], [ 17.126061362894607, 52.512420194587264 ], [ 17.126307303166836, 52.512561160165482 ], [ 17.126544628733235, 52.512672488105608 ], [ 17.12676615681222, 52.512756673031618 ], [ 17.126938043495809, 52.51281569758509 ], [ 17.127147796176843, 52.51288215683595 ], [ 17.127899381511508, 52.513093832707042 ] ] ] } }
]
}
