{
"type": "FeatureCollection",
"name": "drogi_lokalne_1933",
"crs": { "type": "name", "properties": { "name": "urn:ogc:def:crs:OGC:1.3:CRS84" } },
"features": [
{ "type": "Feature", "properties": { "id": null }, "geometry": { "type": "MultiLineString", "coordinates": [ [ [ 16.973503391468789, 52.55113057568758 ], [ 16.97090733450737, 52.552308350765827 ], [ 16.967316094109819, 52.553928349842202 ], [ 16.964071301221388, 52.555423365713551 ], [ 16.963315401638123, 52.555795171518042 ], [ 16.961849219461005, 52.556182768762085 ] ], [ [ 16.966661095571894, 52.534837775320518 ], [ 16.966569276537818, 52.535814302968888 ], [ 16.966239541313108, 52.536108946532934 ], [ 16.966128348930408, 52.536606979193884 ], [ 16.966013404457701, 52.537055772898491 ], [ 16.966180867969136, 52.537834636678959 ], [ 16.966292467531538, 52.538807125073859 ], [ 16.966473595520277, 52.539308528386272 ], [ 16.966455083576541, 52.539709009119662 ], [ 16.966153076017878, 52.541427431698217 ], [ 16.966059021940136, 52.541813558863211 ], [ 16.965861909024991, 52.542118020504063 ], [ 16.965741183700516, 52.542408402500818 ], [ 16.96567303133644, 52.542926727350277 ], [ 16.965459740208662, 52.543307872636532 ], [ 16.964557585124972, 52.544935506620547 ], [ 16.963569451773512, 52.54664631296211 ], [ 16.963193606169213, 52.547401772671414 ], [ 16.962664629546438, 52.548600977018147 ], [ 16.962502779534635, 52.549233130407877 ], [ 16.962094641331216, 52.550003423126121 ], [ 16.961771519255276, 52.550709760655394 ], [ 16.961592080635178, 52.551176140688789 ], [ 16.961693463533869, 52.551712775457716 ], [ 16.961872256401847, 52.552077577886962 ], [ 16.962000766263916, 52.552437665998625 ], [ 16.962270336828102, 52.553023373674364 ], [ 16.962243109259123, 52.55401956735448 ], [ 16.962067081240605, 52.554820792859083 ], [ 16.961827063437653, 52.556321273290799 ], [ 16.96184174258142, 52.5568217811945 ], [ 16.961970335222475, 52.557316554465977 ], [ 16.962114043444629, 52.557757714196597 ], [ 16.962226815838047, 52.558321480745995 ], [ 16.962243350790889, 52.559599339490163 ], [ 16.962470335531965, 52.560696111649179 ], [ 16.962556103119887, 52.562660125684936 ], [ 16.962596315461088, 52.563699808134373 ], [ 16.962557923833366, 52.564391807341885 ], [ 16.962513197147508, 52.564810741569566 ] ], [ [ 16.974243808121336, 52.516690656123664 ], [ 16.973239797402918, 52.516744052651795 ], [ 16.972173006682567, 52.516760405546968 ], [ 16.971442397169124, 52.516736336026561 ], [ 16.971347655434911, 52.517423527297176 ] ], [ [ 16.973503391468789, 52.55113057568758 ], [ 16.97314798303784, 52.547884377971997 ], [ 16.973002291239705, 52.546388814115602 ], [ 16.972798655313671, 52.543822480718134 ], [ 16.972651994902307, 52.542211455223004 ], [ 16.972612629564239, 52.541846628740075 ], [ 16.96971662543687, 52.54213659797437 ], [ 16.967788417708899, 52.54234208359545 ], [ 16.967322972017534, 52.542580369219635 ], [ 16.967112275240286, 52.542769155915799 ], [ 16.967126839890504, 52.543000293365573 ], [ 16.967309996775892, 52.543407492270916 ], [ 16.96734916777757, 52.543652520745098 ], [ 16.967346990607705, 52.543767926953478 ] ], [ [ 16.972612629564239, 52.541846628740075 ], [ 16.972517253659124, 52.540962690569451 ], [ 16.973689791434612, 52.539069925423973 ], [ 16.975872989936672, 52.535513147250484 ], [ 16.977589262038833, 52.532771847344854 ], [ 16.978093659634713, 52.531956969684359 ], [ 16.978303373612551, 52.531678669350974 ] ], [ [ 16.974148035826726, 52.51635550261711 ], [ 16.9749634591732, 52.516434933074812 ], [ 16.977767440463222, 52.516775352654108 ], [ 16.98069368043226, 52.517141308884582 ], [ 16.979960297985468, 52.514041200131622 ], [ 16.979952727108081, 52.513656257909986 ], [ 16.979526036613557, 52.512783142128583 ], [ 16.984035077520407, 52.512109679901577 ], [ 16.986674778295942, 52.511762123864166 ], [ 16.986517736671626, 52.512713786506609 ], [ 16.986259994926225, 52.513798419215647 ], [ 16.985574057279386, 52.516245693586434 ], [ 16.985357171493561, 52.516850004163672 ], [ 16.985283936467674, 52.517071948258028 ], [ 16.985356726931073, 52.51727329027112 ], [ 16.985990874401818, 52.517337960999711 ], [ 16.986357452584876, 52.517598176955502 ], [ 16.98664804555839, 52.517864794914168 ], [ 16.987085047455675, 52.517964585804869 ], [ 16.991351565927882, 52.518468088564305 ], [ 17.001800497506753, 52.519799460192971 ], [ 17.009001804339093, 52.520698182750202 ], [ 17.014181344415988, 52.521670295164611 ], [ 17.021016032228879, 52.522877672249521 ], [ 17.025947128045019, 52.523774700650854 ], [ 17.025479536157839, 52.52435295219405 ], [ 17.024675828305917, 52.525251535826214 ], [ 17.023850929539108, 52.526199785424424 ], [ 17.02298661436463, 52.528024736549327 ], [ 17.022469959045679, 52.529132050412059 ], [ 17.022178017817673, 52.530012232686012 ], [ 17.021695526940174, 52.530920013288934 ], [ 17.020215361067429, 52.532403710110266 ], [ 17.019407685857527, 52.533244470814566 ], [ 17.019285186896344, 52.533442521258813 ], [ 17.019344088145687, 52.533535861460194 ], [ 17.01956762590223, 52.533616564836827 ], [ 17.020057381761514, 52.533670937836874 ], [ 17.020230823069301, 52.533743105506986 ], [ 17.020312873062572, 52.533883009626855 ], [ 17.018687336212093, 52.53466775054104 ], [ 17.01583173678458, 52.536139899629212 ], [ 17.014604296282247, 52.536769639804419 ], [ 17.013982607972974, 52.537120928359769 ], [ 17.013538465173209, 52.537313574287161 ], [ 17.01255164921924, 52.53750480159016 ], [ 17.009396573667459, 52.538194451581184 ], [ 17.003520895028672, 52.53944999648273 ], [ 17.002271588485236, 52.539721367924983 ], [ 16.999779324005317, 52.541233900508189 ], [ 16.994537127572944, 52.543253937476635 ], [ 16.991310704726711, 52.544522964010667 ], [ 16.990679621445707, 52.544797010158248 ], [ 16.98972302332573, 52.545011650347497 ], [ 16.989621407446524, 52.545025316550507 ], [ 16.989219640142707, 52.544148818596817 ], [ 16.989103697183626, 52.543923658295007 ], [ 16.98878206785389, 52.543779660665351 ], [ 16.987200372092822, 52.543526719596841 ] ], [ [ 16.973503391468789, 52.55113057568758 ], [ 16.973865003974012, 52.552599049541662 ], [ 16.97467683519843, 52.555806876407246 ], [ 16.975623905374785, 52.559371034336159 ], [ 16.975875752323624, 52.560483596113698 ], [ 16.975200327126739, 52.563358121825409 ], [ 16.974607252810436, 52.565402862011297 ], [ 16.974503370285685, 52.565464578055632 ], [ 16.97443641224184, 52.565533510200936 ] ], [ [ 16.973503391468789, 52.55113057568758 ], [ 16.974345738101459, 52.551002616430061 ], [ 16.980062992500464, 52.550500031749827 ], [ 16.983715335175546, 52.550146718295686 ], [ 16.987177334212411, 52.549813143872427 ], [ 16.989408558558299, 52.549612489126119 ], [ 16.990004647248707, 52.549553348831253 ], [ 16.990268809480053, 52.549587304198745 ], [ 16.989029107118053, 52.551266979381076 ], [ 16.987608564282716, 52.553201517128805 ], [ 16.985451996448216, 52.556177891985804 ], [ 16.98328092659354, 52.559188614066422 ], [ 16.981597383927465, 52.561476472757981 ], [ 16.981458353906149, 52.561616481499811 ], [ 16.981206783359614, 52.562832038848242 ] ], [ [ 16.976715617196461, 52.49851463448595 ], [ 16.979072789984937, 52.49812555100079 ], [ 16.980915738549488, 52.497810690877216 ], [ 16.982197902206696, 52.497624770266889 ], [ 16.982959212633137, 52.497522310580621 ], [ 16.983738012634156, 52.497450929229196 ], [ 16.987073344319899, 52.497176795234225 ], [ 16.989330833570726, 52.4969677854426 ], [ 16.989390800444191, 52.496962232789571 ], [ 16.99073275136713, 52.496846502646463 ], [ 16.991403414265982, 52.496242191765582 ], [ 16.991951880402318, 52.49610527492225 ], [ 16.993656050846095, 52.496064926772412 ], [ 16.995024914338014, 52.49591112334253 ], [ 16.997039867921494, 52.495691283741834 ], [ 16.99800515914578, 52.495538307704187 ], [ 16.998844444095788, 52.495383192109301 ], [ 16.999835271632449, 52.495222936979864 ], [ 17.000587692507544, 52.497259772637832 ], [ 17.001019759543524, 52.498298372832146 ], [ 17.001202533092329, 52.498717058959699 ], [ 17.001097230041768, 52.499092395811388 ], [ 17.000552317414538, 52.499706582669504 ], [ 17.000269706226472, 52.500028896004636 ], [ 16.998381349550463, 52.501066736693495 ], [ 16.995349647359642, 52.503116475319942 ], [ 16.993393125886538, 52.504260829979714 ], [ 16.9931806252652, 52.504495809049274 ], [ 16.992498977787172, 52.505615592540444 ], [ 16.99132202134783, 52.507638968838236 ], [ 16.990696376561804, 52.508786190815606 ] ], [ [ 16.976743564778218, 52.511221678867173 ], [ 16.978671006500289, 52.512310608608701 ], [ 16.979526036613557, 52.512783142128583 ] ], [ [ 16.978927409208666, 52.479625562181056 ], [ 16.980500099493213, 52.479501824433626 ], [ 16.982355481131371, 52.479448832871583 ], [ 16.983683967010645, 52.479340652611398 ], [ 16.983969181925875, 52.480546136586597 ], [ 16.984374579550416, 52.481053305386389 ], [ 16.985471949196938, 52.48214178678186 ], [ 16.986516528177233, 52.483283232722307 ], [ 16.986625633094214, 52.483654511825321 ], [ 16.98689498408989, 52.484105481302571 ], [ 16.987523370435643, 52.484424026751874 ], [ 16.988058011139945, 52.484587048454266 ], [ 16.98863079732844, 52.484743020142069 ], [ 16.988876418992884, 52.484885730049044 ], [ 16.988885823999784, 52.485232222622685 ], [ 16.988818559179741, 52.485877566406053 ], [ 16.989135528284926, 52.486390910318825 ], [ 16.989482610551644, 52.486797017281802 ], [ 16.989571814867396, 52.48705251078276 ], [ 16.989480413549551, 52.487674355615191 ], [ 16.989697291912211, 52.488447669704513 ], [ 16.989780537745325, 52.488833898367233 ], [ 16.989650989577822, 52.489462791106575 ], [ 16.989315302143304, 52.490188231142909 ], [ 16.988933069092131, 52.490828219815512 ], [ 16.98847175970543, 52.491266759350459 ], [ 16.988189633413814, 52.491646774757768 ], [ 16.987864396654299, 52.492418566117465 ], [ 16.98758642814829, 52.492983361406594 ], [ 16.986874452951874, 52.493663910570532 ], [ 16.986198901130948, 52.494098794890355 ], [ 16.985323793366415, 52.494761164853919 ], [ 16.984863109595587, 52.495184308695649 ], [ 16.984682429225856, 52.495550651581475 ], [ 16.98463718030267, 52.495988568244371 ], [ 16.984546102642359, 52.496325652450565 ], [ 16.98418690040825, 52.496735130264 ], [ 16.983943909731195, 52.497085017575039 ], [ 16.983738012634156, 52.497450929229196 ] ], [ [ 16.979708033432424, 52.471770603149288 ], [ 16.980488702968028, 52.471915962092197 ], [ 16.981533190393179, 52.472087720485654 ], [ 16.981983026248962, 52.472172360616341 ], [ 16.983628675928049, 52.473116291253874 ], [ 16.985689262226945, 52.474221192580131 ], [ 16.985976612033973, 52.474414645880515 ], [ 16.98706332900213, 52.475733821864424 ], [ 16.989157425560514, 52.476246616838516 ], [ 16.991261363506972, 52.476821111795687 ], [ 16.993031941720211, 52.477520749018112 ], [ 16.995367263420672, 52.478553176953938 ], [ 16.996900000995304, 52.479254136803604 ], [ 16.996993079784989, 52.479138703879897 ], [ 16.997370220650112, 52.478883417227024 ], [ 16.997817340625929, 52.478752454562532 ], [ 16.998363473800389, 52.478661647432077 ], [ 16.998745169422204, 52.478583447910111 ], [ 16.999106908379435, 52.478389465382854 ], [ 16.999604364278667, 52.477982281683801 ], [ 17.000193463207736, 52.477499682845369 ], [ 17.001128564995401, 52.476980472138891 ], [ 17.002074829905883, 52.476592535438115 ], [ 17.00333382946674, 52.476067362539453 ], [ 17.003715494120357, 52.475989146631221 ], [ 17.004466921079409, 52.475817117762041 ], [ 17.005082587407376, 52.475581223978587 ], [ 17.008629395835271, 52.473793895372921 ], [ 17.011710766831975, 52.472260310512908 ], [ 17.014103588573228, 52.470899796125316 ], [ 17.014745013756954, 52.47064889269906 ], [ 17.015630196295842, 52.470302024885171 ], [ 17.018649500735151, 52.46873643512118 ], [ 17.01890361183484, 52.468409753066922 ], [ 17.019362144286944, 52.467740162583993 ], [ 17.019865507005498, 52.467194461258991 ], [ 17.020307623248545, 52.466609251195166 ], [ 17.020717818594104, 52.465892668729389 ], [ 17.020979141538866, 52.465500328398242 ], [ 17.021142381732407, 52.465031058283145 ], [ 17.021278731549714, 52.464660071044676 ], [ 17.021405074728531, 52.464231194218172 ], [ 17.021496422254657, 52.463916832539304 ], [ 17.019843060634958, 52.463834665169287 ], [ 17.019080914525503, 52.463808508841183 ] ], [ [ 16.981683299713151, 52.464620341410601 ], [ 16.982077579474424, 52.46458829997092 ], [ 16.982634961972391, 52.464386161755506 ], [ 16.983161037842557, 52.464179638829009 ], [ 16.984055201462109, 52.464052504382011 ], [ 16.984794053774021, 52.464015072208348 ], [ 16.985338773173428, 52.464089772703694 ], [ 16.986066214825868, 52.464302268198907 ], [ 16.986840847457387, 52.464723362870025 ], [ 16.987470013597093, 52.46501883580946 ], [ 16.988049367127477, 52.465163379868265 ], [ 16.989376519383235, 52.465212890022698 ], [ 16.991453908826589, 52.465252041853347 ], [ 16.993900474272081, 52.465347446633224 ], [ 16.994273318173008, 52.465322986054176 ], [ 16.996000592459545, 52.465025178182408 ], [ 17.000983435693446, 52.464070518241471 ], [ 17.004678222351068, 52.463451799444634 ], [ 17.007377587293636, 52.462970121755269 ], [ 17.008424139171645, 52.462814586250616 ], [ 17.010168029547895, 52.462563030098082 ], [ 17.013573740709823, 52.462062310482459 ], [ 17.015209516563445, 52.461831952906735 ], [ 17.016445910139097, 52.461656444229362 ], [ 17.016971180585671, 52.461603684021341 ], [ 17.017513607633852, 52.461589690495138 ], [ 17.017951164629736, 52.461666291995854 ], [ 17.01834922445336, 52.461780711325083 ], [ 17.018616294302849, 52.461865997537075 ], [ 17.018916712098125, 52.461951550533847 ] ], [ [ 16.983084973680345, 52.465699472681671 ], [ 16.982522185822059, 52.466025476173115 ], [ 16.98213212891066, 52.466288191682487 ], [ 16.981936219112757, 52.46643877469932 ] ], [ [ 16.98069368043226, 52.517141308884582 ], [ 16.983354339471056, 52.517505657966844 ], [ 16.984514955565075, 52.517644727509335 ], [ 16.984842541675896, 52.517654155852931 ], [ 16.985044801341235, 52.517507523917843 ], [ 16.985356726931073, 52.51727329027112 ] ], [ [ 16.98401094860208, 52.444670065669008 ], [ 16.984566172996768, 52.444660711759184 ], [ 16.985268498175991, 52.444726556569449 ], [ 16.986112049731819, 52.444871766224047 ], [ 16.986776954799456, 52.445067802214631 ], [ 16.987252205502816, 52.44527984667365 ], [ 16.987534662116424, 52.445438581505613 ], [ 16.987718469134272, 52.446103594266816 ] ], [ [ 16.98434902208373, 52.446949274473567 ], [ 16.985903525101421, 52.446647028284879 ], [ 16.986873541878143, 52.446505774221528 ], [ 16.987590239120621, 52.446533368067378 ], [ 16.988690093988115, 52.446721402907308 ], [ 16.989404694428426, 52.44679512799177 ], [ 16.990063545649285, 52.446710126370071 ], [ 16.990563677669513, 52.44651467508514 ], [ 16.99098829699388, 52.446179404772231 ], [ 16.991509227699922, 52.445803439370792 ], [ 16.99165623386164, 52.445655917539696 ], [ 16.992505949708075, 52.445905027114911 ], [ 16.99328155034247, 52.446160628090183 ], [ 16.993929026659892, 52.446325542347189 ], [ 16.994381075677673, 52.446494834333592 ], [ 16.995038265395038, 52.446723401837922 ] ], [ [ 16.984050743339701, 52.466424815859298 ], [ 16.984290099466655, 52.466702115074241 ], [ 16.984393203859433, 52.467065598981804 ], [ 16.984336275613575, 52.467484077365519 ], [ 16.984256531834927, 52.468263893186133 ], [ 16.984428280260172, 52.469055691965679 ], [ 16.984788101892814, 52.469592869315711 ], [ 16.985737277249587, 52.470471026412582 ], [ 16.986209433083012, 52.470894667947739 ], [ 16.986779312951167, 52.471662456522694 ], [ 16.987170906517761, 52.471780718688102 ], [ 16.987968115515383, 52.471848159103104 ], [ 16.988928863299392, 52.471922223486175 ], [ 16.989698788070815, 52.472035365969276 ], [ 16.990978025187339, 52.472449616039754 ], [ 16.991492411254171, 52.472777749609293 ], [ 16.991760011859952, 52.472990094088644 ], [ 16.992242061683296, 52.473059849422825 ], [ 16.992668317140552, 52.473109415018307 ], [ 16.993189195362177, 52.473433803082685 ], [ 16.993565954228217, 52.473601817939581 ], [ 16.994399764075055, 52.473696772639471 ], [ 16.995039073380671, 52.473773031504585 ], [ 16.9956712194349, 52.474006939346452 ], [ 16.996041870599452, 52.474170994539477 ], [ 16.996288150454969, 52.474159774975519 ], [ 16.996565033473875, 52.474029780936483 ], [ 16.996800980565261, 52.473829826299038 ], [ 16.99707068027385, 52.473580417010048 ], [ 16.997265671192679, 52.473408984090533 ] ], [ [ 16.984733333221779, 52.455390935640693 ], [ 16.986168158074832, 52.455582157374572 ], [ 16.987408634508206, 52.455730267562835 ], [ 16.988014972462103, 52.455832942408207 ], [ 16.988298900785754, 52.455960914456846 ], [ 16.988435782233285, 52.456136410317328 ] ], [ [ 16.984573831372284, 52.49622302724319 ], [ 16.985758084752138, 52.496208245224132 ], [ 16.987210260228053, 52.496163698508234 ], [ 16.988085617070308, 52.496186286963322 ], [ 16.988624614088423, 52.496257023681466 ], [ 16.98891999766872, 52.496415971502614 ], [ 16.98911912672779, 52.496611763599105 ], [ 16.989274331931338, 52.496802960562157 ], [ 16.989330833570726, 52.4969677854426 ] ], [ [ 16.987534662116424, 52.445438581505613 ], [ 16.988284286353792, 52.444743276929373 ], [ 16.988774985433373, 52.444339871896773 ], [ 16.989313401590753, 52.443856464955054 ], [ 16.989706716512721, 52.443516818662211 ], [ 16.989920793543778, 52.443329426075387 ] ], [ [ 16.986674778295942, 52.511762123864166 ], [ 16.986690431218523, 52.510454027090312 ], [ 16.986630124025485, 52.509410567114521 ] ], [ [ 16.98664804555839, 52.517864794914168 ], [ 16.987003531633196, 52.518264314474308 ], [ 16.987435265230015, 52.518479458062146 ], [ 16.987870166260791, 52.518625387712504 ], [ 16.988100048717158, 52.518702411459714 ], [ 16.988375417459615, 52.519026487933445 ], [ 16.988657444923511, 52.519342980681166 ], [ 16.988793835650938, 52.519395324875063 ], [ 16.988924917537158, 52.519840086977943 ], [ 16.989056724032793, 52.520130936392611 ], [ 16.98919432796686, 52.520294896203836 ], [ 16.989386400295835, 52.520371274737691 ], [ 16.990209880441178, 52.52043529172159 ], [ 16.990359761140581, 52.520468622622545 ], [ 16.990786078424904, 52.520941485603956 ], [ 16.992203739273425, 52.522778015343398 ] ], [ [ 16.988876418992884, 52.484885730049044 ], [ 16.988965021384615, 52.48463614544243 ], [ 16.98906161903971, 52.484453077136997 ], [ 16.98927579583663, 52.484179652376959 ], [ 16.989537199821928, 52.483976296580373 ], [ 16.990016249918256, 52.483699676424941 ], [ 16.990518383647672, 52.483469624248386 ], [ 16.990921493024942, 52.483199406470462 ], [ 16.991743446227414, 52.482589967512702 ], [ 16.993721424858599, 52.481507577077821 ], [ 16.995143703946859, 52.480723586389679 ], [ 16.996552273665461, 52.479685369444361 ], [ 16.996900000995304, 52.479254136803604 ] ], [ [ 16.99165623386164, 52.445655917539696 ], [ 16.992037145769572, 52.445273663926613 ], [ 16.992314313041085, 52.444888759306522 ] ], [ [ 16.989015837844128, 52.545879889289743 ], [ 16.990360668727138, 52.545561215191562 ], [ 16.990047388082147, 52.544938870931205 ] ], [ [ 16.990360668727138, 52.545561215191562 ], [ 16.991112096433554, 52.5455547328649 ], [ 16.991774754448052, 52.546801221201683 ], [ 16.991954481423097, 52.547150600246873 ], [ 16.991989993051444, 52.547755354950752 ], [ 16.99187185497793, 52.548268996113627 ], [ 16.991772699447079, 52.548465780910639 ] ], [ [ 16.992034119047364, 52.548762605572314 ], [ 16.990479146344505, 52.549236723181714 ], [ 16.990268809480053, 52.549587304198745 ] ], [ [ 17.019048972067836, 52.460823667640867 ], [ 17.020266529714803, 52.461453026059552 ], [ 17.021066799043208, 52.461870475756818 ], [ 17.021617163447072, 52.461960495841176 ], [ 17.022255057797111, 52.46192498892826 ], [ 17.022963405702043, 52.461863719601581 ], [ 17.02343658653961, 52.461848541114406 ], [ 17.023682103035949, 52.461852644744106 ], [ 17.023791017747794, 52.461812135548932 ], [ 17.023854737114259, 52.461655426980123 ], [ 17.024043386000834, 52.461100600205036 ], [ 17.024202736313494, 52.460918552497638 ], [ 17.024520593716272, 52.460854596746785 ], [ 17.024848802627368, 52.46084083878111 ], [ 17.025275152217507, 52.46088644087564 ], [ 17.02641674444277, 52.460997855002489 ], [ 17.026745602461819, 52.459983588299608 ], [ 17.027078965076463, 52.459095299292073 ], [ 17.027174713885557, 52.458840156805778 ], [ 17.027819798767773, 52.457092321074363 ], [ 17.027891337938104, 52.456901107588919 ], [ 17.028791669252378, 52.456841081641429 ], [ 17.029878747154186, 52.456901528523993 ], [ 17.030350100525578, 52.457067154472234 ], [ 17.030534800939069, 52.45713487374541 ], [ 17.03153551386205, 52.457606392275579 ], [ 17.03214766552972, 52.45800524259888 ], [ 17.033018507000051, 52.458677762229605 ], [ 17.033433315822382, 52.459123348417563 ], [ 17.033883332735602, 52.459627240404984 ], [ 17.034317087888521, 52.45993075760483 ], [ 17.034726738542837, 52.460068403066508 ], [ 17.036806884316633, 52.4606070613602 ], [ 17.037310805965518, 52.460750110961676 ] ], [ [ 17.021512823553739, 52.465797801379743 ], [ 17.022399793249384, 52.465407083557203 ], [ 17.023041522551527, 52.465146520529856 ], [ 17.023323831215471, 52.464962681432326 ], [ 17.023461422288182, 52.464774498791904 ], [ 17.023508288298174, 52.464642521597305 ], [ 17.023416078764296, 52.464310041028625 ], [ 17.023252246557664, 52.463959046506616 ], [ 17.023238184314582, 52.463851063736598 ], [ 17.022165826111216, 52.463950500651237 ], [ 17.021496422254657, 52.463916832539304 ] ], [ [ 17.055463543827969, 52.48406193917188 ], [ 17.055088484767612, 52.483157965390724 ], [ 17.054568099564758, 52.481952647023228 ], [ 17.054247980699564, 52.481208545181147 ], [ 17.053768161579342, 52.480084700201168 ], [ 17.053422954062377, 52.47926706887457 ], [ 17.053098535482707, 52.478549829329779 ], [ 17.053023278773736, 52.478327324359114 ], [ 17.053080830661468, 52.477737587483318 ], [ 17.053136521062395, 52.477261339040524 ], [ 17.053186745559657, 52.476623380080234 ], [ 17.05292015970798, 52.476166838846588 ], [ 17.052540898741633, 52.475621859166253 ], [ 17.052389042254177, 52.475207610901016 ], [ 17.052217597981404, 52.474594862197044 ], [ 17.052039794819024, 52.474197502525676 ], [ 17.051810689454303, 52.47389165206009 ], [ 17.051159134949589, 52.473020864428051 ], [ 17.050975564781691, 52.47268305363351 ], [ 17.050758707232852, 52.472029148767199 ], [ 17.050576920864216, 52.471508581364851 ], [ 17.050354461446261, 52.470910380843137 ], [ 17.049906608283475, 52.470350792524336 ], [ 17.049295218912164, 52.469499896434968 ], [ 17.049145882237116, 52.469172267396509 ], [ 17.048552812739359, 52.46797918712528 ], [ 17.048187286048417, 52.467126569382053 ], [ 17.048087823351217, 52.46674011615027 ], [ 17.047951947697975, 52.466037516214989 ], [ 17.04785989112403, 52.465697362349118 ], [ 17.0476370662082, 52.465678291276738 ], [ 17.045540283232434, 52.465364666445005 ], [ 17.041944130409494, 52.464835704923665 ], [ 17.037468310808983, 52.464184290079771 ], [ 17.032893441644379, 52.463496423996204 ], [ 17.028405652912973, 52.462836768634006 ], [ 17.023912826836884, 52.462151844846943 ], [ 17.023551706236134, 52.462126568859787 ], [ 17.023497295189923, 52.462216090527861 ], [ 17.023413072310255, 52.462830383971692 ], [ 17.023238184314582, 52.463851063736598 ] ], [ [ 17.023551706236134, 52.462126568859787 ], [ 17.023632762543379, 52.462004783379207 ], [ 17.023730895677716, 52.461923688642457 ], [ 17.023756351013464, 52.461825029340488 ] ], [ [ 17.021695526940174, 52.530920013288934 ], [ 17.022155650494927, 52.531036413908538 ], [ 17.02744276325879, 52.531894288945111 ], [ 17.032715757952626, 52.532790172247871 ], [ 17.037352317486835, 52.533529037336535 ], [ 17.038378892893089, 52.533715375588955 ], [ 17.041647159478234, 52.534292849281798 ], [ 17.04222146882989, 52.534433187334351 ], [ 17.04264239101542, 52.534617162390646 ], [ 17.043148861782189, 52.534864119939932 ], [ 17.043561967559647, 52.534940216188495 ], [ 17.044792099269095, 52.535091382877525 ], [ 17.045333718761665, 52.53511572318839 ], [ 17.045739171845057, 52.535080091129217 ], [ 17.045922766719748, 52.535082654073314 ] ], [ [ 17.027078965076463, 52.459095299292073 ], [ 17.027078965076463, 52.459095299292073 ], [ 17.028871435041658, 52.458087282205057 ], [ 17.030534800939069, 52.45713487374541 ], [ 17.030791439077845, 52.456987922307448 ], [ 17.032112020687872, 52.45633263661685 ], [ 17.033272288469831, 52.45574008819964 ], [ 17.033867439124155, 52.455530642417472 ], [ 17.034594808984235, 52.455181010657299 ], [ 17.035058449299957, 52.454953980401562 ], [ 17.035493185083531, 52.454736749893833 ] ], [ [ 17.025947128045019, 52.523774700650854 ], [ 17.026047220786118, 52.523792906283454 ], [ 17.027337950952539, 52.523991445424194 ], [ 17.030278899747518, 52.524532997679806 ], [ 17.032669606982484, 52.524965278181298 ] ], [ [ 17.025947128045019, 52.523774700650854 ], [ 17.026265685475636, 52.523247235143771 ], [ 17.026912440570094, 52.522611542243162 ], [ 17.027662936605683, 52.521631246647544 ], [ 17.028147471835794, 52.520954361826654 ], [ 17.028513704567569, 52.52038325051992 ], [ 17.028664227940592, 52.51983932892901 ], [ 17.028598227087397, 52.519622735798031 ], [ 17.027998940717421, 52.519481913354795 ] ], [ [ 17.028598227087397, 52.519622735798031 ], [ 17.029660821720544, 52.51998291706704 ], [ 17.032050936311297, 52.520846188766477 ], [ 17.035013551420747, 52.521888236869152 ], [ 17.036465000448867, 52.522443369966446 ], [ 17.036869747029609, 52.522704060201775 ], [ 17.037823279142284, 52.523674203526056 ], [ 17.038235855130491, 52.524042765222077 ], [ 17.038531604821298, 52.524201591997944 ], [ 17.038956868529812, 52.524285602916663 ], [ 17.040427961617652, 52.524402329990131 ], [ 17.047152412722106, 52.525275427430898 ], [ 17.047380716570732, 52.525675547751653 ], [ 17.04786751163541, 52.526079932583947 ], [ 17.048362499599904, 52.526299742575866 ], [ 17.049141881375647, 52.526651226442183 ], [ 17.050643425281955, 52.527222401096552 ], [ 17.051504116995122, 52.527448222059903 ], [ 17.051953465688619, 52.527559518987303 ], [ 17.052764912902948, 52.527615204501728 ], [ 17.053336791490871, 52.527809322150404 ], [ 17.053726160882935, 52.527850360102306 ], [ 17.055564400038165, 52.527515015213368 ], [ 17.056449958978448, 52.527464147172239 ], [ 17.057181824750515, 52.527464622096474 ], [ 17.057533535885973, 52.527501181100853 ], [ 17.057657765353316, 52.527545549276745 ], [ 17.057748308358374, 52.528008540675017 ] ], [ [ 17.03378213345033, 52.476127052321715 ], [ 17.034754467250544, 52.477016957495515 ], [ 17.035972096985972, 52.478260885809931 ], [ 17.037276937894337, 52.479529336908108 ], [ 17.039240229879191, 52.481584656988559 ], [ 17.040753245210016, 52.483080837789615 ], [ 17.04297503243269, 52.485277687860275 ], [ 17.04534279649258, 52.487520753387528 ], [ 17.046258903631056, 52.488523547810139 ], [ 17.047304262762641, 52.489483276332379 ], [ 17.049013646124159, 52.491175487779863 ], [ 17.051261192906999, 52.493382865908359 ], [ 17.053435059080176, 52.495550505619171 ], [ 17.054849221351127, 52.49693599436759 ], [ 17.056007837592826, 52.498113317029947 ], [ 17.056518188069802, 52.498621955050652 ] ], [ [ 17.047373761200546, 52.489486047421472 ], [ 17.048498787713271, 52.489651323369948 ], [ 17.049427178884294, 52.489755143467207 ], [ 17.050213580486979, 52.489791198006941 ], [ 17.050993514074591, 52.489830988829361 ], [ 17.05162311354049, 52.489849057726936 ], [ 17.05200856655755, 52.489828469737411 ], [ 17.052231254626712, 52.489782111712223 ], [ 17.052493947424743, 52.489686386660182 ], [ 17.052736211969506, 52.489624957618858 ], [ 17.053071097791733, 52.489607381780807 ], [ 17.053379597052366, 52.489616307434957 ], [ 17.053850861406183, 52.489650999060082 ], [ 17.054323145074569, 52.489662616976467 ], [ 17.054739583171578, 52.489654074085287 ], [ 17.055034466290916, 52.489685860073706 ], [ 17.055372257963242, 52.489745287464814 ], [ 17.05572332791332, 52.489789539758199 ], [ 17.056013270159866, 52.489790457295705 ], [ 17.056360246253412, 52.489784615140252 ], [ 17.056737193416573, 52.489813897245092 ], [ 17.057076344609008, 52.489842557303838 ], [ 17.057458405851573, 52.489898857784794 ], [ 17.058090920721622, 52.489993902020615 ], [ 17.058342051418816, 52.490017265213282 ], [ 17.05856320961972, 52.490005503051883 ], [ 17.058804620969031, 52.489963288099041 ], [ 17.059017921610597, 52.489843649450705 ], [ 17.059149836794351, 52.489711130730477 ], [ 17.059322361390905, 52.489512006527768 ] ], [ [ 17.05664456685686, 52.498605869120304 ], [ 17.058168826630844, 52.499557797516054 ], [ 17.05912916952137, 52.499896212561069 ], [ 17.059879925669559, 52.50031642556425 ], [ 17.05982295660338, 52.501323690530718 ], [ 17.059889228204238, 52.50210978749687 ], [ 17.060451478974169, 52.503088725471478 ], [ 17.061581130443486, 52.504931234280811 ], [ 17.062132880010228, 52.505863814262312 ], [ 17.062484848867378, 52.506177426096585 ], [ 17.066967592409906, 52.509506235646803 ], [ 17.067957352813583, 52.510234298345523 ], [ 17.06833730593296, 52.51048677979314 ], [ 17.071938019002896, 52.511507535664279 ], [ 17.077276286902009, 52.512895062227564 ], [ 17.079310200974362, 52.513405260254316 ], [ 17.079684017123046, 52.513570734922652 ] ], [ [ 17.060106762413575, 52.483524084813808 ], [ 17.060043189717092, 52.483647235786179 ], [ 17.059961401621834, 52.484001843398055 ], [ 17.060030694986043, 52.484360853145638 ], [ 17.060348826298053, 52.484866323500583 ], [ 17.060773009410788, 52.485325430533386 ], [ 17.061134023208766, 52.485716158765371 ], [ 17.061384072375024, 52.486193573348423 ], [ 17.061577266908404, 52.486673903669448 ], [ 17.061696060592233, 52.487126077712851 ], [ 17.061834642279866, 52.487701714900354 ], [ 17.062157595170742, 52.488241891694742 ], [ 17.062537925529405, 52.488767615001791 ], [ 17.062977156034339, 52.489244276351052 ], [ 17.06337266439656, 52.489716079774666 ] ], [ [ 17.066212144776902, 52.492554967870952 ], [ 17.066648706059738, 52.492739729186574 ], [ 17.06700780742538, 52.493176584101491 ], [ 17.067414426242369, 52.494830210143959 ], [ 17.067661066455699, 52.495819349931253 ], [ 17.067896218092493, 52.49620799979283 ], [ 17.068535949422017, 52.496572471222983 ], [ 17.0689157901068, 52.496824950263743 ], [ 17.069120906340764, 52.497036095246969 ], [ 17.068847158163035, 52.498678607044234 ], [ 17.068891289062726, 52.499110312987213 ], [ 17.065504024751391, 52.49905063868097 ], [ 17.05994012611789, 52.4989672144387 ], [ 17.057355059003566, 52.498948314338179 ] ], [ [ 17.066967592409906, 52.509506235646803 ], [ 17.065958640607931, 52.511513835512815 ], [ 17.064704103352042, 52.513940698387451 ], [ 17.063776667327406, 52.515811082245619 ], [ 17.062632213183218, 52.518024232348282 ], [ 17.063372821227283, 52.518682834300826 ], [ 17.064076886885179, 52.519025291260611 ], [ 17.064523647514022, 52.519194219721186 ], [ 17.065535818854304, 52.519703326786569 ], [ 17.0663928971451, 52.520009790601591 ], [ 17.066850933585318, 52.520209678984664 ], [ 17.067708486953173, 52.520793202124509 ], [ 17.068125676743957, 52.521061683661948 ], [ 17.068516643516308, 52.521352824037294 ], [ 17.068744385988609, 52.521625906648701 ], [ 17.069057351924805, 52.521969644948506 ], [ 17.069475066920837, 52.522226585906509 ], [ 17.06977876310588, 52.522395699698791 ] ], [ [ 17.068891289062726, 52.499110312987213 ], [ 17.070861850298332, 52.499034719379459 ], [ 17.07232834346323, 52.49895087984688 ], [ 17.074109533830875, 52.498879842255079 ], [ 17.076003125464705, 52.498833694584739 ], [ 17.081064060941554, 52.498738889480954 ], [ 17.082316971352789, 52.498636069019817 ], [ 17.083629361140247, 52.498426297169921 ], [ 17.083519247324965, 52.498573781813533 ], [ 17.083016802632521, 52.498673386685745 ], [ 17.082615168323311, 52.498774623496914 ], [ 17.08253581873473, 52.499004221919414 ], [ 17.082598593787953, 52.499590147095375 ], [ 17.082951325951814, 52.500323150312603 ], [ 17.083159980427713, 52.501034577414849 ], [ 17.082711139559247, 52.501785374441198 ], [ 17.082596261678834, 52.502106750801886 ], [ 17.082577575387667, 52.50239120546653 ], [ 17.082722665632957, 52.502824541440347 ], [ 17.082827220827681, 52.50303018389134 ], [ 17.082793248262139, 52.503810792354564 ], [ 17.082761900969782, 52.504241268579847 ], [ 17.082675737850458, 52.504482300762604 ], [ 17.082365668442282, 52.504796665038135 ], [ 17.082254355190688, 52.504891062436478 ], [ 17.082137349150432, 52.505116201940808 ], [ 17.082144367325274, 52.505389528929982 ], [ 17.082088870119055, 52.50565029819095 ], [ 17.081994556746238, 52.505933526539373 ], [ 17.082246174228651, 52.506237755421608 ], [ 17.082547432444393, 52.50641580193777 ], [ 17.082870720761829, 52.506667318046745 ], [ 17.083055871816949, 52.506905050748188 ], [ 17.083135564537056, 52.507102593711963 ], [ 17.083146270542404, 52.507291322695146 ], [ 17.08313907460408, 52.507456673177359 ] ], [ [ 17.081994556746238, 52.505933526539373 ], [ 17.081671030988669, 52.506266911222774 ], [ 17.081384474225963, 52.506620134972174 ], [ 17.081173264919695, 52.506836049552341 ], [ 17.080911637801297, 52.507051145896973 ], [ 17.080714368537766, 52.507236501221627 ], [ 17.080529534060403, 52.50742590605288 ], [ 17.081131009925162, 52.50751647307662 ], [ 17.081584588893048, 52.507527677344868 ], [ 17.081951111756968, 52.507510531949677 ], [ 17.082262925160219, 52.507446321702744 ], [ 17.082575239863871, 52.507370574548247 ], [ 17.082812933678181, 52.507270528873477 ], [ 17.082999373704517, 52.5071888925658 ], [ 17.083135564537056, 52.507102593711963 ] ], [ [ 17.083629361140247, 52.498426297169921 ], [ 17.083629361140247, 52.498426297169921 ], [ 17.084983687262401, 52.498209804798329 ], [ 17.088930760194398, 52.497627161146099 ], [ 17.090124949968097, 52.497423259675905 ], [ 17.09085948795618, 52.497350459268517 ], [ 17.091352934881648, 52.49731224525047 ], [ 17.091467012132263, 52.497298693555507 ], [ 17.091776713593909, 52.49742682823976 ], [ 17.091896700281012, 52.497622610385818 ], [ 17.09224601464258, 52.497855280719435 ], [ 17.09276492851582, 52.498248455499159 ], [ 17.093099653734775, 52.49852706485575 ], [ 17.093342699581857, 52.49873877836513 ], [ 17.094035956626627, 52.498746102228822 ], [ 17.094964173631904, 52.498714877370524 ], [ 17.095616482942823, 52.498648419205132 ], [ 17.096712837207807, 52.498519837547079 ], [ 17.097797135324111, 52.498407730567557 ] ], [ [ 17.091776713593909, 52.49742682823976 ], [ 17.092020133837867, 52.497338400993783 ], [ 17.092328556990367, 52.49720484469789 ], [ 17.09244002096505, 52.496960365592308 ], [ 17.092574022426948, 52.496777818954179 ], [ 17.0930747839509, 52.496570400575017 ], [ 17.093536074144847, 52.496400824674396 ], [ 17.093868731214883, 52.49599828995288 ], [ 17.094140746108696, 52.495248450776629 ], [ 17.09523961631049, 52.492580195961423 ], [ 17.095837005014189, 52.49105616283768 ] ], [ [ 17.093791040742946, 52.496092300774087 ], [ 17.095113372912483, 52.496065959486586 ], [ 17.096375954916269, 52.496028563673754 ], [ 17.096792947062845, 52.496008337027504 ], [ 17.097212036391713, 52.495966831372179 ] ] ] } }
]
}
