{
"type": "FeatureCollection",
"name": "granica",
"crs": { "type": "name", "properties": { "name": "urn:ogc:def:crs:OGC:1.3:CRS84" } },
"features": [
{ "type": "Feature", "properties": { "gml_id": "OT_ADJA_A.20", "lokalnyId": "322BD60C-5C60-598B-E053-CC2BA8C05138", "przestrzen": "PL.PZGiK.308.BDOT10k", "wersjaId": "2022-01-20T00:00:00", "czyObiektB": 0, "x_kod": "ADJA05", "x_skrKarto": null, "x_katDoklG": "Dok", "x_doklGeom": 1, "x_doklGe_1": "m", "x_zrodloDa": "PRG", "x_zrodlo_1": "PRG", "x_katIstni": null, "x_rodzajRe": "ZP", "x_aktualno": "2022-01-20", "x_aktual_1": "2022-01-20", "poczatekWe": "2022-01-20T00:00:00", "x_dataUtwo": "2012-11-13", "x_kodKarto": "0010_505", "x_kodKar_1": "0025_505", "x_kodKar_2": "0050_505", "x_kodKar_3": "0100_505", "x_kodKar_4": null, "x_kodKar_5": null, "x_kodKar_6": null, "nazwa": "Czerwonak", "idPRG": 1030210420, "idTerytJed": 3021, "idTerytTer": 3021042, "rodzaj": "GW", "PRG|BT_Ref": 1030210420, "PRG|BT_R_1": "PL.PZGiK.200", "x_informDo": null }, "geometry": { "type": "MultiPolygon", "coordinates": [ [ [ [ 16.952688543010765, 52.552327758000104 ], [ 16.952795922044764, 52.55253783367197 ], [ 16.95285255744162, 52.552719059204705 ], [ 16.953240446532526, 52.553357078311429 ], [ 16.953474717057652, 52.553602356829657 ], [ 16.954200820885589, 52.55392989108617 ], [ 16.955659344519226, 52.55431333732831 ], [ 16.956686812769636, 52.554624744924716 ], [ 16.958116965966326, 52.554851080043541 ], [ 16.958330021435753, 52.554988320934811 ], [ 16.959832669802623, 52.555904308686877 ], [ 16.959950449247177, 52.555996101946491 ], [ 16.960089900001613, 52.556193321904665 ], [ 16.960272328268559, 52.557229549972988 ], [ 16.960017838745891, 52.557666873172984 ], [ 16.959182217740953, 52.558551895837589 ], [ 16.95761750125715, 52.559827997015169 ], [ 16.956821794857028, 52.560544509582108 ], [ 16.956497378406443, 52.560684796095252 ], [ 16.95480755347652, 52.561696427216162 ], [ 16.954521068630502, 52.56188710225441 ], [ 16.954315316099727, 52.562045983082072 ], [ 16.953214526968967, 52.563435817566599 ], [ 16.953187246956919, 52.563603269182131 ], [ 16.953420434485029, 52.564272339156517 ], [ 16.953855512898311, 52.564897678878488 ], [ 16.954078287239067, 52.565039322297245 ], [ 16.954700177231445, 52.564930266423147 ], [ 16.956291340555939, 52.564802150224232 ], [ 16.95900715162059, 52.564553999920179 ], [ 16.960102586163838, 52.564605533554989 ], [ 16.960787171389711, 52.564658973593694 ], [ 16.961121272262876, 52.564692071862645 ], [ 16.96263495297152, 52.564821121155695 ], [ 16.962714793806111, 52.56480540631852 ], [ 16.962715181952934, 52.564774742527881 ], [ 16.962794281208883, 52.564775024679498 ], [ 16.963427808580736, 52.564777382548883 ], [ 16.964129977427515, 52.564750876845032 ], [ 16.964384001621017, 52.564741124904067 ], [ 16.964883376908535, 52.564755918316713 ], [ 16.966345181980884, 52.564832490921297 ], [ 16.967237215478505, 52.564919678425326 ], [ 16.968378134948598, 52.565146675012265 ], [ 16.971304800901375, 52.565087413367564 ], [ 16.972536917742911, 52.5651841668382 ], [ 16.97452943972138, 52.565550618321701 ], [ 16.974643042431627, 52.565586920336742 ], [ 16.975630867896335, 52.565761308704005 ], [ 16.976466262989927, 52.565960605326374 ], [ 16.977116799898848, 52.566055551509599 ], [ 16.977226620419213, 52.566036201909583 ], [ 16.978293673677946, 52.566324080103726 ], [ 16.979349584031247, 52.566678045934509 ], [ 16.979799615072157, 52.566835661846149 ], [ 16.980672255675493, 52.566440414981628 ], [ 16.981220890908077, 52.566228425250856 ], [ 16.981621113376811, 52.566098268319926 ], [ 16.981930521086987, 52.56599786168244 ], [ 16.98197607066848, 52.565983078241352 ], [ 16.982402156393434, 52.565864962218697 ], [ 16.982523687453167, 52.565831596431416 ], [ 16.9827113143002, 52.565779569687358 ], [ 16.982865335866713, 52.565736144083147 ], [ 16.983890598230079, 52.565513465805239 ], [ 16.984727507603111, 52.565249076567866 ], [ 16.985517257673255, 52.564950690102229 ], [ 16.985679774724641, 52.56488923709351 ], [ 16.98639700713375, 52.564559390037978 ], [ 16.986856804683679, 52.564381390351315 ], [ 16.986933435877319, 52.564351753516547 ], [ 16.98700991948774, 52.564322114122803 ], [ 16.987279265580217, 52.564241878938923 ], [ 16.987380423253342, 52.564211669517327 ], [ 16.987456361006792, 52.564184269115977 ], [ 16.987470639106821, 52.564178665635474 ], [ 16.987636005578615, 52.564119327095618 ], [ 16.987900145408336, 52.564023801734528 ], [ 16.988121589546576, 52.563945268715692 ], [ 16.988202998107869, 52.563969227985268 ], [ 16.989451556987412, 52.56344845054879 ], [ 16.989560804631243, 52.563402636789796 ], [ 16.989828338672609, 52.563290795316313 ], [ 16.99140272102845, 52.562689635738316 ], [ 16.991952285117065, 52.562493892141021 ], [ 16.992181530908557, 52.562412246044765 ], [ 16.992350268192201, 52.562353138056721 ], [ 16.993655728666432, 52.561870518081996 ], [ 16.995080885478142, 52.56130626515214 ], [ 16.996406861458407, 52.560786636634724 ], [ 16.997706731314246, 52.560470091185934 ], [ 16.998288661841944, 52.560349877887063 ], [ 16.998441957526946, 52.560315144333678 ], [ 16.998475952501884, 52.560304296550839 ], [ 16.999203693244077, 52.560083470615197 ], [ 16.99925921359236, 52.560066600585586 ], [ 16.999429025931775, 52.560002913726947 ], [ 16.99950198333611, 52.559975815072626 ], [ 17.000155926697406, 52.559514849336274 ], [ 17.000787242020561, 52.559103325842948 ], [ 17.000898569867001, 52.559030734086782 ], [ 17.000999854143544, 52.5589648082073 ], [ 17.00119026511614, 52.558840665793873 ], [ 17.001303743029474, 52.558775934949615 ], [ 17.002057255866529, 52.558409280801342 ], [ 17.002288754629149, 52.558319378694215 ], [ 17.002703586634837, 52.558137501144145 ], [ 17.002812121059918, 52.558103535640697 ], [ 17.003281697149607, 52.557944435816964 ], [ 17.003492968151821, 52.557877395223919 ], [ 17.003653916725526, 52.557803839099016 ], [ 17.004306332674595, 52.557625153697892 ], [ 17.004988038405422, 52.557487072678747 ], [ 17.007016937057141, 52.55729981703827 ], [ 17.008442172933595, 52.557085011571715 ], [ 17.009383358840452, 52.557059381842471 ], [ 17.009881674447993, 52.557095913890663 ], [ 17.010447330862085, 52.55714769677305 ], [ 17.012133501563891, 52.557287467661396 ], [ 17.014228427878283, 52.557427867257303 ], [ 17.014634705929083, 52.557319737122185 ], [ 17.015096474770157, 52.557028424795099 ], [ 17.015537834279776, 52.55629659193103 ], [ 17.016079697578249, 52.555838876781152 ], [ 17.017263753352037, 52.5552534985408 ], [ 17.017495364626665, 52.555163299022738 ], [ 17.018239583216264, 52.554661204348832 ], [ 17.01868066983252, 52.554346326901964 ], [ 17.018919940977, 52.554216948185015 ], [ 17.01907238639248, 52.554154381796543 ], [ 17.01918045978945, 52.554025324931089 ], [ 17.019383814504774, 52.55396271076954 ], [ 17.019629738823689, 52.553744489278422 ], [ 17.019781661143224, 52.553650883225181 ], [ 17.020078320572956, 52.553397083156526 ], [ 17.02137749167543, 52.551982165713973 ], [ 17.021877096055839, 52.551647838030071 ], [ 17.021936446414919, 52.551588029181353 ], [ 17.021989775559902, 52.551534145786967 ], [ 17.022317778307016, 52.551202884291321 ], [ 17.022636901845452, 52.550954130303225 ], [ 17.022686644284033, 52.550904503892951 ], [ 17.023746103908714, 52.550479775197829 ], [ 17.023881036521956, 52.550363214868938 ], [ 17.024353728906338, 52.549989932336878 ], [ 17.024569927998947, 52.549722905663131 ], [ 17.025170892087441, 52.549321810242269 ], [ 17.025829260848855, 52.548805194473196 ], [ 17.025973245040557, 52.548693819548291 ], [ 17.026141856809062, 52.548569543787821 ], [ 17.026439366230115, 52.548291907598419 ], [ 17.026789377930108, 52.548080443994813 ], [ 17.027145986509247, 52.547896161897434 ], [ 17.027525667590474, 52.547407899445837 ], [ 17.027924763108608, 52.54697014697696 ], [ 17.027950316512115, 52.546953034095758 ], [ 17.028440004394078, 52.546633444310089 ], [ 17.028891041434392, 52.546277411846255 ], [ 17.029526417517836, 52.545889999378332 ], [ 17.029594087018985, 52.54585155159775 ], [ 17.030531687581338, 52.545201767806482 ], [ 17.030733659009776, 52.54498423125542 ], [ 17.030886464160176, 52.544807069737338 ], [ 17.031470152009074, 52.544251854548683 ], [ 17.031910837329821, 52.543990887186318 ], [ 17.032133156799873, 52.543849148047372 ], [ 17.033430539998239, 52.543000166139571 ], [ 17.034812421382412, 52.542365376261699 ], [ 17.036070568378371, 52.541950313997532 ], [ 17.036536825644028, 52.541399511235909 ], [ 17.037138861363495, 52.540833779976147 ], [ 17.037953683042552, 52.540252865987284 ], [ 17.038343969029864, 52.539886436866325 ], [ 17.038828046841505, 52.539510498053147 ], [ 17.039375553339305, 52.539207202034298 ], [ 17.039433512314805, 52.539164450497076 ], [ 17.039861909364401, 52.538849285205117 ], [ 17.040290357088463, 52.538602385189378 ], [ 17.041057865151394, 52.538237426787219 ], [ 17.041689597829929, 52.537860502881536 ], [ 17.042211282100286, 52.537417266612167 ], [ 17.043281084306763, 52.536648778544468 ], [ 17.043912536860404, 52.536028365441595 ], [ 17.044338864554241, 52.535768284426993 ], [ 17.044719401605608, 52.535536136764144 ], [ 17.045161527809686, 52.535298709425497 ], [ 17.045397934470213, 52.535189827408942 ], [ 17.045847296269944, 52.535121428040334 ], [ 17.046275058508929, 52.534901657830609 ], [ 17.047672928941022, 52.533923045954069 ], [ 17.048183760192103, 52.533555785563458 ], [ 17.048953568066221, 52.533002386280884 ], [ 17.049268285489227, 52.532753399105033 ], [ 17.049703631602892, 52.532371576414313 ], [ 17.050234417020228, 52.531806134362569 ], [ 17.050984305392596, 52.531015217000608 ], [ 17.051345382912693, 52.530531340143959 ], [ 17.051781185018463, 52.529705204297748 ], [ 17.052898327400015, 52.529428583084858 ], [ 17.053761717339555, 52.529217123127687 ], [ 17.054106189067184, 52.529131137746667 ], [ 17.054309693113147, 52.529094729926328 ], [ 17.054875182457561, 52.529003112413633 ], [ 17.055593773441601, 52.528887565270622 ], [ 17.055933136037837, 52.528766863019705 ], [ 17.05628109915877, 52.528641714049726 ], [ 17.056844699852732, 52.528459034968776 ], [ 17.057196277907906, 52.528238514361966 ], [ 17.057785348210942, 52.52799310983994 ], [ 17.05794614722798, 52.527951767561589 ], [ 17.058028635512265, 52.527930546000498 ], [ 17.058639306087862, 52.527773634814622 ], [ 17.058836235807526, 52.527695468314867 ], [ 17.059355373069806, 52.527490551837552 ], [ 17.05952046088019, 52.5274254431855 ], [ 17.060710579496991, 52.526966104434003 ], [ 17.062016187543904, 52.526773614131351 ], [ 17.06244665307203, 52.526639455154481 ], [ 17.063567319198818, 52.526282743496218 ], [ 17.064221886149195, 52.526058885875607 ], [ 17.064648006035892, 52.525788475963623 ], [ 17.064850483244808, 52.525513237840741 ], [ 17.065424395496041, 52.525087484285365 ], [ 17.065574842865541, 52.525026265228234 ], [ 17.065907434075033, 52.524883837932691 ], [ 17.066043970699219, 52.52482706787243 ], [ 17.066777611089478, 52.52446732747012 ], [ 17.067586417264852, 52.52419551410361 ], [ 17.067702788377545, 52.524057195364911 ], [ 17.068161872993265, 52.523511819613617 ], [ 17.068729883249389, 52.523309998922215 ], [ 17.068980992870991, 52.523189168245914 ], [ 17.069557065647622, 52.522756234876439 ], [ 17.069827619343933, 52.52231624643899 ], [ 17.069874459979253, 52.522240020385929 ], [ 17.069974650870087, 52.522076971337761 ], [ 17.070824320865032, 52.521160560344626 ], [ 17.071064650724747, 52.520857957082832 ], [ 17.071356338070146, 52.520497008815411 ], [ 17.071562683325336, 52.520222811838181 ], [ 17.071872550044684, 52.519810172266148 ], [ 17.072064681535274, 52.51956074661183 ], [ 17.072739498233432, 52.518625103355625 ], [ 17.073156406154403, 52.518110860925447 ], [ 17.073701817506937, 52.51763486593039 ], [ 17.074257258538349, 52.516932648202584 ], [ 17.07458830005562, 52.516722445518994 ], [ 17.074624103327789, 52.516699373481103 ], [ 17.075401297755498, 52.516205286661858 ], [ 17.075852892818013, 52.515712465655028 ], [ 17.075891123851854, 52.515643922174284 ], [ 17.076027160856473, 52.515678603468402 ], [ 17.076996606334653, 52.515224148915252 ], [ 17.077916961109107, 52.514792813508627 ], [ 17.079075122690366, 52.513654522532889 ], [ 17.079464888341239, 52.513624603776869 ], [ 17.079593692134882, 52.51358505156125 ], [ 17.079862385165086, 52.513542463104471 ], [ 17.081993578113448, 52.513081094020322 ], [ 17.083946590739298, 52.513081709999732 ], [ 17.084206920452782, 52.513075312724069 ], [ 17.085542378927357, 52.513062482801288 ], [ 17.086867602791578, 52.513010347669962 ], [ 17.088157644361694, 52.512977326400751 ], [ 17.088451125957061, 52.513018854767729 ], [ 17.089344165551331, 52.513145437710868 ], [ 17.09035892817964, 52.513402415329324 ], [ 17.091386875591478, 52.513681992315327 ], [ 17.092969737131082, 52.513747181209524 ], [ 17.093114710011466, 52.51376291922589 ], [ 17.093584260843631, 52.513813838218489 ], [ 17.094730125034499, 52.513937888204843 ], [ 17.095821719163816, 52.514099998281985 ], [ 17.096684234233393, 52.514176566356284 ], [ 17.098074882745472, 52.514234816828946 ], [ 17.098744417057379, 52.514270581889818 ], [ 17.100131295601944, 52.514344577259813 ], [ 17.101653968012918, 52.514538018944101 ], [ 17.103350644790645, 52.514611010746414 ], [ 17.103453473582675, 52.514616166865764 ], [ 17.103992914658548, 52.514636505329065 ], [ 17.104319651792661, 52.514758844758298 ], [ 17.10549068757263, 52.515186565773298 ], [ 17.106515576815504, 52.515578118205156 ], [ 17.108193232678957, 52.516304249677532 ], [ 17.108926594189054, 52.516667284559567 ], [ 17.109293978235911, 52.516853128680552 ], [ 17.109367604471096, 52.516906741027128 ], [ 17.110540555888029, 52.517670192696293 ], [ 17.111411543104225, 52.51798108503683 ], [ 17.113475670734566, 52.518018782131769 ], [ 17.113780559267497, 52.518070682412187 ], [ 17.114215688958836, 52.518169538511607 ], [ 17.114514032707884, 52.51824004035074 ], [ 17.115716988081193, 52.51848099960754 ], [ 17.115844659144276, 52.518512263700003 ], [ 17.116346936675836, 52.518706349629774 ], [ 17.1167667759997, 52.51892511426913 ], [ 17.117369546525204, 52.519207048874314 ], [ 17.118189500678053, 52.519613315731185 ], [ 17.118421819812742, 52.51974904411027 ], [ 17.119344436809477, 52.520427478337808 ], [ 17.119846414878054, 52.520836593597984 ], [ 17.121078389802445, 52.521764569126212 ], [ 17.121559073684978, 52.52203761756823 ], [ 17.12163819973566, 52.522076918818314 ], [ 17.123462054974297, 52.521944594456947 ], [ 17.123629880100601, 52.521985480961483 ], [ 17.124011346498126, 52.521929830207661 ], [ 17.124920450334777, 52.521782706551221 ], [ 17.125947257172513, 52.521589501702117 ], [ 17.126997266750411, 52.521325511936858 ], [ 17.129787471766821, 52.520394237737236 ], [ 17.130678268417199, 52.520312437672168 ], [ 17.130897874160301, 52.520279750738972 ], [ 17.132288738413202, 52.519045418579651 ], [ 17.132168198900359, 52.51895348479858 ], [ 17.132297077223033, 52.518838416104323 ], [ 17.132007820370745, 52.518584263402914 ], [ 17.130376326134932, 52.519204270618374 ], [ 17.130310494549391, 52.51913307635504 ], [ 17.129879609818392, 52.518665948435526 ], [ 17.129091291508413, 52.517936385699301 ], [ 17.128344571979323, 52.516925959970557 ], [ 17.128312855237294, 52.51692986534411 ], [ 17.128089062236992, 52.516957354508179 ], [ 17.127973612414763, 52.516971447444959 ], [ 17.127774127083541, 52.516995902857026 ], [ 17.127534329574221, 52.517025296304176 ], [ 17.127310392126294, 52.517052691773543 ], [ 17.127281489856458, 52.517056281654611 ], [ 17.127092024638287, 52.517039251796966 ], [ 17.126844251328855, 52.517016981347886 ], [ 17.126291269924483, 52.516967481979876 ], [ 17.126181264667149, 52.516957555178891 ], [ 17.125792499978196, 52.516984855557119 ], [ 17.125515970998471, 52.51700430918244 ], [ 17.125359704780873, 52.51698321551909 ], [ 17.124875377693048, 52.516917618535423 ], [ 17.124474308843499, 52.516863412802195 ], [ 17.12421969524793, 52.516610689169831 ], [ 17.124187579351773, 52.516578970421108 ], [ 17.124169199558782, 52.516560510909066 ], [ 17.12399096259692, 52.516383828677846 ], [ 17.12364271639915, 52.51603814890877 ], [ 17.123591128923461, 52.515951347025485 ], [ 17.123387694323903, 52.515622263656006 ], [ 17.123623233491443, 52.515429747792759 ], [ 17.124413714461561, 52.51522624306741 ], [ 17.124968387123754, 52.515090049728549 ], [ 17.125516221908537, 52.514948169121674 ], [ 17.125753304791083, 52.514840308148109 ], [ 17.126112123440183, 52.51469174277679 ], [ 17.126723583841525, 52.514571910564257 ], [ 17.126858571884828, 52.514545446516237 ], [ 17.127903467793129, 52.51466811537599 ], [ 17.12895656306592, 52.513543151709506 ], [ 17.129001809924951, 52.51349484935497 ], [ 17.129029607297316, 52.51346515867251 ], [ 17.126633003578085, 52.512677754967122 ], [ 17.125605248094907, 52.512053114562796 ], [ 17.124405756904732, 52.511349472371222 ], [ 17.123641216944581, 52.510900774685318 ], [ 17.123306084927425, 52.510639306432466 ], [ 17.122930857980023, 52.5102879793479 ], [ 17.122589475139648, 52.509889789054419 ], [ 17.121962962670231, 52.509043301619535 ], [ 17.120997074573179, 52.507317461306798 ], [ 17.120747687919664, 52.507268709306274 ], [ 17.119893267148473, 52.507211961952549 ], [ 17.119159615670245, 52.507147234964592 ], [ 17.118182111951889, 52.507063064929362 ], [ 17.116145678271916, 52.507161788994424 ], [ 17.114250695084543, 52.507261563602391 ], [ 17.113534654504893, 52.50728828296559 ], [ 17.113475750609098, 52.507290401679278 ], [ 17.112299369932739, 52.507334415826378 ], [ 17.111575637312271, 52.507272318356627 ], [ 17.110806063719899, 52.507382082036408 ], [ 17.109443533400189, 52.507425523450294 ], [ 17.108774185950171, 52.50734988727757 ], [ 17.108352845443683, 52.507221010364653 ], [ 17.108044340131254, 52.507056161073976 ], [ 17.107906016605124, 52.506954653466479 ], [ 17.107813761569609, 52.506889049659797 ], [ 17.107512958677418, 52.506675393970482 ], [ 17.106034488194826, 52.505271131292773 ], [ 17.104148453784909, 52.505215647796739 ], [ 17.103463762552522, 52.505155025429254 ], [ 17.102650385975767, 52.505234982593215 ], [ 17.10201892064341, 52.505297166281217 ], [ 17.099521911047969, 52.498347759963302 ], [ 17.097810970286162, 52.498493487627947 ], [ 17.097797135324111, 52.498407730567557 ], [ 17.097218767367668, 52.495990058261057 ], [ 17.097191193013288, 52.495894906014492 ], [ 17.096097241368319, 52.49128181618179 ], [ 17.096173714850924, 52.491118093705531 ], [ 17.094692959048338, 52.490250326566674 ], [ 17.09325589546911, 52.489378657682295 ], [ 17.091924178734956, 52.488569561002535 ], [ 17.091723463695168, 52.488696379031502 ], [ 17.09160900999791, 52.488634451236742 ], [ 17.091400507982495, 52.488668862643159 ], [ 17.09062987632344, 52.488799163082085 ], [ 17.090065179511228, 52.488947444536961 ], [ 17.089830188467264, 52.488977647898388 ], [ 17.089390238687528, 52.489052209521773 ], [ 17.088966082408273, 52.48916686898388 ], [ 17.088449164398892, 52.48930719033811 ], [ 17.088120212956429, 52.489407645502965 ], [ 17.086966683766644, 52.489740038225328 ], [ 17.086730001003545, 52.489809063047012 ], [ 17.08594850426363, 52.490019115872215 ], [ 17.085809554443468, 52.490056531736499 ], [ 17.085226034051072, 52.490213389898145 ], [ 17.084789583062456, 52.490332422517746 ], [ 17.084201033876056, 52.490499717454533 ], [ 17.084253448657687, 52.49031420650909 ], [ 17.083922579808938, 52.489939815039918 ], [ 17.08367304051842, 52.489657132012816 ], [ 17.083793167008825, 52.489493494850258 ], [ 17.083767439278823, 52.489058388130907 ], [ 17.081882971780153, 52.487419139480139 ], [ 17.081752151708951, 52.487334181254852 ], [ 17.081275627938929, 52.487027124745524 ], [ 17.081171439858856, 52.486959956705704 ], [ 17.080699932389855, 52.48665630704226 ], [ 17.080392816385672, 52.486458397236127 ], [ 17.079993015003197, 52.486199980044901 ], [ 17.079606395079033, 52.485950230040615 ], [ 17.079534050529944, 52.485903005033201 ], [ 17.079359035748695, 52.485794481180534 ], [ 17.078131079108861, 52.485039977032891 ], [ 17.075586777090521, 52.483476335406309 ], [ 17.07320577815938, 52.482012795380278 ], [ 17.071513951287386, 52.480972830942299 ], [ 17.07084788415084, 52.481553249416542 ], [ 17.070257215097051, 52.482036317625258 ], [ 17.069155291600755, 52.482590996447236 ], [ 17.068604886490711, 52.482907511038178 ], [ 17.067400051848225, 52.483516797067779 ], [ 17.065406233484467, 52.484086365642334 ], [ 17.065038709361556, 52.484192601677812 ], [ 17.063599241312605, 52.484560472817677 ], [ 17.061137881238949, 52.485343752748442 ], [ 17.060900492227606, 52.485106910231195 ], [ 17.060597477140501, 52.484710872359422 ], [ 17.06041241033936, 52.484302916796835 ], [ 17.060283324434291, 52.483891741647248 ], [ 17.060200809973924, 52.483604101574926 ], [ 17.060040200678056, 52.483467453094569 ], [ 17.059432856913659, 52.482963885537238 ], [ 17.058835398080234, 52.482510484984552 ], [ 17.058289049804742, 52.482057560632924 ], [ 17.057525036369462, 52.481599979661809 ], [ 17.056711206968412, 52.481079784596645 ], [ 17.055348660145967, 52.480308977133937 ], [ 17.054379229723139, 52.479667302926131 ], [ 17.054323983806217, 52.479630686876213 ], [ 17.05366502490708, 52.479080998330232 ], [ 17.053322983145087, 52.478747168356094 ], [ 17.053220858166576, 52.478461178769209 ], [ 17.053131837088671, 52.478011889102667 ], [ 17.053127762077857, 52.477710514239561 ], [ 17.053179966038794, 52.477288823131062 ], [ 17.053240978627723, 52.476567498172152 ], [ 17.053202071468334, 52.476314388733499 ], [ 17.053114690063087, 52.476051576977696 ], [ 17.052629059719447, 52.475257482731578 ], [ 17.052554498813581, 52.475094717948039 ], [ 17.052374563607692, 52.474503080052592 ], [ 17.05226152407122, 52.474277800795811 ], [ 17.051965348080998, 52.473813675204234 ], [ 17.05164548032559, 52.473329191201657 ], [ 17.051340814805851, 52.472844147261299 ], [ 17.051212257229942, 52.472533615311541 ], [ 17.051070658368317, 52.47228492875864 ], [ 17.05080022230635, 52.471858820185361 ], [ 17.050630460264163, 52.471447681977139 ], [ 17.050485265514045, 52.471000611600552 ], [ 17.050391914119526, 52.470783479888624 ], [ 17.050268139417003, 52.470581586491321 ], [ 17.049848085045593, 52.470085551586614 ], [ 17.049369577189228, 52.469426204204922 ], [ 17.04915398541398, 52.469042819481388 ], [ 17.049122808870202, 52.469005158797366 ], [ 17.048926811132535, 52.468668327446757 ], [ 17.048630698752127, 52.467918085568627 ], [ 17.048305949359566, 52.466863363392676 ], [ 17.048110901264419, 52.466382277823897 ], [ 17.048025214675977, 52.465789399279608 ], [ 17.048009914311105, 52.465712515408441 ], [ 17.047851766119447, 52.465302913343976 ], [ 17.047638556143184, 52.464520398233553 ], [ 17.047435667162301, 52.464323311381328 ], [ 17.047136998264691, 52.464034519680006 ], [ 17.046896679885595, 52.463754965690406 ], [ 17.046743144871161, 52.46353755614259 ], [ 17.046618531425054, 52.463202439151537 ], [ 17.046546789941846, 52.463103306208772 ], [ 17.046437778979186, 52.462937989130417 ], [ 17.046188670221468, 52.462651002986192 ], [ 17.045928382390723, 52.462347192108247 ], [ 17.045621952030078, 52.462014735695362 ], [ 17.045168178100294, 52.461398681066292 ], [ 17.044865590673162, 52.460873448376653 ], [ 17.044831410515599, 52.460814060533679 ], [ 17.0447223269022, 52.460550972524018 ], [ 17.044661680403973, 52.4604043520226 ], [ 17.044538103363372, 52.460199217257198 ], [ 17.044427830573305, 52.460082626382999 ], [ 17.044286101634228, 52.459931606640623 ], [ 17.043465390638676, 52.459379721063264 ], [ 17.043404614665718, 52.459352362136457 ], [ 17.042157040809641, 52.458519166990044 ], [ 17.041811223897973, 52.458318983803849 ], [ 17.041424368560172, 52.458091406753425 ], [ 17.040892280170389, 52.457735861727116 ], [ 17.040518023903488, 52.457436985625797 ], [ 17.039660053272062, 52.456748191545152 ], [ 17.039483088099509, 52.456622035500338 ], [ 17.039415725495854, 52.456574058233471 ], [ 17.039348363038322, 52.456526080929294 ], [ 17.038576287577428, 52.455975866146566 ], [ 17.038458094035985, 52.455888999176011 ], [ 17.038092614311747, 52.455714652036313 ], [ 17.037901215998083, 52.455641770229455 ], [ 17.037331697561022, 52.455420682134587 ], [ 17.036975556247178, 52.455288130155637 ], [ 17.036673254070649, 52.455176528385103 ], [ 17.035964225302298, 52.454914621363962 ], [ 17.03543254201292, 52.454713849970886 ], [ 17.035319665145487, 52.454716111865274 ], [ 17.035270771554462, 52.45465359842391 ], [ 17.034958723342534, 52.454546147527971 ], [ 17.034042415560123, 52.454357055703234 ], [ 17.032890165856209, 52.454137048735532 ], [ 17.032586957159193, 52.454079207338083 ], [ 17.031192733227432, 52.453887806625751 ], [ 17.030746709429945, 52.453770828193569 ], [ 17.029220324553922, 52.453308452376028 ], [ 17.029149869661349, 52.453287220681396 ], [ 17.029023080129392, 52.453251648344505 ], [ 17.028810136703409, 52.453190354925155 ], [ 17.028232664562939, 52.453023775305823 ], [ 17.027163826940249, 52.452799976222877 ], [ 17.024690766006547, 52.452386411293027 ], [ 17.024171333609168, 52.45227222884747 ], [ 17.023445428496473, 52.451998630901834 ], [ 17.022177590744406, 52.451374269458839 ], [ 17.021774088124154, 52.45115381357887 ], [ 17.021737879646881, 52.451133959875669 ], [ 17.021666528666369, 52.451086894910652 ], [ 17.021376566098102, 52.450905124189724 ], [ 17.021297838196428, 52.450828883819227 ], [ 17.02104771345315, 52.4505860777533 ], [ 17.0207755827063, 52.450190628512097 ], [ 17.020740745802872, 52.450140216680722 ], [ 17.020486320194362, 52.449835905979853 ], [ 17.020217099278298, 52.449539891582944 ], [ 17.019955837376301, 52.449243739992433 ], [ 17.019767458571376, 52.448963739101515 ], [ 17.019588194184024, 52.448752967140983 ], [ 17.018957178279422, 52.448331713993454 ], [ 17.018376693231488, 52.44804100282871 ], [ 17.017479795099991, 52.447689758249211 ], [ 17.016905289333533, 52.447528478766678 ], [ 17.015160815632335, 52.447157690390732 ], [ 17.014846175385031, 52.44708719880736 ], [ 17.014183525505473, 52.44693872698209 ], [ 17.012823082468181, 52.446441776447031 ], [ 17.012758639398513, 52.446418207396249 ], [ 17.010889438665441, 52.445658231381877 ], [ 17.010115861835267, 52.44531979799401 ], [ 17.009274664258296, 52.445051456264729 ], [ 17.008911319552595, 52.444935426592835 ], [ 17.008434139354808, 52.444748851252101 ], [ 17.007675016104763, 52.444374667589535 ], [ 17.00725822742395, 52.444161312472652 ], [ 17.006840556245006, 52.443948030917248 ], [ 17.006638127215986, 52.443844600648518 ], [ 17.006577896000753, 52.443796364657395 ], [ 17.006006096483237, 52.443339252140966 ], [ 17.005827385243332, 52.443196375378648 ], [ 17.005688738006018, 52.443085474586596 ], [ 17.005847960639002, 52.44301458634019 ], [ 17.00594300890188, 52.442973016497646 ], [ 17.007646776513834, 52.44222813456215 ], [ 17.008148121240612, 52.442008934612844 ], [ 17.009412201949083, 52.441456114152551 ], [ 17.00997288748124, 52.441330637647866 ], [ 17.011224646645161, 52.441347743739975 ], [ 17.011246564403848, 52.441348022492818 ], [ 17.011101804877665, 52.440823733946509 ], [ 17.01003265003915, 52.440004703864005 ], [ 17.009467009415157, 52.439577752622299 ], [ 17.009394984759428, 52.439523473106377 ], [ 17.008606499526675, 52.439518199200073 ], [ 17.007135566124123, 52.439489815350818 ], [ 17.005661305556814, 52.439489509459996 ], [ 17.002878276342635, 52.439461417115815 ], [ 17.002745848871395, 52.439460709007484 ], [ 17.001253212232264, 52.439440429904245 ], [ 17.000793563341858, 52.439417997047855 ], [ 17.00065216405272, 52.439410658914895 ], [ 16.999781235996, 52.439366964883533 ], [ 16.999273706505715, 52.439368360623675 ], [ 16.998358847566028, 52.439375000761743 ], [ 16.996855514554873, 52.439357003400197 ], [ 16.996752590173394, 52.439354809698678 ], [ 16.996127396829699, 52.439341515987856 ], [ 16.995412086862558, 52.43933244738767 ], [ 16.99469952850685, 52.439376218229732 ], [ 16.993994971685989, 52.439425247361129 ], [ 16.99396055201786, 52.439291995972653 ], [ 16.993801911678798, 52.439307832453125 ], [ 16.993750014687812, 52.43931306795389 ], [ 16.992525395102213, 52.439435200601068 ], [ 16.992282445083806, 52.439463454770987 ], [ 16.991688864348482, 52.439528475992354 ], [ 16.991079088372356, 52.439596816803245 ], [ 16.989631717763768, 52.439755698960298 ], [ 16.989161570710266, 52.439815161214071 ], [ 16.987951825450839, 52.439962324187441 ], [ 16.987798473179314, 52.440062250372321 ], [ 16.987783307878018, 52.440072065984197 ], [ 16.98754288852432, 52.440034964203846 ], [ 16.987466364541348, 52.440041216842211 ], [ 16.986750011288684, 52.440099985875413 ], [ 16.985282639290528, 52.440202978865798 ], [ 16.984862448293406, 52.440238270954602 ], [ 16.984661981578956, 52.440254551532732 ], [ 16.98460540100411, 52.440259163526271 ], [ 16.984333462902121, 52.440280611153796 ], [ 16.98382201023103, 52.440303190463574 ], [ 16.983708029305795, 52.440323912484324 ], [ 16.982444003483238, 52.440566333713541 ], [ 16.982412693135917, 52.440571915576733 ], [ 16.982379156244697, 52.44057790915361 ], [ 16.982168722095395, 52.440615781887011 ], [ 16.981757801559155, 52.440686389356706 ], [ 16.981665831166332, 52.440702088522691 ], [ 16.981071918905126, 52.440805816882119 ], [ 16.981001898955427, 52.440817842899897 ], [ 16.980980368685376, 52.440821972413787 ], [ 16.980863072476161, 52.440841106038519 ], [ 16.979557687443634, 52.441053918133946 ], [ 16.978833085906345, 52.441134714592692 ], [ 16.978330192676736, 52.441191865164555 ], [ 16.978254150925981, 52.441200368709332 ], [ 16.978219007760217, 52.441350694022965 ], [ 16.978197385651196, 52.441443596348968 ], [ 16.978059887484012, 52.441431350988253 ], [ 16.97727285512595, 52.441361493028708 ], [ 16.976438154886612, 52.44150641012881 ], [ 16.975661084904608, 52.441485731532296 ], [ 16.975706391757068, 52.44199990875493 ], [ 16.975759630172281, 52.44278090620675 ], [ 16.975862659177704, 52.443792203561621 ], [ 16.975884986133963, 52.444011509901671 ], [ 16.975832777241724, 52.444623675401118 ], [ 16.975718692317674, 52.445445610486487 ], [ 16.975609023182155, 52.44619683496834 ], [ 16.97532944666521, 52.44665669894772 ], [ 16.974580288684201, 52.447835087404634 ], [ 16.973615589699424, 52.449099721335955 ], [ 16.972889341592918, 52.44992159363462 ], [ 16.971990133200411, 52.450969942434028 ], [ 16.971476127205207, 52.451685804630543 ], [ 16.971218296054801, 52.452170496927714 ], [ 16.971163910344725, 52.452440835169433 ], [ 16.97115513137835, 52.452484487311473 ], [ 16.971133246001294, 52.45305660602417 ], [ 16.971277642838928, 52.453524814249995 ], [ 16.971639125257461, 52.453978667782586 ], [ 16.972132621445279, 52.454337644734544 ], [ 16.972648513580069, 52.454597075707554 ], [ 16.973151222451534, 52.454781444936863 ], [ 16.973550551534071, 52.454918348673957 ], [ 16.974132652170823, 52.455086085499318 ], [ 16.975055310407544, 52.455244001995872 ], [ 16.97618494658694, 52.455498995872667 ], [ 16.977287105516986, 52.455820517069093 ], [ 16.97811901609311, 52.456243630799747 ], [ 16.97844533108152, 52.45650618014303 ], [ 16.97895343755674, 52.457129812867414 ], [ 16.979423023121196, 52.457755753140553 ], [ 16.979606093699864, 52.458172623422982 ], [ 16.979772073553587, 52.458676626848856 ], [ 16.979730761306495, 52.459553143874913 ], [ 16.979490183003392, 52.460456207309043 ], [ 16.978802363927489, 52.461289205231701 ], [ 16.97826297012303, 52.461723317482758 ], [ 16.976714901695399, 52.46286008345816 ], [ 16.976206485117633, 52.463462282007498 ], [ 16.9758605192307, 52.464840326985211 ], [ 16.975875587099051, 52.466084508646425 ], [ 16.97569456221871, 52.46758383203376 ], [ 16.975528576652572, 52.468597985508524 ], [ 16.975140646376126, 52.469153132819372 ], [ 16.975261674825379, 52.469763405269035 ], [ 16.974881294801797, 52.4705611695356 ], [ 16.974310480577241, 52.4713104289387 ], [ 16.973641026187067, 52.471968591315168 ], [ 16.972834573505214, 52.472754910129915 ], [ 16.972423300927431, 52.473210710344958 ], [ 16.972031404208224, 52.474023288760094 ], [ 16.972030464106588, 52.474162235826086 ], [ 16.972024454355182, 52.474923866849331 ], [ 16.971956182917445, 52.475738936027724 ], [ 16.972131023965673, 52.476834391357905 ], [ 16.972213785741676, 52.477523520494842 ], [ 16.972237133708315, 52.477717299908861 ], [ 16.972189818859086, 52.478598746916155 ], [ 16.972075242662076, 52.479590930488321 ], [ 16.971949767638314, 52.480397193151653 ], [ 16.971636649332627, 52.481036000334093 ], [ 16.971307481069402, 52.482090611014257 ], [ 16.971140460160818, 52.482745954028807 ], [ 16.970991071757624, 52.483639050643745 ], [ 16.970947693533667, 52.484450228168313 ], [ 16.971007619967683, 52.484940729769683 ], [ 16.971086480763162, 52.485564043135845 ], [ 16.971393574616979, 52.486225539749633 ], [ 16.971469925122523, 52.486349712310272 ], [ 16.97172404691959, 52.486763404067993 ], [ 16.972422803693735, 52.487443666131369 ], [ 16.973206560211661, 52.487935689379682 ], [ 16.974190782464273, 52.488349382262186 ], [ 16.975100644010393, 52.488829791096933 ], [ 16.975318406761438, 52.48959336220971 ], [ 16.975087454833282, 52.490338728278182 ], [ 16.974680039147803, 52.490851716322297 ], [ 16.974348747535657, 52.491561274151344 ], [ 16.973972516293355, 52.492244877096496 ], [ 16.9738292822224, 52.492555876781857 ], [ 16.973755663288273, 52.492718043058709 ], [ 16.97350943327892, 52.493262750085471 ], [ 16.973267446961238, 52.493916900642894 ], [ 16.972988945213839, 52.49464390879028 ], [ 16.972820576138595, 52.495190218467968 ], [ 16.972635697814852, 52.496098447440211 ], [ 16.972571806640119, 52.496490945125238 ], [ 16.972538815530655, 52.497099027305744 ], [ 16.972489411276534, 52.497660237369729 ], [ 16.972443135977542, 52.498211067564675 ], [ 16.972353575174573, 52.498837787566472 ], [ 16.97221146209986, 52.49938625519642 ], [ 16.972116721994603, 52.499962068105518 ], [ 16.971896770753194, 52.500574859598899 ], [ 16.971616942814119, 52.501197956823148 ], [ 16.971184881143738, 52.501874926995036 ], [ 16.970769697833081, 52.502521154664414 ], [ 16.970756696528056, 52.502544226986096 ], [ 16.970244405850256, 52.503173676469409 ], [ 16.969813781030126, 52.503553133451859 ], [ 16.969202722145617, 52.50382425759139 ], [ 16.969050352170811, 52.503989745993415 ], [ 16.968552766803974, 52.504436855562119 ], [ 16.967946137605377, 52.504991731048321 ], [ 16.968033796977938, 52.505471915872938 ], [ 16.968181576696363, 52.506131491054354 ], [ 16.968372553958108, 52.506605624947397 ], [ 16.968722893737159, 52.50707943692376 ], [ 16.96928409809237, 52.507583760791093 ], [ 16.969659020100895, 52.507972365672558 ], [ 16.969902958429479, 52.508241435403576 ], [ 16.970174861383473, 52.508524296054716 ], [ 16.970363871859526, 52.508920231804453 ], [ 16.970469795790365, 52.509327873539043 ], [ 16.970199059781663, 52.510340487889543 ], [ 16.969578838191463, 52.511310316979461 ], [ 16.969177880893664, 52.511990781689811 ], [ 16.968474667018473, 52.513087259693727 ], [ 16.967631674542016, 52.514132223328957 ], [ 16.9657120929242, 52.515295387692092 ], [ 16.964266853023613, 52.51592927289667 ], [ 16.963889983498444, 52.516143508404852 ], [ 16.962465401901866, 52.517161335922026 ], [ 16.962458544486342, 52.517401906280561 ], [ 16.96237140379295, 52.518026411306629 ], [ 16.962011665698284, 52.518930621688099 ], [ 16.961781341360403, 52.519513804136942 ], [ 16.961223596497415, 52.520474413069358 ], [ 16.961027060817315, 52.520802017655818 ], [ 16.960446548654549, 52.521642246186779 ], [ 16.959727521099438, 52.522438619472645 ], [ 16.959459550227173, 52.522700410287797 ], [ 16.959130781943582, 52.523001266522741 ], [ 16.958203486592446, 52.52368016973729 ], [ 16.957548921706525, 52.524010476734922 ], [ 16.957176101296131, 52.524284573539909 ], [ 16.956701278534549, 52.52485309113208 ], [ 16.956530578255492, 52.525207487981213 ], [ 16.956483853437835, 52.525664402675559 ], [ 16.956583495040473, 52.525989379969033 ], [ 16.956890303454522, 52.526305432570666 ], [ 16.957314738388476, 52.52670536355798 ], [ 16.957719118625306, 52.527064112521494 ], [ 16.957975195796209, 52.5273932276842 ], [ 16.958664757592782, 52.528226668549266 ], [ 16.959124856468147, 52.52869466542095 ], [ 16.959862973495945, 52.529292835316824 ], [ 16.960243548018912, 52.529781132702418 ], [ 16.96046904621798, 52.53036983074027 ], [ 16.960695608008262, 52.531101196519693 ], [ 16.960772426207836, 52.531362636218752 ], [ 16.960970771732306, 52.532203425584491 ], [ 16.961100117860269, 52.533104276834422 ], [ 16.961153219499224, 52.53391270163597 ], [ 16.961121705366075, 52.535159400411324 ], [ 16.960276558983896, 52.53617396446149 ], [ 16.959721873145366, 52.536948615969067 ], [ 16.959275172438716, 52.538399970654744 ], [ 16.959050244666383, 52.539118064896591 ], [ 16.958807965940526, 52.539650396670595 ], [ 16.957950447042588, 52.540988796060773 ], [ 16.957295034311553, 52.541855868561903 ], [ 16.957142134631585, 52.542120989763795 ], [ 16.956952505782876, 52.542328812490055 ], [ 16.956725241322708, 52.542660826124404 ], [ 16.956518919987445, 52.542926193366867 ], [ 16.95632616692345, 52.543236046593393 ], [ 16.956246931970274, 52.54345225056786 ], [ 16.956159495177499, 52.543708427458043 ], [ 16.956145373370894, 52.543952019319228 ], [ 16.956164253443681, 52.544034643344524 ], [ 16.956238049053329, 52.544094290937487 ], [ 16.956350035722203, 52.544246429939747 ], [ 16.956546516795136, 52.544497885988243 ], [ 16.956660942788272, 52.544584858054193 ], [ 16.956947854689925, 52.544798389813266 ], [ 16.957469682328096, 52.54518255030716 ], [ 16.958050725423195, 52.545683307018592 ], [ 16.958541484619179, 52.546206428159302 ], [ 16.958643502394562, 52.546414697217152 ], [ 16.958638536515799, 52.546591619450176 ], [ 16.958617700323412, 52.54701192358619 ], [ 16.958611077323358, 52.547437509682773 ], [ 16.958449618821511, 52.547956663773427 ], [ 16.957926680147434, 52.548675909906279 ], [ 16.95737521193222, 52.549195797342335 ], [ 16.956933281273422, 52.549447384516114 ], [ 16.956056454204401, 52.549773487714333 ], [ 16.954035346061463, 52.550712286936871 ], [ 16.953604877612861, 52.550903888122335 ], [ 16.953325945989203, 52.551073194325362 ], [ 16.953156538699496, 52.551387403661501 ], [ 16.952771997183071, 52.55211675619568 ], [ 16.952688543010765, 52.552327758000104 ] ] ] ] } }
]
}
