{
"type": "FeatureCollection",
"name": "jeziora_1933",
"crs": { "type": "name", "properties": { "name": "urn:ogc:def:crs:OGC:1.3:CRS84" } },
"features": [
{ "type": "Feature", "properties": { "id": null }, "geometry": { "type": "MultiPolygon", "coordinates": [ [ [ [ 17.009442223049049, 52.465642591530653 ], [ 17.009379053845432, 52.465487219097689 ], [ 17.009233995505181, 52.465487634713945 ], [ 17.009229928672703, 52.465370405646702 ], [ 17.009355625389894, 52.464969603506638 ], [ 17.008774485541906, 52.464576903969075 ], [ 17.008666186094011, 52.464592225725625 ], [ 17.008389008428981, 52.464824736596853 ], [ 17.008285193149131, 52.465051594177709 ], [ 17.008158230647616, 52.465583822423 ], [ 17.008331116246321, 52.465692464697618 ], [ 17.009442223049049, 52.465642591530653 ] ] ] ] } },
{ "type": "Feature", "properties": { "id": null }, "geometry": { "type": "MultiPolygon", "coordinates": [ [ [ [ 17.021759098695405, 52.465169179539402 ], [ 17.021851577246689, 52.465193587136888 ], [ 17.021954558567806, 52.465192452214005 ], [ 17.022081555792145, 52.465177431049668 ], [ 17.02222296244134, 52.465154078038829 ], [ 17.022417331645777, 52.465097319747485 ], [ 17.022550923605571, 52.465039544819447 ], [ 17.022675420944939, 52.464975902529375 ], [ 17.022791591560178, 52.464889260326174 ], [ 17.022937732001495, 52.464760255534415 ], [ 17.022992613384915, 52.464684018701689 ], [ 17.023030585764509, 52.46456749317661 ], [ 17.02303544852014, 52.464458986816602 ], [ 17.023002654805072, 52.464355566037675 ], [ 17.022941427008139, 52.464260242567683 ], [ 17.022866558272057, 52.46415611827976 ], [ 17.022758068789912, 52.464071434774148 ], [ 17.022586244546055, 52.4640428434939 ], [ 17.022388869290225, 52.464062403350972 ], [ 17.022269561254927, 52.464114701841737 ], [ 17.022194955030447, 52.46421346900712 ], [ 17.022166330896674, 52.464330150639 ], [ 17.022171584302153, 52.464421680757241 ], [ 17.022191119001157, 52.464507734594925 ], [ 17.022183371389698, 52.464576186699389 ], [ 17.022156795360374, 52.464647181456037 ], [ 17.02206995507531, 52.464705737935184 ], [ 17.021923362533364, 52.464740434288785 ], [ 17.021737960355651, 52.464805914487272 ], [ 17.021617368927011, 52.464886766566707 ], [ 17.021623454533508, 52.465064037741797 ], [ 17.021759098695405, 52.465169179539402 ] ] ] ] } },
{ "type": "Feature", "properties": { "id": null }, "geometry": { "type": "MultiPolygon", "coordinates": [ [ [ [ 17.015253203002523, 52.471361109135493 ], [ 17.015351858517786, 52.471248462019538 ], [ 17.015231573482591, 52.47121786759957 ], [ 17.015085547250383, 52.471135404734348 ], [ 17.014902115563956, 52.471052313798623 ], [ 17.014612733272319, 52.471036025564082 ], [ 17.014391221072596, 52.471175185036977 ], [ 17.014507905987735, 52.471285731856419 ], [ 17.014775244904886, 52.471375947130554 ], [ 17.015253203002523, 52.471361109135493 ] ] ] ] } },
{ "type": "Feature", "properties": { "id": null }, "geometry": { "type": "MultiPolygon", "coordinates": [ [ [ [ 16.9758310795835, 52.470212831829265 ], [ 16.975953430116789, 52.470197780494104 ], [ 16.976009798769251, 52.470193030100894 ], [ 16.976114495243415, 52.470154815734254 ], [ 16.976201799614788, 52.47008772774759 ], [ 16.976297668677095, 52.470037931796298 ], [ 16.976467035900395, 52.470017969342294 ], [ 16.976646801990238, 52.469975323864801 ], [ 16.976896216351058, 52.469842426847372 ], [ 16.97704407789475, 52.469679216238482 ], [ 16.977230913621508, 52.469482381054078 ], [ 16.977340583343977, 52.46933566232854 ], [ 16.977395456403013, 52.469159430400367 ], [ 16.977353677878845, 52.469050127460442 ], [ 16.97724461038143, 52.468979679774961 ], [ 16.977049290352564, 52.468953477932082 ], [ 16.976895747736915, 52.469036578873769 ], [ 16.976804517127935, 52.469189327848262 ], [ 16.976638478522982, 52.469340796797901 ], [ 16.976611917059525, 52.469511797641182 ], [ 16.976523566463761, 52.469601728730943 ], [ 16.976311032322862, 52.469746686452865 ], [ 16.97617068454608, 52.469950030995584 ], [ 16.976091683220968, 52.470040121772492 ], [ 16.976091683220968, 52.470040121772492 ], [ 16.975891903770769, 52.47011099974285 ], [ 16.9758310795835, 52.470212831829265 ] ] ] ] } },
{ "type": "Feature", "properties": { "id": null }, "geometry": { "type": "MultiPolygon", "coordinates": [ [ [ [ 16.985777343878244, 52.481315769874556 ], [ 16.985899069963956, 52.481314985339871 ], [ 16.985970786626545, 52.481281915693032 ], [ 16.986052900188717, 52.481226162413762 ], [ 16.986079023093961, 52.481166598081515 ], [ 16.986040454288627, 52.481088786667243 ], [ 16.985922381323135, 52.481009621329868 ], [ 16.985729089982275, 52.480937747559778 ], [ 16.985646344218914, 52.48090490487931 ], [ 16.985395237130728, 52.480869194354909 ], [ 16.985224787861426, 52.480912012038047 ], [ 16.985217741330846, 52.481066201305239 ], [ 16.985380884255562, 52.481183283633108 ], [ 16.985572088560954, 52.481300843691045 ], [ 16.985777343878244, 52.481315769874556 ] ] ] ] } },
{ "type": "Feature", "properties": { "id": null }, "geometry": { "type": "MultiPolygon", "coordinates": [ [ [ [ 16.988339444866899, 52.478298910036521 ], [ 16.98850844813872, 52.47828749671735 ], [ 16.988594187216091, 52.478254664008539 ], [ 16.988737215647429, 52.478197087321512 ], [ 16.988838676839595, 52.478127373280536 ], [ 16.988888306386585, 52.478065350500259 ], [ 16.98889610855624, 52.477996901271013 ], [ 16.988819344684011, 52.477935586702763 ], [ 16.988713350377672, 52.477899493191082 ], [ 16.988559680453701, 52.477882591786361 ], [ 16.988405489570798, 52.477877111638684 ], [ 16.988296238815089, 52.477912401853168 ], [ 16.988227251576188, 52.47798838300271 ], [ 16.988163070801253, 52.478061588297138 ], [ 16.988086814922873, 52.478091724441619 ], [ 16.988005882518287, 52.478121780977851 ], [ 16.988030813951006, 52.478190787036986 ], [ 16.988135114609722, 52.478264000882326 ], [ 16.988339444866899, 52.478298910036521 ] ] ] ] } },
{ "type": "Feature", "properties": { "id": null }, "geometry": { "type": "MultiPolygon", "coordinates": [ [ [ [ 16.995287116122075, 52.474127660205404 ], [ 16.995140858726913, 52.474050883783242 ], [ 16.994992264975885, 52.474025503975746 ], [ 16.994868351747222, 52.474074839483919 ], [ 16.994827567877284, 52.474148445018876 ], [ 16.994907321962604, 52.47424695492434 ], [ 16.995052800642938, 52.474340863898803 ], [ 16.995152298324623, 52.474416847727241 ], [ 16.995311024437527, 52.47442525361155 ], [ 16.995500402837472, 52.474377027275061 ], [ 16.995478317178826, 52.474245204337187 ], [ 16.995287116122075, 52.474127660205404 ] ] ] ] } },
{ "type": "Feature", "properties": { "id": null }, "geometry": { "type": "MultiPolygon", "coordinates": [ [ [ [ 16.997968948940674, 52.484734687258218 ], [ 16.998093667122266, 52.48466821658473 ], [ 16.998153942350701, 52.484577794479996 ], [ 16.998167186720231, 52.48449229147532 ], [ 16.998127677078912, 52.484331598684101 ], [ 16.998051269669041, 52.484158851035154 ], [ 16.997942633522506, 52.483871254866415 ], [ 16.997756572429541, 52.483639499320304 ], [ 16.99760274130815, 52.483522592060901 ], [ 16.997457486757202, 52.483422975249795 ], [ 16.997411739677815, 52.48319359479747 ], [ 16.997350412776981, 52.483101114034852 ], [ 16.997156055398364, 52.483052101702938 ], [ 16.997057326577412, 52.483164732695506 ], [ 16.997011866936017, 52.483341132378413 ], [ 16.997096585089455, 52.483536882086284 ], [ 16.997172468807399, 52.483721051826542 ], [ 16.997240815189958, 52.483865087851299 ], [ 16.997414651952734, 52.483953758581237 ], [ 16.997543534547585, 52.48400166192139 ], [ 16.997511580813118, 52.484086848099686 ], [ 16.997404015186333, 52.484187899464644 ], [ 16.997284500339937, 52.484345899856201 ], [ 16.997323747462776, 52.484512303650682 ], [ 16.997393133263007, 52.484633496576464 ], [ 16.997598423978953, 52.4848541479193 ], [ 16.99774029529798, 52.48482225889105 ], [ 16.997968948940674, 52.484734687258218 ] ] ] ] } },
{ "type": "Feature", "properties": { "id": null }, "geometry": { "type": "MultiPolygon", "coordinates": [ [ [ [ 16.981885225889098, 52.50928223248485 ], [ 16.981833518047022, 52.509184193015052 ], [ 16.981687431505684, 52.509101688774301 ], [ 16.981368950753435, 52.509101969869455 ], [ 16.981030180515113, 52.509136194672585 ], [ 16.980800842463527, 52.509235152941933 ], [ 16.980759477427725, 52.509320173988016 ], [ 16.980639832712495, 52.50947815563638 ], [ 16.980643431589687, 52.509603950136423 ], [ 16.980736502773901, 52.509616969084632 ], [ 16.980865964712894, 52.509653469635531 ], [ 16.981060158029411, 52.509708220199883 ], [ 16.981428843381661, 52.50963449976225 ], [ 16.981621267691803, 52.509523480199526 ], [ 16.981885225889098, 52.50928223248485 ] ] ] ] } },
{ "type": "Feature", "properties": { "id": null }, "geometry": { "type": "MultiPolygon", "coordinates": [ [ [ [ 16.975348232804432, 52.514354168994785 ], [ 16.975500100686464, 52.514311046817035 ], [ 16.975643920516852, 52.514239211033434 ], [ 16.975695973331597, 52.514125798915366 ], [ 16.975662207139191, 52.514045209178256 ], [ 16.975554870743636, 52.513934784807297 ], [ 16.975317277698842, 52.513804985748308 ], [ 16.975096831073973, 52.513709770525786 ], [ 16.974809024807087, 52.513653407795921 ], [ 16.974573966368879, 52.51367224428018 ], [ 16.974346166453969, 52.513736925715243 ], [ 16.974208816637884, 52.513871737277128 ], [ 16.974231117919203, 52.513997852266158 ], [ 16.974384202341, 52.514131921732492 ], [ 16.974595026372342, 52.514232688674042 ], [ 16.974890358114507, 52.51432918669876 ], [ 16.975348232804432, 52.514354168994785 ] ] ] ] } },
{ "type": "Feature", "properties": { "id": null }, "geometry": { "type": "MultiPolygon", "coordinates": [ [ [ [ 16.989290671226154, 52.481608445419049 ], [ 16.989572060306568, 52.481596083554564 ], [ 16.98977004813656, 52.481565158007101 ], [ 16.990044166158718, 52.48150695019612 ], [ 16.990337771573859, 52.481431927427586 ], [ 16.990577857652035, 52.481298843094024 ], [ 16.990772215810619, 52.481142120814425 ], [ 16.990910972256149, 52.480973023389453 ], [ 16.991077787919508, 52.480804402426131 ], [ 16.991305913011782, 52.480728265012466 ], [ 16.991478697420071, 52.480634041874602 ], [ 16.991473506735197, 52.480542511253233 ], [ 16.991296573131784, 52.480522360821638 ], [ 16.990796680363758, 52.480605311892752 ], [ 16.990320941181558, 52.480774398624384 ], [ 16.990053577965135, 52.480889873399725 ], [ 16.989635255836944, 52.481031357403971 ], [ 16.989282666007568, 52.481168242339344 ], [ 16.989303433735845, 52.481328619775255 ], [ 16.989290671226154, 52.481608445419049 ] ] ] ] } },
{ "type": "Feature", "properties": { "id": null }, "geometry": { "type": "MultiPolygon", "coordinates": [ [ [ [ 17.000899479538838, 52.534818711136779 ], [ 17.000848219560016, 52.534709258227181 ], [ 17.000793586747289, 52.534674044603769 ], [ 17.000706164960761, 52.534535405156674 ], [ 17.000513394630694, 52.534446421436996 ], [ 17.000271724519678, 52.534402331815286 ], [ 16.999899206477529, 52.534350314955589 ], [ 16.999574811675718, 52.534270534975718 ], [ 16.999269926691621, 52.534173938671167 ], [ 16.999095387300674, 52.534302434720765 ], [ 16.999058463304443, 52.534496123792742 ], [ 16.999166427370007, 52.534595106139115 ], [ 16.999492641238668, 52.534634912270946 ], [ 17.000125821835528, 52.534725626729568 ], [ 17.000899479538838, 52.534818711136779 ] ] ] ] } },
{ "type": "Feature", "properties": { "id": null }, "geometry": { "type": "MultiPolygon", "coordinates": [ [ [ [ 17.013492086409205, 52.550050019045713 ], [ 17.013670517116182, 52.549835841096957 ], [ 17.013742285037367, 52.549699883821923 ], [ 17.013890803248263, 52.549525209036972 ], [ 17.014162911044973, 52.549312602426539 ], [ 17.014339788352483, 52.54913268787309 ], [ 17.014281689495203, 52.548965975868121 ], [ 17.013932924813144, 52.548800101330549 ], [ 17.01349203074248, 52.548598388866282 ], [ 17.013048560671269, 52.548453782244295 ], [ 17.012585067421199, 52.548337413068133 ], [ 17.012196777803776, 52.548216590175052 ], [ 17.0116723617089, 52.547996322653347 ], [ 17.011139099618916, 52.547764473941712 ], [ 17.010653008685352, 52.54773344352072 ], [ 17.010012900098523, 52.547791262637276 ], [ 17.009623652521384, 52.547899018319718 ], [ 17.009316128535914, 52.548065298246897 ], [ 17.008908977138407, 52.548361348105608 ], [ 17.008897342602175, 52.548618330988027 ], [ 17.009017894015088, 52.548854677439763 ], [ 17.009342734268863, 52.549134465764347 ], [ 17.009606395670872, 52.549316067894516 ], [ 17.009967100031702, 52.549425005242632 ], [ 17.010391057975653, 52.549586440602347 ], [ 17.010711452268307, 52.549757563815938 ], [ 17.010965754834171, 52.54993900552126 ], [ 17.011177608615053, 52.550022577003276 ], [ 17.011543228880043, 52.550023005617497 ], [ 17.011831063127019, 52.550084992204297 ], [ 17.012388513716761, 52.550197227142327 ], [ 17.013119499396169, 52.55020378653149 ], [ 17.013492086409205, 52.550050019045713 ] ] ] ] } },
{ "type": "Feature", "properties": { "id": null }, "geometry": { "type": "MultiPolygon", "coordinates": [ [ [ [ 16.965730113614057, 52.520937333700111 ], [ 16.965910626587469, 52.520883285891173 ], [ 16.966046440949423, 52.520782748237792 ], [ 16.966155752396428, 52.52064746397496 ], [ 16.966343386357131, 52.520439229062916 ], [ 16.966692540571493, 52.520182333583328 ], [ 16.966904298922856, 52.520060239547718 ], [ 16.967345744261664, 52.519833503812343 ], [ 16.967541148774046, 52.519659691398786 ], [ 16.967466913515796, 52.519441240654544 ], [ 16.967286011641274, 52.5193009692426 ], [ 16.96714348013094, 52.519344241438681 ], [ 16.966971940644243, 52.519609905594379 ], [ 16.966863425532331, 52.519728058851314 ], [ 16.966607234648837, 52.519797952869467 ], [ 16.966459425238739, 52.519955436415195 ], [ 16.966347478509466, 52.520147827091137 ], [ 16.966246739160244, 52.52030040431211 ], [ 16.96599080782557, 52.520364586337251 ], [ 16.96586936977139, 52.520356783367319 ], [ 16.965636911052862, 52.520318495603945 ], [ 16.965426203670532, 52.520417744895795 ], [ 16.965313195472, 52.520632976941947 ], [ 16.965218909712309, 52.520848530879576 ], [ 16.965176711338316, 52.520950677715845 ], [ 16.965314762978984, 52.521004488250981 ], [ 16.965730113614057, 52.520937333700111 ] ] ] ] } },
{ "type": "Feature", "properties": { "id": null }, "geometry": { "type": "MultiPolygon", "coordinates": [ [ [ [ 16.979423785554413, 52.453430205423743 ], [ 16.979359921494616, 52.45339482289171 ], [ 16.97932253126935, 52.453394183897167 ], [ 16.979266184440803, 52.453398936102651 ], [ 16.979266184440803, 52.453398936102651 ], [ 16.979253437447774, 52.453473015699643 ], [ 16.979278080761496, 52.45354773431567 ], [ 16.979293115059118, 52.4536280038933 ], [ 16.979205325564674, 52.453706516152813 ], [ 16.9791357080037, 52.453796769313044 ], [ 16.979178785086983, 52.453877518194645 ], [ 16.979371163650445, 52.45396653383407 ], [ 16.979517588907811, 52.454037618336372 ], [ 16.979698791035435, 52.45416644875656 ], [ 16.979867247954395, 52.45436935856749 ], [ 16.979910326914151, 52.454450107194354 ], [ 16.980002236300994, 52.454485968542457 ], [ 16.980087412014829, 52.454464562915753 ], [ 16.980116762343254, 52.454436488381099 ], [ 16.980110812680174, 52.454362089312319 ], [ 16.980035831879928, 52.454160776827756 ], [ 16.979761477234643, 52.453818893401241 ], [ 16.979423785554413, 52.453430205423743 ] ] ] ] } },
{ "type": "Feature", "properties": { "id": null }, "geometry": { "type": "MultiPolygon", "coordinates": [ [ [ [ 17.013837241351087, 52.512090462170583 ], [ 17.013824445001784, 52.511958799867806 ], [ 17.013698811801611, 52.511836673321831 ], [ 17.013385204018704, 52.511728535551683 ], [ 17.012940041063896, 52.511629617594231 ], [ 17.012667051926044, 52.511659322738268 ], [ 17.012735232426145, 52.511809060875684 ], [ 17.012950341609848, 52.512024133078498 ], [ 17.013209077371346, 52.512102774948787 ], [ 17.013636298041721, 52.512184245272664 ], [ 17.013837241351087, 52.512090462170583 ] ] ] ] } },
{ "type": "Feature", "properties": { "id": null }, "geometry": { "type": "MultiPolygon", "coordinates": [ [ [ [ 17.01095813229173, 52.511127673283262 ], [ 17.011099563677664, 52.511107190655395 ], [ 17.011176506722109, 52.511062763304757 ], [ 17.011180891036204, 52.510965680130269 ], [ 17.011017054553999, 52.510860053728045 ], [ 17.010632966707199, 52.510653566677952 ], [ 17.010257468257986, 52.510464368151219 ], [ 17.009923610882723, 52.510390171143307 ], [ 17.009914578809926, 52.510590048132308 ], [ 17.010093776888027, 52.510770230935528 ], [ 17.010357989906112, 52.510934697946716 ], [ 17.01095813229173, 52.511127673283262 ] ] ] ] } },
{ "type": "Feature", "properties": { "id": null }, "geometry": { "type": "MultiPolygon", "coordinates": [ [ [ [ 17.005931064598851, 52.50899131909199 ], [ 17.005851224837333, 52.508892816297319 ], [ 17.005741755549408, 52.508828104670151 ], [ 17.005501771532977, 52.50874976234546 ], [ 17.005158317362021, 52.508681105037411 ], [ 17.00481072502166, 52.50870381882477 ], [ 17.00464773380164, 52.508786796562312 ], [ 17.00476681952879, 52.508845956286017 ], [ 17.005036691899601, 52.508884798308443 ], [ 17.005280038193035, 52.508888901739191 ], [ 17.005523125931024, 52.508898715427229 ], [ 17.005931064598851, 52.50899131909199 ] ] ] ] } },
{ "type": "Feature", "properties": { "id": null }, "geometry": { "type": "MultiPolygon", "coordinates": [ [ [ [ 16.992418357222189, 52.509122829937681 ], [ 16.992647408896424, 52.509029559589621 ], [ 16.993018932695772, 52.508892984928316 ], [ 16.992869182230415, 52.508890444284681 ], [ 16.992503905263305, 52.508889961384384 ], [ 16.99198913833002, 52.508881224888626 ], [ 16.991521689477459, 52.508861859260428 ], [ 16.991036043302664, 52.508830752494575 ], [ 16.99072770486605, 52.50881408562725 ], [ 16.990445099684813, 52.508849291268348 ], [ 16.990347597169954, 52.508933361921116 ], [ 16.990483819127, 52.509027118050795 ], [ 16.99075991220473, 52.509134679973677 ], [ 16.991253358154683, 52.509200211072219 ], [ 16.991918661170949, 52.509194360723669 ], [ 16.992418357222189, 52.509122829937681 ] ] ] ] } },
{ "type": "Feature", "properties": { "id": null }, "geometry": { "type": "MultiPolygon", "coordinates": [ [ [ [ 17.07139369669606, 52.484560267383877 ], [ 17.071610603152138, 52.484523798489228 ], [ 17.071830257053627, 52.484424508108873 ], [ 17.071929298883809, 52.484300390915337 ], [ 17.071934294569527, 52.484186170751109 ], [ 17.071852601082291, 52.484127688200239 ], [ 17.071730741604139, 52.484131416648701 ], [ 17.071549756571205, 52.484202761927961 ], [ 17.071281331094429, 52.484346977126776 ], [ 17.07111630494656, 52.484481447876497 ], [ 17.071188143646467, 52.484551200387685 ], [ 17.07139369669606, 52.484560267383877 ] ] ] ] } },
{ "type": "Feature", "properties": { "id": null }, "geometry": { "type": "MultiPolygon", "coordinates": [ [ [ [ 17.000204242961996, 52.4867169316149 ], [ 17.000291345378617, 52.486656601560696 ], [ 17.000300942808103, 52.486631012681492 ], [ 17.000286650928036, 52.486574118526036 ], [ 17.000238171991931, 52.486526946806165 ], [ 17.000105392910111, 52.486478349676993 ], [ 16.999770527329016, 52.486421184715113 ], [ 16.999510598380358, 52.486385887211974 ], [ 16.999226314263097, 52.486329576216846 ], [ 16.999015798117643, 52.486320864642316 ], [ 16.998928694656044, 52.48638119374953 ], [ 16.998957975712933, 52.486479543521426 ], [ 16.99906499617817, 52.486538006635946 ], [ 16.999424451076703, 52.486611040205581 ], [ 16.999732859739503, 52.486693509850703 ], [ 17.000204242961996, 52.4867169316149 ] ] ] ] } },
{ "type": "Feature", "properties": { "id": null }, "geometry": { "type": "MultiPolygon", "coordinates": [ [ [ [ 16.981980189541172, 52.443010009676932 ], [ 16.981919850288076, 52.442947176388479 ], [ 16.981858334931587, 52.442910074378965 ], [ 16.981774354081107, 52.442903490496661 ], [ 16.981713991181433, 52.442933361694081 ], [ 16.981703452107038, 52.442979534274997 ], [ 16.981713967092183, 52.443026066280268 ], [ 16.981762144221168, 52.443078391499832 ], [ 16.981861321899462, 52.443121286744208 ], [ 16.981937940137641, 52.443104568637182 ], [ 16.981980189541172, 52.443010009676932 ] ] ] ] } },
{ "type": "Feature", "properties": { "id": null }, "geometry": { "type": "MultiPolygon", "coordinates": [ [ [ [ 16.9832761664678, 52.448034327883441 ], [ 16.983256991059218, 52.447992798618486 ], [ 16.983216347740935, 52.447959916130301 ], [ 16.983123004600014, 52.447927422214477 ], [ 16.983061059091124, 52.447945679008143 ], [ 16.982991503183836, 52.44799213243779 ], [ 16.982957390405716, 52.448046915906062 ], [ 16.982952403910822, 52.448109921676419 ], [ 16.982994388526574, 52.448159565523369 ], [ 16.983085214875707, 52.448201029579813 ], [ 16.983144467205761, 52.448195602511284 ], [ 16.98323882085845, 52.448159872532642 ], [ 16.983276556851269, 52.448118026469686 ], [ 16.9832761664678, 52.448034327883441 ] ] ] ] } },
{ "type": "Feature", "properties": { "id": null }, "geometry": { "type": "MultiPolygon", "coordinates": [ [ [ [ 16.979388686397616, 52.455849158217951 ], [ 16.979269099796998, 52.455883166419824 ], [ 16.979266743125159, 52.455934628841064 ], [ 16.979272574871661, 52.455991381472266 ], [ 16.979302500623564, 52.456074297214151 ], [ 16.97936706561832, 52.456137203831588 ], [ 16.979450364251363, 52.456159228388564 ], [ 16.979551925049815, 52.456150663329467 ], [ 16.979555459583768, 52.456073469686686 ], [ 16.979541910273422, 52.456001134388934 ], [ 16.979503324395022, 52.455923220994237 ], [ 16.979388686397616, 52.455849158217951 ] ] ] ] } },
{ "type": "Feature", "properties": { "id": null }, "geometry": { "type": "MultiPolygon", "coordinates": [ [ [ [ 16.988176247176071, 52.464444985278462 ], [ 16.988128172624474, 52.464448786882151 ], [ 16.98808044805406, 52.464449366950035 ], [ 16.988036586541732, 52.464489403795369 ], [ 16.988022187504917, 52.46452778572182 ], [ 16.988049213171642, 52.464582323237209 ], [ 16.98809005115092, 52.464611344470249 ], [ 16.988191512624972, 52.464605345311682 ], [ 16.98828174353773, 52.464568253473587 ], [ 16.988279877546994, 52.464516719171215 ], [ 16.988176247176071, 52.464444985278462 ] ] ] ] } },
{ "type": "Feature", "properties": { "id": null }, "geometry": { "type": "MultiPolygon", "coordinates": [ [ [ [ 16.987313407073614, 52.468234208157305 ], [ 16.987312481508209, 52.468162088852203 ], [ 16.987301133409336, 52.468133569310858 ], [ 16.987230931545174, 52.468008768351218 ], [ 16.987163534183164, 52.467914916605572 ], [ 16.987084774999758, 52.467885249594588 ], [ 16.986960595726895, 52.467926912908908 ], [ 16.986957307509336, 52.467998960491862 ], [ 16.986990763907016, 52.468097384845585 ], [ 16.987029490579012, 52.468172722757515 ], [ 16.987109880035931, 52.468259070343251 ], [ 16.987313407073614, 52.468234208157305 ] ] ] ] } },
{ "type": "Feature", "properties": { "id": null }, "geometry": { "type": "MultiPolygon", "coordinates": [ [ [ [ 16.989456873041039, 52.495484546401585 ], [ 16.989349844147899, 52.495426074586476 ], [ 16.989293170718128, 52.495373608901978 ], [ 16.989158733707711, 52.495361023080122 ], [ 16.989058962871418, 52.495328425540201 ], [ 16.988947730934811, 52.495177177728657 ], [ 16.988843967657928, 52.495232066062734 ], [ 16.988830368535485, 52.495345139936219 ], [ 16.988985403018955, 52.495461080951422 ], [ 16.989100628343753, 52.495524842674051 ], [ 16.989231308373821, 52.495619768389709 ], [ 16.989303671322222, 52.495698251958686 ], [ 16.989420071831837, 52.495736282182726 ], [ 16.989581683711776, 52.49570812773085 ], [ 16.98958567533036, 52.495620641651136 ], [ 16.989456873041039, 52.495484546401585 ] ] ] ] } },
{ "type": "Feature", "properties": { "id": null }, "geometry": { "type": "MultiPolygon", "coordinates": [ [ [ [ 16.984980044430838, 52.495768883076614 ], [ 16.984844901516386, 52.495771731028221 ], [ 16.984786350182141, 52.495760433035656 ], [ 16.98470085612178, 52.495784727617334 ], [ 16.984689129166266, 52.49585663110124 ], [ 16.984685833921375, 52.495928678241619 ], [ 16.984808779796534, 52.496008026421762 ], [ 16.984927765943993, 52.495989452562071 ], [ 16.985014201632254, 52.495944572918766 ], [ 16.985018673021134, 52.495846794637089 ], [ 16.984980044430838, 52.495768883076614 ] ] ] ] } },
{ "type": "Feature", "properties": { "id": null }, "geometry": { "type": "MultiPolygon", "coordinates": [ [ [ [ 16.976075427176411, 52.51767530390444 ], [ 16.975985708106016, 52.517606816108923 ], [ 16.975870681786542, 52.517537895266472 ], [ 16.975719783061997, 52.517514712559418 ], [ 16.975592535651295, 52.517527985942628 ], [ 16.975468518019415, 52.517654619419041 ], [ 16.975462602080881, 52.517783273818665 ], [ 16.975499338927772, 52.517902357646157 ], [ 16.97567294383137, 52.51798258161633 ], [ 16.975831806863859, 52.518016201082894 ], [ 16.976027016229956, 52.517993789662306 ], [ 16.976140941426625, 52.51790303453781 ], [ 16.976075427176411, 52.51767530390444 ] ] ] ] } },
{ "type": "Feature", "properties": { "id": null }, "geometry": { "type": "MultiPolygon", "coordinates": [ [ [ [ 16.975337723543863, 52.510951934372876 ], [ 16.975298626441734, 52.510884312240691 ], [ 16.97518968693371, 52.510866997019171 ], [ 16.975054970588047, 52.510859540942548 ], [ 16.974869646950797, 52.510851218404973 ], [ 16.974741471964098, 52.510885075798093 ], [ 16.974704183691063, 52.510961690903308 ], [ 16.974810993320592, 52.51102532219015 ], [ 16.97500546217092, 52.511018350663022 ], [ 16.975174153972805, 52.511021238085014 ], [ 16.975337723543863, 52.510951934372876 ] ] ] ] } },
{ "type": "Feature", "properties": { "id": null }, "geometry": { "type": "MultiPolygon", "coordinates": [ [ [ [ 16.971125058054842, 52.507114939497271 ], [ 16.971013284772337, 52.507159374585711 ], [ 16.970942020922692, 52.507240556065327 ], [ 16.970911029463, 52.507363630178901 ], [ 16.970963428438463, 52.507508735576238 ], [ 16.9709996711175, 52.507638113127491 ], [ 16.970992795968527, 52.507787352072469 ], [ 16.970977960937077, 52.507926154014505 ], [ 16.971079779443727, 52.508097858148275 ], [ 16.971230880482207, 52.508115900287095 ], [ 16.971303330469066, 52.508008987797602 ], [ 16.97127694284508, 52.507848877944497 ], [ 16.971326223756613, 52.50769521597573 ], [ 16.971243169321738, 52.507482631949507 ], [ 16.971173664670186, 52.507342383552839 ], [ 16.971125058054842, 52.507114939497271 ] ] ] ] } },
{ "type": "Feature", "properties": { "id": null }, "geometry": { "type": "MultiPolygon", "coordinates": [ [ [ [ 16.970814293557424, 52.506898449516008 ], [ 16.970925118065875, 52.506874599293226 ], [ 16.970955397893064, 52.506766963676142 ], [ 16.970902525608864, 52.506632150609626 ], [ 16.970677185989317, 52.506576782835523 ], [ 16.970529070435958, 52.50667724663807 ], [ 16.970556403222083, 52.506816771973767 ], [ 16.970814293557424, 52.506898449516008 ] ] ] ] } },
{ "type": "Feature", "properties": { "id": null }, "geometry": { "type": "MultiPolygon", "coordinates": [ [ [ [ 16.973480137959257, 52.507294363710997 ], [ 16.973415034892447, 52.50724174607614 ], [ 16.973398522360537, 52.507233737840586 ], [ 16.973318519126149, 52.50722979212248 ], [ 16.973261804624435, 52.507270022349253 ], [ 16.973208478110841, 52.507328336419285 ], [ 16.973218287184643, 52.507390307300625 ], [ 16.973288672794322, 52.507419839487547 ], [ 16.973369860342089, 52.5073980543375 ], [ 16.973480137959257, 52.507294363710997 ] ] ] ] } },
{ "type": "Feature", "properties": { "id": null }, "geometry": { "type": "MultiPolygon", "coordinates": [ [ [ [ 16.973462813693871, 52.507028829822097 ], [ 16.973544355588398, 52.506999325274151 ], [ 16.973553026170233, 52.506994323568144 ], [ 16.973589010685014, 52.506946012750639 ], [ 16.973591496710746, 52.506891977866225 ], [ 16.973547952082701, 52.506829429119598 ], [ 16.973464561399989, 52.506807399643122 ], [ 16.973394960123667, 52.506852559403185 ], [ 16.973336470232155, 52.506931386014656 ], [ 16.973363383825188, 52.506988499685683 ], [ 16.973462813693871, 52.507028829822097 ] ] ] ] } },
{ "type": "Feature", "properties": { "id": null }, "geometry": { "type": "MultiPolygon", "coordinates": [ [ [ [ 16.967031087988811, 52.518093198417745 ], [ 16.966864330529397, 52.518047843394683 ], [ 16.96683391372127, 52.518066634049056 ], [ 16.966844488147242, 52.518111880304666 ], [ 16.966898697626071, 52.518172039559957 ], [ 16.96696942265714, 52.518240207942469 ], [ 16.96701775108329, 52.518336317702499 ], [ 16.96708164472285, 52.51846102117409 ], [ 16.967191312776084, 52.518554322170282 ], [ 16.967283336486275, 52.518572641551621 ], [ 16.967326733805649, 52.518501283928089 ], [ 16.967325782747949, 52.518430451904322 ], [ 16.967268779997728, 52.518339343470885 ], [ 16.967205212922035, 52.518253272450295 ], [ 16.967145507629663, 52.518174993096075 ], [ 16.967031087988811, 52.518093198417745 ] ] ] ] } },
{ "type": "Feature", "properties": { "id": null }, "geometry": { "type": "MultiPolygon", "coordinates": [ [ [ [ 16.967402066971861, 52.518881120204462 ], [ 16.967311051740758, 52.51874951315969 ], [ 16.967198442312679, 52.518674187553835 ], [ 16.967051524953575, 52.518656212423899 ], [ 16.966993779852608, 52.518718310495323 ], [ 16.967034088644056, 52.518805269524748 ], [ 16.967113934203493, 52.518904495915613 ], [ 16.967170402691426, 52.51900718325362 ], [ 16.967206494034816, 52.519094069750956 ], [ 16.967284142085834, 52.519149481294995 ], [ 16.96737138436281, 52.519134241944656 ], [ 16.967414009951842, 52.519079609284148 ], [ 16.967412524190113, 52.519020356101777 ], [ 16.967402066971861, 52.518881120204462 ] ] ] ] } },
{ "type": "Feature", "properties": { "id": null }, "geometry": { "type": "MultiPolygon", "coordinates": [ [ [ [ 16.966664723019196, 52.521318672427178 ], [ 16.96667262556057, 52.521238979677378 ], [ 16.966649098784476, 52.521199948616704 ], [ 16.966567110901931, 52.521147037218903 ], [ 16.966427433463121, 52.521154936960194 ], [ 16.966225728740241, 52.521226148190458 ], [ 16.966140826863867, 52.521327693314333 ], [ 16.966114980347633, 52.521430253601039 ], [ 16.966150091669995, 52.521492659949494 ], [ 16.966240991731741, 52.521535424370541 ], [ 16.966363916160294, 52.521524661765532 ], [ 16.966475612022279, 52.521482804660749 ], [ 16.966579703108938, 52.521422790945245 ], [ 16.966664723019196, 52.521318672427178 ] ] ] ] } },
{ "type": "Feature", "properties": { "id": null }, "geometry": { "type": "MultiPolygon", "coordinates": [ [ [ [ 16.960863234687501, 52.522707242461237 ], [ 16.960940118986642, 52.522687966602746 ], [ 16.960962760299108, 52.522654880290595 ], [ 16.960940906530631, 52.522579825269247 ], [ 16.960777582285971, 52.52255125919794 ], [ 16.960602483724301, 52.522594593218969 ], [ 16.960594808311651, 52.522669139307787 ], [ 16.960702340360918, 52.522717344922555 ], [ 16.960863234687501, 52.522707242461237 ] ] ] ] } },
{ "type": "Feature", "properties": { "id": null }, "geometry": { "type": "MultiPolygon", "coordinates": [ [ [ [ 16.960301478266548, 52.524034044874945 ], [ 16.960370285816296, 52.524006904783256 ], [ 16.960375458135232, 52.523986393016287 ], [ 16.960363875691851, 52.523963017298058 ], [ 16.960306009061732, 52.523936268554252 ], [ 16.960222831559218, 52.523909083419234 ], [ 16.960074468937215, 52.523921976222013 ], [ 16.960017362840809, 52.523969918832279 ], [ 16.960057401374371, 52.524016961267741 ], [ 16.960132738175698, 52.524031135753937 ], [ 16.960301478266548, 52.524034044874945 ] ] ] ] } },
{ "type": "Feature", "properties": { "id": null }, "geometry": { "type": "MultiPolygon", "coordinates": [ [ [ [ 16.960746401335445, 52.523907808251778 ], [ 16.960843737738202, 52.523811631458841 ], [ 16.961049753602119, 52.523647799396393 ], [ 16.961152737376484, 52.523520818280197 ], [ 16.961126902807045, 52.523440544476408 ], [ 16.961041818735847, 52.523454528920645 ], [ 16.96091543114207, 52.523539904730292 ], [ 16.960788327847556, 52.523640718770785 ], [ 16.960701739824152, 52.523778282644173 ], [ 16.960684792885367, 52.523870694735145 ], [ 16.960746401335445, 52.523907808251778 ] ] ] ] } },
{ "type": "Feature", "properties": { "id": null }, "geometry": { "type": "MultiPolygon", "coordinates": [ [ [ [ 16.961116190412625, 52.523352805913611 ], [ 16.961207840273435, 52.52333378432607 ], [ 16.961234021038418, 52.523269857558638 ], [ 16.961218017467697, 52.523205203875918 ], [ 16.961164548480301, 52.523174668650817 ], [ 16.961076878993286, 52.523198909030413 ], [ 16.961029605892659, 52.52326247227213 ], [ 16.96104367876411, 52.523323230034428 ], [ 16.961116190412625, 52.523352805913611 ] ] ] ] } },
{ "type": "Feature", "properties": { "id": null }, "geometry": { "type": "MultiPolygon", "coordinates": [ [ [ [ 16.961094397187527, 52.523048566603009 ], [ 16.961182662243314, 52.523011460892214 ], [ 16.961233855314532, 52.522954402930147 ], [ 16.961239742128388, 52.522918452738466 ], [ 16.961231877516056, 52.522860377093465 ], [ 16.961167207489112, 52.522843811991358 ], [ 16.96106037712557, 52.522871584840772 ], [ 16.960998637934328, 52.522928460979912 ], [ 16.96099848259292, 52.522977385519539 ], [ 16.961048590594647, 52.523034901626595 ], [ 16.961094397187527, 52.523048566603009 ] ] ] ] } },
{ "type": "Feature", "properties": { "id": null }, "geometry": { "type": "MultiPolygon", "coordinates": [ [ [ [ 16.970435979884275, 52.527469703321941 ], [ 16.970512631236144, 52.527455567450488 ], [ 16.970490640322048, 52.527383087138233 ], [ 16.97048860976377, 52.527243996310531 ], [ 16.970479090761327, 52.527084176141955 ], [ 16.970461134200004, 52.526924211238153 ], [ 16.970444838864275, 52.526728223264072 ], [ 16.970443757625581, 52.526568547813802 ], [ 16.970489372517665, 52.526311819111456 ], [ 16.97049137586712, 52.526085243662976 ], [ 16.970539125446937, 52.52578219953552 ], [ 16.970482304277887, 52.525549464834754 ], [ 16.970426670133506, 52.52529099933755 ], [ 16.970436399008278, 52.525080007046569 ], [ 16.970471913982138, 52.52485915662195 ], [ 16.970452771720165, 52.524724922439368 ], [ 16.970318251274506, 52.524712314411005 ], [ 16.970244109159871, 52.524855248782728 ], [ 16.970193854382561, 52.525029494259549 ], [ 16.970176873674315, 52.525214611009496 ], [ 16.970201842077529, 52.52540559764482 ], [ 16.970182725314565, 52.525637029754172 ], [ 16.970190344484831, 52.525838019186395 ], [ 16.970170990084281, 52.526074597427247 ], [ 16.970118360140862, 52.526300304337113 ], [ 16.970060377569951, 52.526458966486466 ], [ 16.970081785878836, 52.526727145375773 ], [ 16.970081916412088, 52.526907405415407 ], [ 16.970138024994885, 52.52715557870679 ], [ 16.970196744868975, 52.527347144309658 ], [ 16.970435979884275, 52.527469703321941 ] ] ] ] } },
{ "type": "Feature", "properties": { "id": null }, "geometry": { "type": "MultiPolygon", "coordinates": [ [ [ [ 16.957776111278598, 52.550978947798534 ], [ 16.957710486001364, 52.550936613602332 ], [ 16.957593490966854, 52.550908843483299 ], [ 16.957494173748049, 52.551046185222511 ], [ 16.957417553104097, 52.551240570974748 ], [ 16.957343561260764, 52.551378349689031 ], [ 16.957360282397005, 52.551564046019756 ], [ 16.957474171597326, 52.551658715538551 ], [ 16.957568948932028, 52.551619149540315 ], [ 16.957619047818312, 52.551450057070561 ], [ 16.95772218959787, 52.551230377800508 ], [ 16.957776111278598, 52.550978947798534 ] ] ] ] } },
{ "type": "Feature", "properties": { "id": null }, "geometry": { "type": "MultiPolygon", "coordinates": [ [ [ [ 16.95708056672774, 52.551765226412357 ], [ 16.957041941453078, 52.551687306428477 ], [ 16.957053491804075, 52.551620553025842 ], [ 16.957065281196392, 52.551548653533338 ], [ 16.957044736030795, 52.551445294576901 ], [ 16.95694390729015, 52.551433253539841 ], [ 16.956827941400899, 52.551565157102871 ], [ 16.956778795795007, 52.551713664856074 ], [ 16.956789224331867, 52.551852900701505 ], [ 16.956913707260536, 52.551901401724685 ], [ 16.957040820404526, 52.551893295659468 ], [ 16.95708056672774, 52.551765226412357 ] ] ] ] } },
{ "type": "Feature", "properties": { "id": null }, "geometry": { "type": "MultiPolygon", "coordinates": [ [ [ [ 16.957665706831374, 52.552264596102624 ], [ 16.95768665485252, 52.55217740397174 ], [ 16.95766300079033, 52.552140944274043 ], [ 16.957668737112282, 52.552017438134953 ], [ 16.957613464914928, 52.551934080854828 ], [ 16.957486351741615, 52.551942187534941 ], [ 16.957432351136347, 52.552013358536477 ], [ 16.957453853597951, 52.552096133074507 ], [ 16.957442303709069, 52.552162886516058 ], [ 16.95740447041112, 52.552249787178617 ], [ 16.9575209908018, 52.552287849690536 ], [ 16.957665706831374, 52.552264596102624 ] ] ] ] } },
{ "type": "Feature", "properties": { "id": null }, "geometry": { "type": "MultiPolygon", "coordinates": [ [ [ [ 16.957442292497838, 52.552708808980128 ], [ 16.95748275557478, 52.552565301346092 ], [ 16.957452571366009, 52.552487527197201 ], [ 16.957405502398036, 52.552409461619852 ], [ 16.95731359188952, 52.552387274411061 ], [ 16.957235219389588, 52.552437423803298 ], [ 16.95718870390801, 52.552529324750118 ], [ 16.957147522672802, 52.55268827053586 ], [ 16.95716639503523, 52.552827652070583 ], [ 16.957241421351192, 52.552849547954743 ], [ 16.957394820938745, 52.552821294356342 ], [ 16.957442292497838, 52.552708808980128 ] ] ] ] } },
{ "type": "Feature", "properties": { "id": null }, "geometry": { "type": "MultiPolygon", "coordinates": [ [ [ [ 17.02010023118406, 52.50130614320458 ], [ 17.020023009220715, 52.501240473168643 ], [ 17.019855275491992, 52.501217064718567 ], [ 17.019693030743444, 52.501165421807364 ], [ 17.019491282346394, 52.501053889960083 ], [ 17.019327251601261, 52.500948139509255 ], [ 17.019237317956549, 52.500977534850371 ], [ 17.019337060540089, 52.501105384926554 ], [ 17.019423807231028, 52.501240742625527 ], [ 17.01953747282775, 52.501340499520573 ], [ 17.019758570159542, 52.501490981694644 ], [ 17.020021140239102, 52.501657608221201 ], [ 17.020150811435364, 52.501682954483172 ], [ 17.020175363219742, 52.50160611237856 ], [ 17.020146719350624, 52.501492328540365 ], [ 17.02010023118406, 52.50130614320458 ] ] ] ] } },
{ "type": "Feature", "properties": { "id": null }, "geometry": { "type": "MultiPolygon", "coordinates": [ [ [ [ 17.010818244566263, 52.499783042415636 ], [ 17.010698328872206, 52.499822227525982 ], [ 17.010771201840132, 52.49989040574949 ], [ 17.010885308920365, 52.499979878145432 ], [ 17.01100691979396, 52.500090077439133 ], [ 17.011153364746541, 52.50021099456378 ], [ 17.011378492633295, 52.500271431770315 ], [ 17.011505448006574, 52.500263265563824 ], [ 17.011524868503674, 52.500206939720613 ], [ 17.011427857202616, 52.500112605144565 ], [ 17.011282108719911, 52.499976249440699 ], [ 17.011176201162812, 52.499892065502351 ], [ 17.010818244566263, 52.499783042415636 ] ] ] ] } },
{ "type": "Feature", "properties": { "id": null }, "geometry": { "type": "MultiPolygon", "coordinates": [ [ [ [ 17.010230089261199, 52.499165425574851 ], [ 17.010206651135068, 52.499123829625276 ], [ 17.010156985880812, 52.499102393331874 ], [ 17.010055563561348, 52.49910583739517 ], [ 17.009959784303806, 52.499171178846183 ], [ 17.009963800230253, 52.499269100426147 ], [ 17.010097558397455, 52.499297101673605 ], [ 17.010215846209835, 52.499293941271361 ], [ 17.010230089261199, 52.499165425574851 ] ] ] ] } },
{ "type": "Feature", "properties": { "id": null }, "geometry": { "type": "MultiPolygon", "coordinates": [ [ [ [ 17.008643970345922, 52.501023712123917 ], [ 17.008579066458154, 52.500965967172085 ], [ 17.00852893469386, 52.500954822778581 ], [ 17.008410409695038, 52.50096312774204 ], [ 17.00834835531986, 52.501029035710211 ], [ 17.008377666328141, 52.501127383225104 ], [ 17.008486363066574, 52.501149814094575 ], [ 17.008606051687579, 52.501115777585362 ], [ 17.008643970345922, 52.501023712123917 ] ] ] ] } },
{ "type": "Feature", "properties": { "id": null }, "geometry": { "type": "MultiPolygon", "coordinates": [ [ [ [ 17.007883961117066, 52.501407481766108 ], [ 17.007836854372886, 52.501329435275174 ], [ 17.007811555659394, 52.501329009215262 ], [ 17.007641501142519, 52.501357046428247 ], [ 17.007629809842783, 52.501428952478314 ], [ 17.007693549459404, 52.501512429400023 ], [ 17.007794279282624, 52.501524426296413 ], [ 17.007880237702597, 52.50148982244464 ], [ 17.007883961117066, 52.501407481766108 ] ] ] ] } },
{ "type": "Feature", "properties": { "id": null }, "geometry": { "type": "MultiPolygon", "coordinates": [ [ [ [ 17.007103476714803, 52.501497339564793 ], [ 17.007114703287737, 52.501435726156295 ], [ 17.007124765820738, 52.501399844196264 ], [ 17.007026364606396, 52.501336383836112 ], [ 17.006898241295946, 52.5013702766419 ], [ 17.006842754331863, 52.501477496187817 ], [ 17.00695895275631, 52.501520655707388 ], [ 17.007103476714803, 52.501497339564793 ] ] ] ] } },
{ "type": "Feature", "properties": { "id": null }, "geometry": { "type": "MultiPolygon", "coordinates": [ [ [ [ 17.007080117480523, 52.500894371184962 ], [ 17.007125540726605, 52.50082303347061 ], [ 17.007126471912009, 52.500802448308214 ], [ 17.007002540834343, 52.500743708017445 ], [ 17.006858019308776, 52.500767024063542 ], [ 17.006820330000966, 52.500853942631757 ], [ 17.006961359593905, 52.500907820985653 ], [ 17.007080117480523, 52.500894371184962 ] ] ] ] } },
{ "type": "Feature", "properties": { "id": null }, "geometry": { "type": "MultiPolygon", "coordinates": [ [ [ [ 17.009124600922121, 52.502339955625224 ], [ 17.00908429604366, 52.502298075608508 ], [ 17.009042595732829, 52.502287073350431 ], [ 17.008923834626994, 52.502300525087136 ], [ 17.008895278906397, 52.502372147381394 ], [ 17.008952449905014, 52.502414311345341 ], [ 17.009053414740226, 52.502421160896581 ], [ 17.009124600922121, 52.502339955625224 ] ] ] ] } },
{ "type": "Feature", "properties": { "id": null }, "geometry": { "type": "MultiPolygon", "coordinates": [ [ [ [ 17.009536087070426, 52.502758896964487 ], [ 17.00953841237952, 52.502707433999902 ], [ 17.009430641428967, 52.502664418874623 ], [ 17.009336481259965, 52.502693735625577 ], [ 17.009316359122653, 52.502765499935705 ], [ 17.009356199534313, 52.502817672468296 ], [ 17.009474264301478, 52.50281965919973 ], [ 17.009536087070426, 52.502758896964487 ] ] ] ] } },
{ "type": "Feature", "properties": { "id": null }, "geometry": { "type": "MultiPolygon", "coordinates": [ [ [ [ 17.011119668665199, 52.502826734084216 ], [ 17.011044931574659, 52.502799726462946 ], [ 17.01099479708417, 52.502788583090918 ], [ 17.010894760553413, 52.502761149983144 ], [ 17.010809731467027, 52.50277517081588 ], [ 17.010807175253444, 52.502831780119912 ], [ 17.010846552743448, 52.502894244768754 ], [ 17.010963223627716, 52.502927107819872 ], [ 17.011091116136871, 52.502898356934544 ], [ 17.011119668665199, 52.502826734084216 ] ] ] ] } },
{ "type": "Feature", "properties": { "id": null }, "geometry": { "type": "MultiPolygon", "coordinates": [ [ [ [ 17.010514595348873, 52.506133292713386 ], [ 17.010909756321787, 52.505980281359165 ], [ 17.01120842517124, 52.505908049816682 ], [ 17.011583694086603, 52.505821654478559 ], [ 17.011789589315047, 52.505747862044991 ], [ 17.011818142682522, 52.505676239065728 ], [ 17.011736592701467, 52.505613065991319 ], [ 17.011619449535338, 52.505590496241851 ], [ 17.011329449597394, 52.505657724332927 ], [ 17.011199225560244, 52.505737938375866 ], [ 17.010942261961631, 52.50582117154292 ], [ 17.010670521639071, 52.505857803815303 ], [ 17.01042640678974, 52.505843398026343 ], [ 17.010233824682814, 52.505809257702879 ], [ 17.010063056755122, 52.505852737108057 ], [ 17.010142512356747, 52.505962227974315 ], [ 17.010290833769865, 52.506041975858544 ], [ 17.010514595348873, 52.506133292713386 ] ] ] ] } },
{ "type": "Feature", "properties": { "id": null }, "geometry": { "type": "MultiPolygon", "coordinates": [ [ [ [ 17.024842791303254, 52.508183683442333 ], [ 17.024773061503694, 52.508138742568249 ], [ 17.024588084093754, 52.508122778429446 ], [ 17.024426562988257, 52.50814840725819 ], [ 17.024389016921848, 52.508232758430808 ], [ 17.024450081315052, 52.508282705018431 ], [ 17.024560828534593, 52.50835408198126 ], [ 17.024568978996889, 52.50845464683789 ], [ 17.024571411949104, 52.508588592470829 ], [ 17.024683775804569, 52.508623944957058 ], [ 17.024821841732106, 52.508556722619005 ], [ 17.024852337648543, 52.508441352453602 ], [ 17.024854236395868, 52.508304904055116 ], [ 17.024842791303254, 52.508183683442333 ] ] ] ] } },
{ "type": "Feature", "properties": { "id": null }, "geometry": { "type": "MultiPolygon", "coordinates": [ [ [ [ 17.029292652141564, 52.510881915754354 ], [ 17.029235105186228, 52.510847480905831 ], [ 17.029193276464472, 52.510839058813147 ], [ 17.029098535630038, 52.510881257089821 ], [ 17.028987270409022, 52.510915454705646 ], [ 17.028892874723699, 52.510949933289098 ], [ 17.028860473452692, 52.511013770774397 ], [ 17.028883820154185, 52.511057936357908 ], [ 17.028929405787292, 52.511076721527211 ], [ 17.029013754568279, 52.511078126838228 ], [ 17.029124329245679, 52.511059368252447 ], [ 17.029256451606944, 52.511030668140123 ], [ 17.029292839456801, 52.510972047145771 ], [ 17.029292652141564, 52.510881915754354 ] ] ] ] } },
{ "type": "Feature", "properties": { "id": null }, "geometry": { "type": "MultiPolygon", "coordinates": [ [ [ [ 17.026918886823843, 52.521472331052529 ], [ 17.026852083952971, 52.521455766457692 ], [ 17.02670958015441, 52.52143278911204 ], [ 17.026598286253023, 52.521466984143046 ], [ 17.026560847646653, 52.521548762588097 ], [ 17.026665682542223, 52.521658664926555 ], [ 17.026796982068845, 52.521743257628586 ], [ 17.026963644389863, 52.521792388632903 ], [ 17.027107302677585, 52.52178963401176 ], [ 17.027245060867845, 52.521730128858188 ], [ 17.027300294615884, 52.521628046188383 ], [ 17.027168071930845, 52.521564039376614 ], [ 17.026918886823843, 52.521472331052529 ] ] ] ] } },
{ "type": "Feature", "properties": { "id": null }, "geometry": { "type": "MultiPolygon", "coordinates": [ [ [ [ 17.026689541452019, 52.520938037516444 ], [ 17.0266261997748, 52.52084427779333 ], [ 17.026571756464641, 52.520740366090585 ], [ 17.026465078306931, 52.52067163434419 ], [ 17.026340965803925, 52.520803468757258 ], [ 17.02624100914765, 52.520961456927125 ], [ 17.026258474590591, 52.521136854460956 ], [ 17.026392309673508, 52.521164837938734 ], [ 17.026620564593269, 52.521158344862158 ], [ 17.026667131568878, 52.521061268101896 ], [ 17.026689541452019, 52.520938037516444 ] ] ] ] } },
{ "type": "Feature", "properties": { "id": null }, "geometry": { "type": "MultiPolygon", "coordinates": [ [ [ [ 17.02162511329902, 52.531802747348472 ], [ 17.021438996703147, 52.531809935766255 ], [ 17.021311488942576, 52.531828404330483 ], [ 17.021179584202578, 52.531944652593623 ], [ 17.021124554173849, 52.532041585663301 ], [ 17.021118768591325, 52.532170243334861 ], [ 17.02117413806079, 52.532253572141791 ], [ 17.021204885248597, 52.532321038632773 ], [ 17.021158756552474, 52.532407820218936 ], [ 17.021080260494234, 52.532463159416324 ], [ 17.02093517847285, 52.532496784203545 ], [ 17.020689523314072, 52.532513276001374 ], [ 17.020441784426957, 52.53257608402658 ], [ 17.0203110327361, 52.532666599742399 ], [ 17.020118197500842, 52.532823028846678 ], [ 17.019891604776408, 52.532978892747749 ], [ 17.019673217898884, 52.533140043731891 ], [ 17.019681989995807, 52.533320446750217 ], [ 17.019768696836753, 52.533270396050696 ], [ 17.019952401542749, 52.533129265251091 ], [ 17.020176910973795, 52.533019717971207 ], [ 17.020432628743155, 52.532967344322032 ], [ 17.020658062100892, 52.532837210889134 ], [ 17.020864070121355, 52.532763404074643 ], [ 17.021272150135911, 52.53270327656309 ], [ 17.021547056542403, 52.532599719638547 ], [ 17.021619889740109, 52.532482483337759 ], [ 17.021530532066325, 52.532403736639402 ], [ 17.021458052531234, 52.532325272089309 ], [ 17.021612729342895, 52.532266056204868 ], [ 17.021796997083229, 52.532300038003505 ], [ 17.022122413593827, 52.532387880699943 ], [ 17.022365292230123, 52.532433141640368 ], [ 17.022678226633754, 52.532422920838222 ], [ 17.022994166603013, 52.532345797145368 ], [ 17.02292827372575, 52.532308644966385 ], [ 17.022759726677833, 52.532300678507234 ], [ 17.022507484389223, 52.532275862591931 ], [ 17.022323678739518, 52.532231589274275 ], [ 17.022343331910818, 52.532170115634884 ], [ 17.022463788979774, 52.532120627065218 ], [ 17.02274643413876, 52.532032647249039 ], [ 17.02271522229498, 52.531975473758159 ], [ 17.022572455615887, 52.531957637466114 ], [ 17.022345069366231, 52.531943536921496 ], [ 17.022103118668106, 52.531877690722425 ], [ 17.021810304480841, 52.531816143874394 ], [ 17.02162511329902, 52.531802747348472 ] ] ] ] } },
{ "type": "Feature", "properties": { "id": null }, "geometry": { "type": "MultiPolygon", "coordinates": [ [ [ [ 17.025387530543131, 52.547702359376323 ], [ 17.025187698389828, 52.547637223020793 ], [ 17.025111721598666, 52.547635955177341 ], [ 17.024939648813213, 52.547705185844485 ], [ 17.024830366647649, 52.547693061658357 ], [ 17.0247690720714, 52.547552984259788 ], [ 17.024618274540625, 52.547524716468573 ], [ 17.024562075895023, 52.547647382298997 ], [ 17.024615159186546, 52.547782172583879 ], [ 17.024600245162098, 52.547926128182887 ], [ 17.024516870823629, 52.548089541669867 ], [ 17.024342021160827, 52.548220527074029 ], [ 17.02434422124136, 52.548359618177429 ], [ 17.024453273743028, 52.548376889129131 ], [ 17.024803325158409, 52.548295179277645 ], [ 17.025272256189822, 52.548200001613218 ], [ 17.025488388602913, 52.54809030427996 ], [ 17.025468376849535, 52.547971516685074 ], [ 17.025380367815231, 52.547861894874174 ], [ 17.025387530543131, 52.547702359376323 ] ] ] ] } },
{ "type": "Feature", "properties": { "id": null }, "geometry": { "type": "MultiPolygon", "coordinates": [ [ [ [ 17.020189494384702, 52.524949595990677 ], [ 17.020062995802597, 52.524852200851313 ], [ 17.02000884671995, 52.524835844163213 ], [ 17.019758153698877, 52.524777571781812 ], [ 17.019531847492651, 52.524740307799206 ], [ 17.019250698330215, 52.524702125279305 ], [ 17.019042657450072, 52.524634265021739 ], [ 17.018780816406487, 52.524542327701582 ], [ 17.018539027457351, 52.52447390143687 ], [ 17.018347216867561, 52.524514465634425 ], [ 17.018334377439739, 52.524612104111938 ], [ 17.018402156943246, 52.524700792447121 ], [ 17.018478258331648, 52.524792195202288 ], [ 17.018581690406769, 52.524932982354215 ], [ 17.018623000119486, 52.52504697819829 ], [ 17.018753135678008, 52.525157311255185 ], [ 17.018954130726893, 52.525194152927945 ], [ 17.019188297297731, 52.525244425053231 ], [ 17.019446503480182, 52.525323425123631 ], [ 17.019718177322495, 52.525384624386106 ], [ 17.019946107528014, 52.525385863879166 ], [ 17.020143759682103, 52.525309343543363 ], [ 17.020224905818694, 52.525194822223952 ], [ 17.020243117358905, 52.525071522549197 ], [ 17.020189494384702, 52.524949595990677 ] ] ] ] } },
{ "type": "Feature", "properties": { "id": null }, "geometry": { "type": "MultiPolygon", "coordinates": [ [ [ [ 17.019610906328676, 52.525516733743274 ], [ 17.019435453564139, 52.525475170576435 ], [ 17.019376622026577, 52.525469035591193 ], [ 17.01917504636813, 52.525445060388549 ], [ 17.019055183182854, 52.52548168004089 ], [ 17.01906072565766, 52.525546150133138 ], [ 17.01911302241556, 52.52560367770905 ], [ 17.019204214980785, 52.525641255687859 ], [ 17.019333608597321, 52.525674322900556 ], [ 17.019471208480585, 52.525712677516587 ], [ 17.019610776754337, 52.525707288358923 ], [ 17.019715385596218, 52.525634361554538 ], [ 17.019731630764799, 52.525554805603214 ], [ 17.019610906328676, 52.525516733743274 ] ] ] ] } },
{ "type": "Feature", "properties": { "id": null }, "geometry": { "type": "MultiPolygon", "coordinates": [ [ [ [ 17.040038775264115, 52.532582996470168 ], [ 17.040346477311097, 52.532500540013849 ], [ 17.040665137799984, 52.532361612445406 ], [ 17.040886747910097, 52.532221077245204 ], [ 17.040966020826225, 52.532147712371419 ], [ 17.040931252946873, 52.532075034494092 ], [ 17.040810720987292, 52.532031837585272 ], [ 17.040587661643301, 52.532015268717444 ], [ 17.040194657055498, 52.532116913638497 ], [ 17.040144575550865, 52.532198486744065 ], [ 17.040224058299369, 52.532215253665449 ], [ 17.040393869273892, 52.532194890259802 ], [ 17.040486010592996, 52.532211866639493 ], [ 17.040484062726534, 52.532255610755627 ], [ 17.040409695830839, 52.532313606074297 ], [ 17.040262336579236, 52.532398718369535 ], [ 17.040094452190875, 52.532470615118591 ], [ 17.039994308845841, 52.53253848355898 ], [ 17.040038775264115, 52.532582996470168 ] ] ] ] } },
{ "type": "Feature", "properties": { "id": null }, "geometry": { "type": "MultiPolygon", "coordinates": [ [ [ [ 17.086288263556686, 52.506188499367553 ], [ 17.086067855526952, 52.50621068443607 ], [ 17.085990382027035, 52.506245482028753 ], [ 17.085894250774768, 52.506321178858556 ], [ 17.08591686984564, 52.506383346580932 ], [ 17.086040029415205, 52.506462591389315 ], [ 17.08616632000837, 52.506469784681073 ], [ 17.086338583134669, 52.506390169032699 ], [ 17.08640231827432, 52.506283046950692 ], [ 17.086288263556686, 52.506188499367553 ] ] ] ] } },
{ "type": "Feature", "properties": { "id": null }, "geometry": { "type": "MultiPolygon", "coordinates": [ [ [ [ 17.080978214402403, 52.506215784765516 ], [ 17.080793110325978, 52.506202481650071 ], [ 17.080581133928906, 52.506224793297207 ], [ 17.080544705894145, 52.506286004051709 ], [ 17.080660093916293, 52.506349677986215 ], [ 17.0808094434887, 52.506408752616082 ], [ 17.080880642866543, 52.506518060799173 ], [ 17.081004466259895, 52.506581871228903 ], [ 17.081081271592435, 52.506562516484713 ], [ 17.081087549364849, 52.506418414128994 ], [ 17.081075837618112, 52.506299770717121 ], [ 17.080978214402403, 52.506215784765516 ] ] ] ] } },
{ "type": "Feature", "properties": { "id": null }, "geometry": { "type": "MultiPolygon", "coordinates": [ [ [ [ 17.079048542829348, 52.505757004222261 ], [ 17.079051684954692, 52.505684953120806 ], [ 17.07896869067271, 52.505652704527876 ], [ 17.078893232776302, 52.505641178868629 ], [ 17.078726346839002, 52.505597267432094 ], [ 17.078635367862478, 52.505554588620811 ], [ 17.078565201393594, 52.505615250820519 ], [ 17.078519439010183, 52.505696909971313 ], [ 17.078480314528477, 52.505819878138524 ], [ 17.078432980188357, 52.505937562786755 ], [ 17.078488427102716, 52.506020865833626 ], [ 17.078589188016686, 52.506032802715289 ], [ 17.078718169703212, 52.505978245866558 ], [ 17.078907985708078, 52.50588347557521 ], [ 17.079048542829348, 52.505757004222261 ] ] ] ] } },
{ "type": "Feature", "properties": { "id": null }, "geometry": { "type": "MultiPolygon", "coordinates": [ [ [ [ 17.068750538079907, 52.504049439387245 ], [ 17.068872445753527, 52.503963876767969 ], [ 17.068962197353883, 52.503841738001775 ], [ 17.069084780792931, 52.503740735715496 ], [ 17.06942000945935, 52.503602002515578 ], [ 17.069466688499194, 52.503499761078189 ], [ 17.069451400020792, 52.503463460453332 ], [ 17.069353128710265, 52.503394904584489 ], [ 17.06911698765094, 52.503391050454681 ], [ 17.068954267530259, 52.503445046150212 ], [ 17.068849905575572, 52.503515444792995 ], [ 17.06870932680491, 52.503641903860057 ], [ 17.068560539191001, 52.503763078576533 ], [ 17.068435697878765, 52.503915545074577 ], [ 17.068471547966812, 52.504060334944093 ], [ 17.068529907142633, 52.50407673828186 ], [ 17.068750538079907, 52.504049439387245 ] ] ] ] } },
{ "type": "Feature", "properties": { "id": null }, "geometry": { "type": "MultiPolygon", "coordinates": [ [ [ [ 17.071904368699528, 52.501603057199674 ], [ 17.072140500565798, 52.501606905676546 ], [ 17.072353809681672, 52.501553730021634 ], [ 17.072432861609176, 52.501482915921358 ], [ 17.072384964229858, 52.501420333523626 ], [ 17.072285341614027, 52.501382659013075 ], [ 17.072018405882467, 52.501311356690948 ], [ 17.07168378009019, 52.501244100529611 ], [ 17.071354659644204, 52.501243885266547 ], [ 17.071233890962507, 52.501303718162482 ], [ 17.071270874922121, 52.50142277487511 ], [ 17.071470118725934, 52.501498125507055 ], [ 17.071653397741123, 52.501552614912278 ], [ 17.071904368699528, 52.501603057199674 ] ] ] ] } },
{ "type": "Feature", "properties": { "id": null }, "geometry": { "type": "MultiPolygon", "coordinates": [ [ [ [ 17.084349097899093, 52.506965687386632 ], [ 17.084502147490426, 52.506939839798193 ], [ 17.084602947254915, 52.506853919376333 ], [ 17.084619739003223, 52.506758913536835 ], [ 17.084577602394937, 52.506660378525915 ], [ 17.084560992645244, 52.506557106662875 ], [ 17.084522849681907, 52.506463786435837 ], [ 17.084513478610276, 52.506291104783287 ], [ 17.084498624382739, 52.50624451294572 ], [ 17.084437158155765, 52.506202316507995 ], [ 17.084370579660643, 52.506180637843862 ], [ 17.084263473202064, 52.506217529542262 ], [ 17.084234477233107, 52.506302037414244 ], [ 17.084281801442277, 52.506475333697651 ], [ 17.084313600374262, 52.506617477670481 ], [ 17.08430300402653, 52.506764085264464 ], [ 17.084278972632688, 52.50692850080835 ], [ 17.084349097899093, 52.506965687386632 ] ] ] ] } },
{ "type": "Feature", "properties": { "id": null }, "geometry": { "type": "MultiPolygon", "coordinates": [ [ [ [ 17.004886703023111, 52.449845617229983 ], [ 17.005019470193428, 52.44979893008874 ], [ 17.005067774112206, 52.449755967960698 ], [ 17.005087527755226, 52.449691923086881 ], [ 17.005036267257164, 52.449613804376163 ], [ 17.004945591429795, 52.449568497212255 ], [ 17.004851053240142, 52.44951539942069 ], [ 17.004799677041817, 52.449439853775587 ], [ 17.004722566844663, 52.449374174338381 ], [ 17.004602644153294, 52.449323223085251 ], [ 17.004456289539437, 52.449297576866442 ], [ 17.004394769406854, 52.449353191315517 ], [ 17.004368476575682, 52.449468628253548 ], [ 17.004401144605414, 52.449585060362466 ], [ 17.004427832936258, 52.449647313864922 ], [ 17.00450377978952, 52.449738725127318 ], [ 17.004652020841991, 52.449815905649842 ], [ 17.004886703023111, 52.449845617229983 ] ] ] ] } },
{ "type": "Feature", "properties": { "id": null }, "geometry": { "type": "MultiPolygon", "coordinates": [ [ [ [ 17.015909754944886, 52.453749583766992 ], [ 17.015801170402646, 52.45372716066899 ], [ 17.015775551764388, 52.453734456117125 ], [ 17.015715774909285, 52.453751478807476 ], [ 17.01567964974744, 52.453804950092106 ], [ 17.015680506309167, 52.453879642974421 ], [ 17.015719848890473, 52.453942106125091 ], [ 17.01583921865717, 52.4540059122127 ], [ 17.015936093547104, 52.454007537816096 ], [ 17.015964141738191, 52.453946205563653 ], [ 17.015952846928883, 52.453822410239233 ], [ 17.015909754944886, 52.453749583766992 ] ] ] ] } },
{ "type": "Feature", "properties": { "id": null }, "geometry": { "type": "MultiPolygon", "coordinates": [ [ [ [ 17.003001263650948, 52.460868800437844 ], [ 17.002949897450819, 52.460885958795899 ], [ 17.002931183546899, 52.460926844711409 ], [ 17.002931319485679, 52.461016976323222 ], [ 17.002974979065161, 52.461076941516595 ], [ 17.003070936974712, 52.461099163059352 ], [ 17.003104637741313, 52.46109973218627 ], [ 17.003146277936942, 52.461018031436083 ], [ 17.003094542412299, 52.460950204553697 ], [ 17.003001263650948, 52.460868800437844 ] ] ] ] } },
{ "type": "Feature", "properties": { "id": null }, "geometry": { "type": "MultiPolygon", "coordinates": [ [ [ [ 17.00229031503936, 52.460462797571672 ], [ 17.002292761761925, 52.460408761308507 ], [ 17.002263973139776, 52.460392824192986 ], [ 17.0021561952368, 52.460352376406306 ], [ 17.002021394537604, 52.460350098782762 ], [ 17.001968630227196, 52.46039813457768 ], [ 17.001953195924127, 52.460459676753551 ], [ 17.002022478439542, 52.460512349902153 ], [ 17.002102050558868, 52.460523994882038 ], [ 17.002203850581324, 52.460510264117794 ], [ 17.00229031503936, 52.460462797571672 ] ] ] ] } },
{ "type": "Feature", "properties": { "id": null }, "geometry": { "type": "MultiPolygon", "coordinates": [ [ [ [ 17.024677963355781, 52.456368503595073 ], [ 17.024515415561382, 52.456327161267112 ], [ 17.024452808644806, 52.456313239691227 ], [ 17.024353328905139, 52.456275525951973 ], [ 17.024203303107456, 52.456236967528682 ], [ 17.024126562006405, 52.456256286115675 ], [ 17.024089523056283, 52.456330345558492 ], [ 17.024093684209902, 52.45642569440836 ], [ 17.024159812057032, 52.456455125708189 ], [ 17.024369731156487, 52.456474083976836 ], [ 17.024484958401981, 52.456442532653959 ], [ 17.024677963355781, 52.456368503595073 ] ] ] ] } },
{ "type": "Feature", "properties": { "id": null }, "geometry": { "type": "MultiPolygon", "coordinates": [ [ [ [ 17.024694702453395, 52.461361932000052 ], [ 17.024753714408764, 52.461079655172945 ], [ 17.024573722650221, 52.461050897256037 ], [ 17.024541764240386, 52.461199720006839 ], [ 17.024361080778561, 52.461186400901241 ], [ 17.024303384583419, 52.46134509402993 ], [ 17.024694702453395, 52.461361932000052 ] ] ] ] } },
{ "type": "Feature", "properties": { "id": null }, "geometry": { "type": "MultiPolygon", "coordinates": [ [ [ [ 17.034987012794502, 52.461896504500714 ], [ 17.034869055714484, 52.461894544284327 ], [ 17.034708512620625, 52.461902176623283 ], [ 17.034655208468262, 52.461963093347549 ], [ 17.034614857708821, 52.462111779090684 ], [ 17.034730981329442, 52.462154910847737 ], [ 17.034851002246377, 52.46211055351349 ], [ 17.034940300731623, 52.461998732657122 ], [ 17.034987012794502, 52.461896504500714 ] ] ] ] } },
{ "type": "Feature", "properties": { "id": null }, "geometry": { "type": "MultiPolygon", "coordinates": [ [ [ [ 17.032620231403293, 52.463541273128335 ], [ 17.032507515855059, 52.463516221795267 ], [ 17.032448650001719, 52.463512667243563 ], [ 17.032285150300503, 52.46349192092098 ], [ 17.032208055558382, 52.463518964243427 ], [ 17.032201087944404, 52.46358065095103 ], [ 17.032269952739963, 52.463643599553919 ], [ 17.032403388744019, 52.463676721215514 ], [ 17.032567233464942, 52.463689747778048 ], [ 17.032736209202, 52.463682258591355 ], [ 17.032809549980922, 52.463644852034285 ], [ 17.032810008959611, 52.463634559228382 ], [ 17.032745356306215, 52.46357168101958 ], [ 17.032620231403293, 52.463541273128335 ] ] ] ] } },
{ "type": "Feature", "properties": { "id": null }, "geometry": { "type": "MultiPolygon", "coordinates": [ [ [ [ 17.051657993951885, 52.489543077126079 ], [ 17.051603300540293, 52.48944432266515 ], [ 17.051529698045442, 52.489391608356087 ], [ 17.051319609628997, 52.489372696768051 ], [ 17.051117041973658, 52.489374509468476 ], [ 17.050879840591566, 52.489396351851511 ], [ 17.050666338185827, 52.489454635641053 ], [ 17.050594794092845, 52.489546159890487 ], [ 17.050708501560706, 52.489645887407754 ], [ 17.050818558303874, 52.489637400738616 ], [ 17.051073533070412, 52.489595250581011 ], [ 17.051233037126174, 52.489613329195066 ], [ 17.051350386880408, 52.489630713118991 ], [ 17.051536776494562, 52.489613182951189 ], [ 17.051657993951885, 52.489543077126079 ] ] ] ] } },
{ "type": "Feature", "properties": { "id": null }, "geometry": { "type": "MultiPolygon", "coordinates": [ [ [ [ 17.012484212036323, 52.491147101009155 ], [ 17.012560555026653, 52.491138083372157 ], [ 17.012566104976639, 52.49110856288636 ], [ 17.012536635595499, 52.49106042822315 ], [ 17.012475898331161, 52.49100404282381 ], [ 17.012397428968644, 52.490966672730238 ], [ 17.01226317215983, 52.490950253491768 ], [ 17.012213475616644, 52.490976456952033 ], [ 17.012221286900655, 52.491037103263707 ], [ 17.012274695450948, 52.491068902110115 ], [ 17.012333498878711, 52.49112139245414 ], [ 17.012484212036323, 52.491147101009155 ] ] ] ] } },
{ "type": "Feature", "properties": { "id": null }, "geometry": { "type": "MultiPolygon", "coordinates": [ [ [ [ 17.039581467725164, 52.525656174685679 ], [ 17.039541342054495, 52.525609158343642 ], [ 17.039492091097912, 52.52557744128891 ], [ 17.039290273846952, 52.525558646615501 ], [ 17.03918500939556, 52.525647030150147 ], [ 17.039209956307872, 52.525750446919865 ], [ 17.039243455718058, 52.525851430326199 ], [ 17.03921275490255, 52.525971950497876 ], [ 17.039258681924863, 52.526078290008861 ], [ 17.039363008267721, 52.526105769625104 ], [ 17.039515576514848, 52.526092847149428 ], [ 17.039573860510473, 52.526016560346612 ], [ 17.039511401072346, 52.525902221782914 ], [ 17.03955030954987, 52.52578698769792 ], [ 17.039581467725164, 52.525656174685679 ] ] ] ] } },
{ "type": "Feature", "properties": { "id": null }, "geometry": { "type": "MultiPolygon", "coordinates": [ [ [ [ 17.06724135335314, 52.490787450739937 ], [ 17.067400099847941, 52.490695602549444 ], [ 17.067289243362765, 52.490615773913149 ], [ 17.067123891040541, 52.490551479357492 ], [ 17.066979605171714, 52.49046699796844 ], [ 17.066821155877165, 52.490398709617573 ], [ 17.06625974603357, 52.490315621587392 ], [ 17.066053524179743, 52.490262975879141 ], [ 17.06588709461705, 52.490223299012598 ], [ 17.065735579499062, 52.490226980655457 ], [ 17.06559861819316, 52.490282227322567 ], [ 17.065510991054211, 52.490362917752286 ], [ 17.065573319425884, 52.490398839602783 ], [ 17.065810330698021, 52.490439671100354 ], [ 17.066002718914582, 52.490424339138251 ], [ 17.066221274978577, 52.490425859382881 ], [ 17.066383804529259, 52.490477790542371 ], [ 17.066523828197237, 52.490582733872266 ], [ 17.066636874233417, 52.490689289164848 ], [ 17.066764354931731, 52.490773496303724 ], [ 17.06695413474085, 52.490817659692603 ], [ 17.06724135335314, 52.490787450739937 ] ] ] ] } },
{ "type": "Feature", "properties": { "id": null }, "geometry": { "type": "MultiPolygon", "coordinates": [ [ [ [ 17.073194991304181, 52.49228016865095 ], [ 17.073339342300141, 52.492286626140853 ], [ 17.073450978493181, 52.492272019770965 ], [ 17.073510450220617, 52.492219608182175 ], [ 17.073542853130885, 52.492170861878449 ], [ 17.073599501533735, 52.492106085753079 ], [ 17.073721177468705, 52.492015678493459 ], [ 17.073542638685314, 52.491791037642038 ], [ 17.073434185504318, 52.491809802105131 ], [ 17.073301935192386, 52.491834338103487 ], [ 17.073159870419239, 52.491852554823041 ], [ 17.073018702600113, 52.491850255131951 ], [ 17.07282192062641, 52.491812146727021 ], [ 17.072559441740232, 52.491738065027896 ], [ 17.072440904904621, 52.491756664268586 ], [ 17.072371169682917, 52.491813014239199 ], [ 17.072375199855315, 52.491874672482304 ], [ 17.072448557786167, 52.491966203698411 ], [ 17.072536975766063, 52.492021024734811 ], [ 17.072764319492766, 52.492129436461234 ], [ 17.073194991304181, 52.49228016865095 ] ] ] ] } },
{ "type": "Feature", "properties": { "id": null }, "geometry": { "type": "MultiPolygon", "coordinates": [ [ [ [ 16.960024522547609, 52.554500263304213 ], [ 16.960009148246062, 52.554442176756702 ], [ 16.959987983809953, 52.554411524468591 ], [ 16.959882718516823, 52.554343628178586 ], [ 16.959806879219812, 52.554323046980443 ], [ 16.959746541545979, 52.554357801108978 ], [ 16.959787082824512, 52.554457622650517 ], [ 16.959841037790952, 52.554560428813701 ], [ 16.959944342811379, 52.554573223210774 ], [ 16.960024522547609, 52.554500263304213 ] ] ] ] } },
{ "type": "Feature", "properties": { "id": null }, "geometry": { "type": "MultiPolygon", "coordinates": [ [ [ [ 16.960201926906191, 52.554668525464848 ], [ 16.960253875353821, 52.554619859485001 ], [ 16.960260558807356, 52.554573166761784 ], [ 16.960192980570433, 52.554569248633719 ], [ 16.960055654197397, 52.554608182773315 ], [ 16.960025380690915, 52.554676496123818 ], [ 16.960105989718159, 52.554691652574419 ], [ 16.960201926906191, 52.554668525464848 ] ] ] ] } },
{ "type": "Feature", "properties": { "id": null }, "geometry": { "type": "MultiPolygon", "coordinates": [ [ [ [ 16.956863805642122, 52.553594936983494 ], [ 16.956764761806305, 52.553587720256246 ], [ 16.956638380622518, 52.553585538268742 ], [ 16.956555345574476, 52.553622652305215 ], [ 16.956570331471845, 52.553688992862767 ], [ 16.956649786770264, 52.553728912448641 ], [ 16.956785962688738, 52.553714743070621 ], [ 16.956887307891758, 52.553672438155573 ], [ 16.956863805642122, 52.553594936983494 ] ] ] ] } },
{ "type": "Feature", "properties": { "id": null }, "geometry": { "type": "MultiPolygon", "coordinates": [ [ [ [ 16.95703235224121, 52.55327294440869 ], [ 16.957016087496996, 52.553234115919274 ], [ 16.956909551296949, 52.55319372906623 ], [ 16.956692644075044, 52.553195491120881 ], [ 16.956652444286608, 52.553282906133596 ], [ 16.956758724770221, 52.553328795620274 ], [ 16.95689387673092, 52.553336635716747 ], [ 16.95703235224121, 52.55327294440869 ] ] ] ] } },
{ "type": "Feature", "properties": { "id": null }, "geometry": { "type": "MultiPolygon", "coordinates": [ [ [ [ 17.04772248744931, 52.519931150730521 ], [ 17.047826775980003, 52.51992048129668 ], [ 17.047903027741526, 52.519880438672004 ], [ 17.047941794873335, 52.519820503871678 ], [ 17.047944600713777, 52.519757222361342 ], [ 17.047881456902584, 52.519705242961798 ], [ 17.047764857757599, 52.519688175482727 ], [ 17.047653377142392, 52.519708363020165 ], [ 17.047577186468004, 52.519747029801032 ], [ 17.047542258210893, 52.519822171441632 ], [ 17.047566331213332, 52.51989002657875 ], [ 17.047638374738657, 52.519919437595711 ], [ 17.04772248744931, 52.519931150730521 ] ] ] ] } },
{ "type": "Feature", "properties": { "id": null }, "geometry": { "type": "MultiPolygon", "coordinates": [ [ [ [ 16.972920922500272, 52.514579041409775 ], [ 16.973087575818685, 52.514602362087338 ], [ 16.973232257141497, 52.514592979936573 ], [ 16.973349026375256, 52.514556432492498 ], [ 16.973424156608928, 52.514493014199438 ], [ 16.973463779240969, 52.514416597251092 ], [ 16.973476913692298, 52.514327336181651 ], [ 16.973473782249929, 52.514199248639599 ], [ 16.973453284424679, 52.514105281328213 ], [ 16.973378608116537, 52.514011762625614 ], [ 16.973279674637844, 52.513954999451286 ], [ 16.973168074423665, 52.513928306774382 ], [ 16.973063910483898, 52.513936159118138 ], [ 16.972924278052098, 52.513979198073294 ], [ 16.972835809173674, 52.514038257367432 ], [ 16.972769001472987, 52.514116961700928 ], [ 16.972726743116009, 52.514201593513398 ], [ 16.97269605012163, 52.514329101470807 ], [ 16.972719117910142, 52.51441622941627 ], [ 16.972782835994941, 52.514502677217024 ], [ 16.972920922500272, 52.514579041409775 ] ], [ [ 16.973139351930072, 52.514503278924558 ], [ 16.973032576695857, 52.514469785251627 ], [ 16.972992584661405, 52.51440714815454 ], [ 16.973042722164966, 52.51434743200474 ], [ 16.973143770494246, 52.51430923870425 ], [ 16.973233646594863, 52.514317662013973 ], [ 16.973303901301406, 52.514360166836198 ], [ 16.973326298359545, 52.51441286544847 ], [ 16.973322144086296, 52.514454095540373 ], [ 16.973246025299602, 52.51448996266172 ], [ 16.973139351930072, 52.514503278924558 ] ], [ [ 16.973030952678638, 52.514210936191162 ], [ 16.972976608792269, 52.514165950400546 ], [ 16.972965169678801, 52.514120323014254 ], [ 16.972990694009827, 52.514056055034246 ], [ 16.973071701776309, 52.514012011589898 ], [ 16.973207598435291, 52.514050134274932 ], [ 16.973262955478646, 52.514073109977197 ], [ 16.973301705841205, 52.514113698375148 ], [ 16.973281704599273, 52.514156033697915 ], [ 16.97325150564399, 52.514174790267134 ], [ 16.973144199841617, 52.514201862782059 ], [ 16.973030952678638, 52.514210936191162 ] ] ] ] } },
{ "type": "Feature", "properties": { "id": null }, "geometry": { "type": "MultiPolygon", "coordinates": [ [ [ [ 17.017479066897462, 52.55300857571671 ], [ 17.017718989759622, 52.552896952438033 ], [ 17.017831039520818, 52.552816227673695 ], [ 17.017941352663758, 52.552774021069304 ], [ 17.018027311623761, 52.552670832110699 ], [ 17.017976867711553, 52.552587385871021 ], [ 17.017824642782859, 52.552557302623448 ], [ 17.017688984408608, 52.552560537248404 ], [ 17.017417171425759, 52.552578011248386 ], [ 17.017241185576623, 52.552674184793965 ], [ 17.017163507795523, 52.552794032230857 ], [ 17.017195151175326, 52.552893684140876 ], [ 17.017317069108323, 52.552994848410492 ], [ 17.017479066897462, 52.55300857571671 ] ] ] ] } },
{ "type": "Feature", "properties": { "id": null }, "geometry": { "type": "MultiPolygon", "coordinates": [ [ [ [ 17.021192226900194, 52.5483030384814 ], [ 17.021201122515702, 52.548385921039404 ], [ 17.021239700231348, 52.548440439255621 ], [ 17.021373498671295, 52.548483081200608 ], [ 17.021439296789218, 52.548493801474891 ], [ 17.021544757297313, 52.548464779893777 ], [ 17.02157379347695, 52.548380607450866 ], [ 17.021553359954485, 52.548343709053093 ], [ 17.02148937835528, 52.548292614323046 ], [ 17.021395974576212, 52.548264116161356 ], [ 17.021282263995143, 52.548266063076476 ], [ 17.021192226900194, 52.5483030384814 ] ] ] ] } },
{ "type": "Feature", "properties": { "id": null }, "geometry": { "type": "MultiPolygon", "coordinates": [ [ [ [ 17.021810946543702, 52.548090193341991 ], [ 17.02182053510759, 52.548157695094019 ], [ 17.021935150949922, 52.548205787889245 ], [ 17.022002978524085, 52.548241554320327 ], [ 17.022141874294029, 52.548311217180142 ], [ 17.022282586105241, 52.548340505340626 ], [ 17.022419670429123, 52.54831008741678 ], [ 17.022553773631824, 52.548275771439641 ], [ 17.022673705424182, 52.54827585128897 ], [ 17.022793723654679, 52.548274008419007 ], [ 17.022889202718584, 52.54825636313776 ], [ 17.023019978733224, 52.548225839134055 ], [ 17.023087418902282, 52.548200029129298 ], [ 17.023137145948656, 52.548146986620104 ], [ 17.0230910485935, 52.548119280007505 ], [ 17.023047932263427, 52.548095471257938 ], [ 17.022979153362748, 52.548080853997256 ], [ 17.022850106384677, 52.548072926002874 ], [ 17.022663080722911, 52.548090965748635 ], [ 17.022471690829672, 52.548135868861785 ], [ 17.022347913981985, 52.548151116886849 ], [ 17.022232173857997, 52.548128018251006 ], [ 17.02210978037926, 52.548112504472783 ], [ 17.022004020729497, 52.548078028161356 ], [ 17.021944963057202, 52.548057800648373 ], [ 17.021891521267378, 52.548053059310895 ], [ 17.021810946543702, 52.548090193341991 ] ] ] ] } },
{ "type": "Feature", "properties": { "id": null }, "geometry": { "type": "MultiPolygon", "coordinates": [ [ [ [ 17.097543666580354, 52.497348221262243 ], [ 17.097474009966788, 52.497057045313738 ], [ 17.097305349387408, 52.497100292735929 ], [ 17.097134402802578, 52.497116783318141 ], [ 17.096863310755374, 52.497116270224375 ], [ 17.096469350956195, 52.497186892727662 ], [ 17.096366381447346, 52.497235260620052 ], [ 17.096000918342607, 52.497521832075719 ], [ 17.095957132268641, 52.497659657811994 ], [ 17.096084461714977, 52.497777149344714 ], [ 17.096278287987545, 52.497814901450326 ], [ 17.096403969752618, 52.497824620166703 ], [ 17.096585871306949, 52.497700560953604 ], [ 17.096787504331228, 52.4975575785815 ], [ 17.096974707863936, 52.497456692499831 ], [ 17.097280792416548, 52.497376958729141 ], [ 17.097543666580354, 52.497348221262243 ] ] ] ] } }
]
}
