{
"type": "FeatureCollection",
"name": "kolej_1933",
"crs": { "type": "name", "properties": { "name": "urn:ogc:def:crs:OGC:1.3:CRS84" } },
"features": [
{ "type": "Feature", "properties": { "id": null }, "geometry": { "type": "MultiLineString", "coordinates": [ [ [ 16.982360091391488, 52.440581340354939 ], [ 16.983270826353298, 52.444505861041002 ], [ 16.984037192383759, 52.447582071313683 ], [ 16.984434826710142, 52.45045958103789 ], [ 16.984394086319398, 52.451351660310877 ], [ 16.98398222026627, 52.452414430533082 ], [ 16.983424618786444, 52.453959576205243 ], [ 16.982513051321174, 52.455987399562417 ], [ 16.98229384030088, 52.456510857116264 ], [ 16.981661757015669, 52.459174540909544 ], [ 16.981303508018364, 52.460946275000651 ], [ 16.98086291691423, 52.463139899130006 ], [ 16.980440369556092, 52.465076002844675 ], [ 16.980010121659369, 52.466904224830678 ], [ 16.979644208829825, 52.468152472660179 ], [ 16.979156087373696, 52.469729572287129 ], [ 16.978868372502408, 52.470782897896768 ], [ 16.978710723345142, 52.471472871251578 ], [ 16.978669179435617, 52.472241792034566 ], [ 16.978412957268102, 52.474669445344631 ], [ 16.97824254655853, 52.476736838166481 ], [ 16.97795694337972, 52.479941313313411 ], [ 16.977671292390021, 52.483145785713702 ], [ 16.977266141974091, 52.487579619447914 ], [ 16.977010272062774, 52.490407478424871 ], [ 16.976976383085827, 52.491145742548142 ], [ 16.977162564275403, 52.492033999921226 ], [ 16.977378294135697, 52.492553340375515 ], [ 16.977864152535812, 52.493231224488305 ], [ 16.978498396121918, 52.493973212767649 ], [ 16.979317070813533, 52.494818399933237 ], [ 16.981014695311654, 52.496571355335263 ], [ 16.985130544082462, 52.500874484573949 ], [ 16.987627335478781, 52.50336439829713 ], [ 16.988156543048643, 52.503927530609623 ], [ 16.988546434174516, 52.504503684108563 ], [ 16.988805392782563, 52.505185357841896 ], [ 16.988906490565835, 52.505733510902573 ], [ 16.988880507129679, 52.506302592190067 ], [ 16.988722521129823, 52.507000265564471 ], [ 16.988545293554765, 52.50756677517689 ], [ 16.98799133894547, 52.509339037949509 ], [ 16.988132376238752, 52.509703160517432 ], [ 16.987770849879841, 52.510989982272505 ], [ 16.987272006533946, 52.512520746743519 ], [ 16.986838138893315, 52.513733220295023 ], [ 16.986531491142646, 52.514232106183705 ], [ 16.986092456419975, 52.515694617120147 ], [ 16.985698216275622, 52.517142496488049 ], [ 16.984970706484177, 52.519531337084317 ], [ 16.98442605932269, 52.521369158651886 ], [ 16.984037027014338, 52.522563144668446 ], [ 16.983566261853941, 52.524163637291039 ], [ 16.983100708042237, 52.525787305457101 ], [ 16.982788524390614, 52.526817127886865 ], [ 16.982228963172293, 52.528700861781942 ], [ 16.981769479544099, 52.53018994364345 ], [ 16.98119161814834, 52.532057967677133 ], [ 16.980208259996214, 52.535335174979764 ], [ 16.979923453209437, 52.536315431113316 ], [ 16.979953067975611, 52.536770014425414 ], [ 16.979268735886532, 52.539028718571693 ], [ 16.978628529998137, 52.541149640125546 ], [ 16.978293061778412, 52.541582594355283 ], [ 16.978087494834636, 52.542210172959507 ], [ 16.978013358201711, 52.542724553542918 ], [ 16.978117222791848, 52.543211190553322 ], [ 16.97833708650818, 52.543645935593254 ], [ 16.978768561342456, 52.544145864492272 ], [ 16.979230573312922, 52.544530869799331 ], [ 16.980364824067621, 52.545396817425051 ], [ 16.983679891460476, 52.547985402337275 ], [ 16.986813505434032, 52.550409183659234 ], [ 16.989581278900157, 52.552557297534221 ], [ 16.991265063309026, 52.553840368992738 ], [ 16.99229677165631, 52.554473571275501 ], [ 16.993655499915114, 52.555135397093807 ], [ 16.994812051400373, 52.555524415001287 ], [ 16.996430557062013, 52.556028989325029 ], [ 16.99756998642858, 52.556517740474497 ], [ 16.998521927434037, 52.55696482905045 ], [ 16.99959271723262, 52.557575538500942 ], [ 17.000996559060791, 52.558638242208275 ], [ 17.001240745681503, 52.558811870363371 ] ] ] } },
{ "type": "Feature", "properties": { "id": null }, "geometry": { "type": "MultiLineString", "coordinates": [ [ [ 16.98799133894547, 52.509339037949509 ], [ 16.987681139255734, 52.509623333343832 ], [ 16.987191198683501, 52.51137359234869 ], [ 16.986687583946818, 52.513008172656832 ], [ 16.986485391379919, 52.513843622959072 ], [ 16.986531491142646, 52.514232106183705 ] ] ] } },
{ "type": "Feature", "properties": { "id": null }, "geometry": { "type": "MultiLineString", "coordinates": [ [ [ 16.979923453209437, 52.536315431113316 ], [ 16.979535520716837, 52.536775392020324 ], [ 16.978690525256471, 52.539508515978163 ], [ 16.978215535821466, 52.541055040136506 ], [ 16.978293061778412, 52.541582594355283 ] ] ] } },
{ "type": "Feature", "properties": { "id": null }, "geometry": { "type": "MultiLineString", "coordinates": [ [ [ 16.980010121659369, 52.466904224830678 ], [ 16.979599705591163, 52.467456158098756 ], [ 16.979258960588549, 52.468704834741565 ], [ 16.979141203090389, 52.469162941667363 ], [ 16.979156087373696, 52.469729572287129 ] ] ] } }
]
}
