{
"type": "FeatureCollection",
"name": "nieuzytki_2024",
"crs": { "type": "name", "properties": { "name": "urn:ogc:def:crs:OGC:1.3:CRS84" } },
"features": [
{ "type": "Feature", "properties": { "gml_id": "OT_ADJA_A.20", "lokalnyId": "322BD60C-5C60-598B-E053-CC2BA8C05138", "przestrzen": "PL.PZGiK.308.BDOT10k", "wersjaId": "2022-01-20T00:00:00", "czyObiektB": 0, "x_kod": "ADJA05", "x_skrKarto": null, "x_katDoklG": "Dok", "x_doklGeom": 1, "x_doklGe_1": "m", "x_zrodloDa": "PRG", "x_zrodlo_1": "PRG", "x_katIstni": null, "x_rodzajRe": "ZP", "x_aktualno": "2022-01-20", "x_aktual_1": "2022-01-20", "poczatekWe": "2022-01-20T00:00:00", "x_dataUtwo": "2012-11-13", "x_kodKarto": "0010_505", "x_kodKar_1": "0025_505", "x_kodKar_2": "0050_505", "x_kodKar_3": "0100_505", "x_kodKar_4": null, "x_kodKar_5": null, "x_kodKar_6": null, "nazwa": "Czerwonak", "idPRG": 1030210420, "idTerytJed": 3021, "idTerytTer": 3021042, "rodzaj": "GW", "PRG|BT_Ref": 1030210420, "PRG|BT_R_1": "PL.PZGiK.200", "x_informDo": null }, "geometry": { "type": "MultiPolygon", "coordinates": [ [ [ [ 16.992857102718972, 52.51455865475026 ], [ 16.992755900004973, 52.514589227261766 ], [ 16.992680657677116, 52.514613044726445 ], [ 16.992612172180877, 52.514621236771731 ], [ 16.992551007891549, 52.514620828537332 ], [ 16.992485596448148, 52.514613332650185 ], [ 16.992421417011158, 52.514601450427215 ], [ 16.992320943515907, 52.514548118145143 ], [ 16.992283637533127, 52.514525628905027 ], [ 16.992251668106096, 52.51449603478013 ], [ 16.992231093917713, 52.514484892460182 ], [ 16.992202678449669, 52.514487288393831 ], [ 16.992187373946486, 52.514489906832132 ], [ 16.992172170814115, 52.514506468150977 ], [ 16.992202601093492, 52.514605382213794 ], [ 16.992201349702036, 52.514655459215447 ], [ 16.992181218479541, 52.514689565723472 ], [ 16.992217031220743, 52.514832103526921 ], [ 16.992254957997016, 52.514876549406679 ], [ 16.992307797756823, 52.514901101125496 ], [ 16.99238069119049, 52.514954684933748 ], [ 16.992537946779073, 52.515166021086173 ], [ 16.992644529745391, 52.515250307265859 ], [ 16.992730205278598, 52.51527901364009 ], [ 16.992832574334052, 52.51527787227883 ], [ 16.992963957427214, 52.515261213198819 ], [ 16.993100259675558, 52.515233664378819 ], [ 16.993155369468681, 52.515211663767154 ], [ 16.993233245329353, 52.515152722972054 ], [ 16.993396548689777, 52.514975876791951 ], [ 16.993429727798716, 52.514969244102964 ], [ 16.993621974925585, 52.514978980497006 ], [ 16.993694152590095, 52.514695625036367 ], [ 16.993592435579153, 52.514695429047954 ], [ 16.993618702176335, 52.514225742654268 ], [ 16.993517915065496, 52.514227810938728 ], [ 16.993365772497626, 52.514237462725923 ], [ 16.993342228032802, 52.514310906552289 ], [ 16.993321660269459, 52.514338440007975 ], [ 16.993269121261584, 52.51436552110421 ], [ 16.993193306013588, 52.514405159135642 ], [ 16.993057634962103, 52.514467436741732 ], [ 16.992949188343356, 52.514524329764058 ], [ 16.992857102718972, 52.51455865475026 ] ] ] ] } },
{ "type": "Feature", "properties": { "gml_id": null, "lokalnyId": null, "przestrzen": null, "wersjaId": null, "czyObiektB": null, "x_kod": null, "x_skrKarto": null, "x_katDoklG": null, "x_doklGeom": null, "x_doklGe_1": null, "x_zrodloDa": null, "x_zrodlo_1": null, "x_katIstni": null, "x_rodzajRe": null, "x_aktualno": null, "x_aktual_1": null, "poczatekWe": null, "x_dataUtwo": null, "x_kodKarto": null, "x_kodKar_1": null, "x_kodKar_2": null, "x_kodKar_3": null, "x_kodKar_4": null, "x_kodKar_5": null, "x_kodKar_6": null, "nazwa": null, "idPRG": null, "idTerytJed": null, "idTerytTer": null, "rodzaj": null, "PRG|BT_Ref": null, "PRG|BT_R_1": null, "x_informDo": null }, "geometry": { "type": "MultiPolygon", "coordinates": [ [ [ [ 17.071609172831543, 52.490600004320633 ], [ 17.071795466410006, 52.490514718119492 ], [ 17.071694681482462, 52.490443999511236 ], [ 17.072022256697416, 52.490291850569363 ], [ 17.071985065455269, 52.490262912564312 ], [ 17.071547580696091, 52.489923174456059 ], [ 17.071281049696609, 52.489965619684888 ], [ 17.071221362491716, 52.489916946086346 ], [ 17.070921028176766, 52.490042024673308 ], [ 17.071609172831543, 52.490600004320633 ] ] ] ] } },
{ "type": "Feature", "properties": { "gml_id": null, "lokalnyId": null, "przestrzen": null, "wersjaId": null, "czyObiektB": null, "x_kod": null, "x_skrKarto": null, "x_katDoklG": null, "x_doklGeom": null, "x_doklGe_1": null, "x_zrodloDa": null, "x_zrodlo_1": null, "x_katIstni": null, "x_rodzajRe": null, "x_aktualno": null, "x_aktual_1": null, "poczatekWe": null, "x_dataUtwo": null, "x_kodKarto": null, "x_kodKar_1": null, "x_kodKar_2": null, "x_kodKar_3": null, "x_kodKar_4": null, "x_kodKar_5": null, "x_kodKar_6": null, "nazwa": null, "idPRG": null, "idTerytJed": null, "idTerytTer": null, "rodzaj": null, "PRG|BT_Ref": null, "PRG|BT_R_1": null, "x_informDo": null }, "geometry": { "type": "MultiPolygon", "coordinates": [ [ [ [ 17.068941770398393, 52.49609089946722 ], [ 17.069306147070055, 52.49599673174896 ], [ 17.069408604730175, 52.495885615571289 ], [ 17.069464582407694, 52.495792750023661 ], [ 17.06944384512089, 52.495697365145048 ], [ 17.069389987507069, 52.495647061991228 ], [ 17.069144021608121, 52.495621503419727 ], [ 17.068737290712914, 52.495676166393672 ], [ 17.068877845990222, 52.495999644575427 ], [ 17.068903091039768, 52.49605240304659 ], [ 17.068941770398393, 52.49609089946722 ] ] ] ] } },
{ "type": "Feature", "properties": { "gml_id": null, "lokalnyId": null, "przestrzen": null, "wersjaId": null, "czyObiektB": null, "x_kod": null, "x_skrKarto": null, "x_katDoklG": null, "x_doklGeom": null, "x_doklGe_1": null, "x_zrodloDa": null, "x_zrodlo_1": null, "x_katIstni": null, "x_rodzajRe": null, "x_aktualno": null, "x_aktual_1": null, "poczatekWe": null, "x_dataUtwo": null, "x_kodKarto": null, "x_kodKar_1": null, "x_kodKar_2": null, "x_kodKar_3": null, "x_kodKar_4": null, "x_kodKar_5": null, "x_kodKar_6": null, "nazwa": null, "idPRG": null, "idTerytJed": null, "idTerytTer": null, "rodzaj": null, "PRG|BT_Ref": null, "PRG|BT_R_1": null, "x_informDo": null }, "geometry": { "type": "MultiPolygon", "coordinates": [ [ [ [ 17.012516970167685, 52.521306171054874 ], [ 17.012490699625616, 52.521358120846585 ], [ 17.013387429855054, 52.521536661814103 ], [ 17.013721293452299, 52.521608005706874 ], [ 17.013901771449, 52.521356408001026 ], [ 17.013838412028118, 52.521133186216659 ], [ 17.013627570871652, 52.521012001704129 ], [ 17.013271363747442, 52.520932897498888 ], [ 17.012945076674118, 52.520867156505965 ], [ 17.012834672438405, 52.520856577812324 ], [ 17.012516970167685, 52.521306171054874 ] ] ] ] } },
{ "type": "Feature", "properties": { "gml_id": null, "lokalnyId": null, "przestrzen": null, "wersjaId": null, "czyObiektB": null, "x_kod": null, "x_skrKarto": null, "x_katDoklG": null, "x_doklGeom": null, "x_doklGe_1": null, "x_zrodloDa": null, "x_zrodlo_1": null, "x_katIstni": null, "x_rodzajRe": null, "x_aktualno": null, "x_aktual_1": null, "poczatekWe": null, "x_dataUtwo": null, "x_kodKarto": null, "x_kodKar_1": null, "x_kodKar_2": null, "x_kodKar_3": null, "x_kodKar_4": null, "x_kodKar_5": null, "x_kodKar_6": null, "nazwa": null, "idPRG": null, "idTerytJed": null, "idTerytTer": null, "rodzaj": null, "PRG|BT_Ref": null, "PRG|BT_R_1": null, "x_informDo": null }, "geometry": { "type": "MultiPolygon", "coordinates": [ [ [ [ 17.028740278794196, 52.457987483304059 ], [ 17.028765383914124, 52.458002292745896 ], [ 17.02908429429916, 52.457804696899252 ], [ 17.029008048050564, 52.457761332561027 ], [ 17.028846809329867, 52.457596836924374 ], [ 17.028787908885576, 52.45749808673434 ], [ 17.02872563998864, 52.457382460970386 ], [ 17.028645848125294, 52.457283362414344 ], [ 17.028611855899374, 52.457177472159948 ], [ 17.028785966837908, 52.456826358259555 ], [ 17.02789733052996, 52.456863798612424 ], [ 17.027577984131025, 52.457631623252603 ], [ 17.027889885597908, 52.45763043967505 ], [ 17.028048260221311, 52.457638207750584 ], [ 17.028135131909227, 52.457651349094014 ], [ 17.028207215632293, 52.457672518554027 ], [ 17.028740278794196, 52.457987483304059 ] ] ] ] } },
{ "type": "Feature", "properties": { "gml_id": null, "lokalnyId": null, "przestrzen": null, "wersjaId": null, "czyObiektB": null, "x_kod": null, "x_skrKarto": null, "x_katDoklG": null, "x_doklGeom": null, "x_doklGe_1": null, "x_zrodloDa": null, "x_zrodlo_1": null, "x_katIstni": null, "x_rodzajRe": null, "x_aktualno": null, "x_aktual_1": null, "poczatekWe": null, "x_dataUtwo": null, "x_kodKarto": null, "x_kodKar_1": null, "x_kodKar_2": null, "x_kodKar_3": null, "x_kodKar_4": null, "x_kodKar_5": null, "x_kodKar_6": null, "nazwa": null, "idPRG": null, "idTerytJed": null, "idTerytTer": null, "rodzaj": null, "PRG|BT_Ref": null, "PRG|BT_R_1": null, "x_informDo": null }, "geometry": { "type": "MultiPolygon", "coordinates": [ [ [ [ 16.98982866596489, 52.541906071260129 ], [ 16.989867337462289, 52.541831356223724 ], [ 16.989921892260718, 52.541783533994966 ], [ 16.989811046519481, 52.541758985557799 ], [ 16.98957141361057, 52.541647343245671 ], [ 16.989517632518165, 52.541552349523869 ], [ 16.989379816104289, 52.541056042906575 ], [ 16.989600281596246, 52.541031816420379 ], [ 16.989816893849806, 52.54100797378279 ], [ 16.990023867212933, 52.540985226227463 ], [ 16.989946993837094, 52.540698262593061 ], [ 16.989928784108049, 52.540648035102521 ], [ 16.989577030092232, 52.540704569757139 ], [ 16.989386159244624, 52.540742970316096 ], [ 16.989326044413311, 52.540738171309208 ], [ 16.989295322943018, 52.540713184900689 ], [ 16.989249410181408, 52.540610679599574 ], [ 16.989214856209738, 52.540504949468406 ], [ 16.989001632363525, 52.540554752064075 ], [ 16.988877863175432, 52.540587096700463 ], [ 16.988812132461341, 52.540624475046677 ], [ 16.988813080026834, 52.540665055299108 ], [ 16.988989053095107, 52.541036451136229 ], [ 16.989200313261279, 52.541562158291846 ], [ 16.989142025028297, 52.541601282256302 ], [ 16.989290002090996, 52.541884957443244 ], [ 16.989600224493259, 52.541840040160892 ], [ 16.98982866596489, 52.541906071260129 ] ] ] ] } },
{ "type": "Feature", "properties": { "gml_id": null, "lokalnyId": null, "przestrzen": null, "wersjaId": null, "czyObiektB": null, "x_kod": null, "x_skrKarto": null, "x_katDoklG": null, "x_doklGeom": null, "x_doklGe_1": null, "x_zrodloDa": null, "x_zrodlo_1": null, "x_katIstni": null, "x_rodzajRe": null, "x_aktualno": null, "x_aktual_1": null, "poczatekWe": null, "x_dataUtwo": null, "x_kodKarto": null, "x_kodKar_1": null, "x_kodKar_2": null, "x_kodKar_3": null, "x_kodKar_4": null, "x_kodKar_5": null, "x_kodKar_6": null, "nazwa": null, "idPRG": null, "idTerytJed": null, "idTerytTer": null, "rodzaj": null, "PRG|BT_Ref": null, "PRG|BT_R_1": null, "x_informDo": null }, "geometry": { "type": "MultiPolygon", "coordinates": [ [ [ [ 16.980905329185688, 52.53697846149327 ], [ 16.981216709188114, 52.537017053054626 ], [ 16.981868361168026, 52.537088250577945 ], [ 16.982003684356638, 52.537119884728305 ], [ 16.982245317230376, 52.536987137371987 ], [ 16.981700668552552, 52.536238938456165 ], [ 16.980745501630128, 52.536581694616565 ], [ 16.980905329185688, 52.53697846149327 ] ] ] ] } }
]
}
