{
"type": "FeatureCollection",
"name": "nieuzytki_1933",
"crs": { "type": "name", "properties": { "name": "urn:ogc:def:crs:OGC:1.3:CRS84" } },
"features": [
{ "type": "Feature", "properties": { "id": null }, "geometry": { "type": "MultiPolygon", "coordinates": [ [ [ [ 16.999504592505087, 52.440182774733721 ], [ 17.000014284660779, 52.440055892086846 ], [ 17.00315846983046, 52.439464248400796 ], [ 17.002878276342635, 52.439461417115815 ], [ 17.002745848871395, 52.439460709007484 ], [ 17.001253212232264, 52.439440429904245 ], [ 17.000793563341858, 52.439417997047855 ], [ 17.00065216405272, 52.439410658914895 ], [ 16.999781235996, 52.439366964883533 ], [ 16.999273706505715, 52.439368360623675 ], [ 16.998636783613239, 52.439372984223077 ], [ 16.998912532050152, 52.439654709733972 ], [ 16.999187662240672, 52.43995912258395 ], [ 16.999504592505087, 52.440182774733721 ] ] ] ] } },
{ "type": "Feature", "properties": { "id": null }, "geometry": { "type": "MultiPolygon", "coordinates": [ [ [ [ 16.984291462525828, 52.458199408592563 ], [ 16.984538676040799, 52.45821463637607 ], [ 16.984803422598453, 52.458142052526824 ], [ 16.984921298064435, 52.458028417124581 ], [ 16.985006031499221, 52.457850887819106 ], [ 16.984951269637889, 52.457668227861518 ], [ 16.984774778356989, 52.45748624670577 ], [ 16.984482194073458, 52.45728025895103 ], [ 16.984291462525828, 52.458199408592563 ] ] ] ] } },
{ "type": "Feature", "properties": { "id": null }, "geometry": { "type": "MultiPolygon", "coordinates": [ [ [ [ 16.973893422155665, 52.513600340242384 ], [ 16.974094295202484, 52.513452342325039 ], [ 16.974191147451211, 52.513407192745895 ], [ 16.973866254841241, 52.513308012721097 ], [ 16.973559908242422, 52.513198135799961 ], [ 16.973368326867732, 52.513046169461717 ], [ 16.973318693587604, 52.512849826527287 ], [ 16.973527396033486, 52.512825867496403 ], [ 16.973552144205502, 52.512680360272583 ], [ 16.973554724753097, 52.512526213074203 ], [ 16.973518641061304, 52.51244457123687 ], [ 16.973197565222023, 52.512466402991137 ], [ 16.973098002224592, 52.512423395931322 ], [ 16.973086370380141, 52.512136841145526 ], [ 16.973077123008913, 52.512092628014344 ], [ 16.973229074535396, 52.51207595743606 ], [ 16.97332103532742, 52.512038985028923 ], [ 16.973326557680647, 52.512017052288421 ], [ 16.973277967255353, 52.511994192514969 ], [ 16.973203004667052, 52.511980517870661 ], [ 16.972349209034373, 52.511998928277329 ], [ 16.972032595029454, 52.511426296925706 ], [ 16.971969169899722, 52.511419358637383 ], [ 16.971914834473822, 52.511545772790392 ], [ 16.971765921272958, 52.511741466001325 ], [ 16.971876177315238, 52.512078929169498 ], [ 16.972223654734293, 52.512079378823792 ], [ 16.972192417545397, 52.512169706210955 ], [ 16.972427540403462, 52.512159969096302 ], [ 16.972663198169194, 52.513314936588522 ], [ 16.972557984170432, 52.513541667212557 ], [ 16.972544240616287, 52.513674684432324 ], [ 16.972835759406458, 52.513684313788112 ], [ 16.972864127271176, 52.513557927033396 ], [ 16.972903243376933, 52.513492515253226 ], [ 16.973078658799341, 52.513407411436908 ], [ 16.973310038340873, 52.513381087883083 ], [ 16.973404689890199, 52.51348183237603 ], [ 16.973446191382052, 52.513658762028285 ], [ 16.973481206362923, 52.513780512198728 ], [ 16.9731936063001, 52.513753558001881 ], [ 16.973168074423665, 52.513928306774382 ], [ 16.973279674637844, 52.513954999451286 ], [ 16.973378608116537, 52.514011762625614 ], [ 16.973453284424679, 52.514105281328213 ], [ 16.973473782249929, 52.514199248639599 ], [ 16.973475506439524, 52.514269774394457 ], [ 16.973582429816954, 52.51427786119504 ], [ 16.973607860178252, 52.51401947556424 ], [ 16.97371256359348, 52.513803748976322 ], [ 16.973893422155665, 52.513600340242384 ] ] ] ] } }
]
}
