{
"type": "FeatureCollection",
"name": "przemysl_2024",
"crs": { "type": "name", "properties": { "name": "urn:ogc:def:crs:OGC:1.3:CRS84" } },
"features": [
{ "type": "Feature", "properties": { "gml_id": "OT_ADJA_A.20", "lokalnyId": "322BD60C-5C60-598B-E053-CC2BA8C05138", "przestrzen": "PL.PZGiK.308.BDOT10k", "wersjaId": "2022-01-20T00:00:00", "czyObiektB": 0, "x_kod": "ADJA05", "x_skrKarto": null, "x_katDoklG": "Dok", "x_doklGeom": 1, "x_doklGe_1": "m", "x_zrodloDa": "PRG", "x_zrodlo_1": "PRG", "x_katIstni": null, "x_rodzajRe": "ZP", "x_aktualno": "2022-01-20", "x_aktual_1": "2022-01-20", "poczatekWe": "2022-01-20T00:00:00", "x_dataUtwo": "2012-11-13", "x_kodKarto": "0010_505", "x_kodKar_1": "0025_505", "x_kodKar_2": "0050_505", "x_kodKar_3": "0100_505", "x_kodKar_4": null, "x_kodKar_5": null, "x_kodKar_6": null, "nazwa": "Czerwonak", "idPRG": 1030210420, "idTerytJed": 3021, "idTerytTer": 3021042, "rodzaj": "GW", "PRG|BT_Ref": 1030210420, "PRG|BT_R_1": "PL.PZGiK.200", "x_informDo": null }, "geometry": { "type": "MultiPolygon", "coordinates": [ [ [ [ 16.978647795627047, 52.44815834039602 ], [ 16.978631243737578, 52.448391192423216 ], [ 16.978587394783226, 52.449011146681073 ], [ 16.978539414312909, 52.449689134089411 ], [ 16.978511200365354, 52.45007694013561 ], [ 16.978500477862685, 52.450224265031615 ], [ 16.978469491330653, 52.450688655953407 ], [ 16.978300501554155, 52.452976550722944 ], [ 16.978181392634262, 52.45461554223008 ], [ 16.97889629689454, 52.454924939455331 ], [ 16.979038425029714, 52.454991318983616 ], [ 16.979363104187758, 52.45513196384384 ], [ 16.97957323696463, 52.455227657314886 ], [ 16.979762289961386, 52.455330365641188 ], [ 16.980053356590105, 52.45548815321375 ], [ 16.980499163149748, 52.455732860535299 ], [ 16.980879698363641, 52.455936876219191 ], [ 16.981110235640791, 52.456072670544323 ], [ 16.98175239565148, 52.45612572709679 ], [ 16.982128288176455, 52.455053445255857 ], [ 16.983051460642368, 52.452433659613504 ], [ 16.983145310751077, 52.451468902745162 ], [ 16.98322609411667, 52.45037440349352 ], [ 16.983222670432831, 52.45019481692988 ], [ 16.982711306713043, 52.449929483039476 ], [ 16.982721825334554, 52.449789529781548 ], [ 16.982732503139253, 52.44970084730771 ], [ 16.983012065779398, 52.44970390787438 ], [ 16.983072710604905, 52.44921438793881 ], [ 16.983252495800649, 52.449049169555721 ], [ 16.98322690474777, 52.448159456780395 ], [ 16.983224577205252, 52.447849559995554 ], [ 16.983220016896865, 52.447243799264484 ], [ 16.982901247458994, 52.445286845666544 ], [ 16.982676909549902, 52.445267727525902 ], [ 16.98247873374148, 52.444689063740412 ], [ 16.981869894424101, 52.442977020527358 ], [ 16.981555922040943, 52.442104959230214 ], [ 16.98138147008245, 52.441613224403 ], [ 16.981248854181782, 52.441017778517441 ], [ 16.981399957157869, 52.440748547476439 ], [ 16.981071918905126, 52.440805816882119 ], [ 16.981001898955427, 52.440817842899897 ], [ 16.980980368685376, 52.440821972413787 ], [ 16.980863072476161, 52.440841106038519 ], [ 16.980488810894872, 52.440902122211767 ], [ 16.98053891239617, 52.441032367022828 ], [ 16.980414454330525, 52.4410503884843 ], [ 16.979425300425554, 52.441187291334828 ], [ 16.978845466344207, 52.441140772619988 ], [ 16.978286819363284, 52.441216577653336 ], [ 16.978197385651196, 52.441443596348968 ], [ 16.978059887484012, 52.441431350988253 ], [ 16.97727285512595, 52.441361493028708 ], [ 16.976636064169863, 52.441472050584146 ], [ 16.976580926091739, 52.441618765556562 ], [ 16.976632630407387, 52.441736667848879 ], [ 16.977234025943122, 52.441743181357268 ], [ 16.977201254793052, 52.442146829740018 ], [ 16.977172235595916, 52.442487851209883 ], [ 16.97701341627106, 52.443213861272831 ], [ 16.976454698300468, 52.446312229427519 ], [ 16.976957701507619, 52.446376063169829 ], [ 16.977033469863336, 52.446402633926979 ], [ 16.977505639712625, 52.44643265842587 ], [ 16.977802858521045, 52.446451503884198 ], [ 16.977798082907757, 52.447741400338749 ], [ 16.977799800184837, 52.447877425160193 ], [ 16.977800076683163, 52.447974209718055 ], [ 16.977797599704289, 52.44812788178001 ], [ 16.978647795627047, 52.44815834039602 ] ], [ [ 16.982537078266311, 52.447937578615047 ], [ 16.982719381066431, 52.44794266800394 ], [ 16.982716001825708, 52.448045596235836 ], [ 16.982530666396425, 52.448042433865012 ], [ 16.982537078266311, 52.447937578615047 ] ], [ [ 16.979176345601502, 52.454587969134856 ], [ 16.97912103846808, 52.454582768497097 ], [ 16.979067239429511, 52.454573405353557 ], [ 16.979015796942271, 52.454560027369318 ], [ 16.978967522296035, 52.454542845526888 ], [ 16.978923176818427, 52.45452213079853 ], [ 16.978923176818427, 52.45452213079853 ], [ 16.978883459867973, 52.454498209872703 ], [ 16.978848997804551, 52.454471460001592 ], [ 16.978820334111337, 52.454442303051401 ], [ 16.978820334111337, 52.454442303051401 ], [ 16.978797920824, 52.454411198848909 ], [ 16.978782111402332, 52.454378637929437 ], [ 16.978773155156684, 52.4543451338007 ], [ 16.978771193317034, 52.454311214844211 ], [ 16.97877625680669, 52.454277415982347 ], [ 16.978788265755611, 52.45424427024232 ], [ 16.97880703076099, 52.454212300350029 ], [ 16.97880703076099, 52.454212300350029 ], [ 16.978832255875183, 52.454182010486548 ], [ 16.978863543273729, 52.454153878337053 ], [ 16.978900399529881, 52.454128347557727 ], [ 16.978942243396595, 52.454105820779326 ], [ 16.97898841497328, 52.454086653257718 ], [ 16.97898841497328, 52.454086653257718 ], [ 16.979038186112646, 52.454071147271662 ], [ 16.979090771903699, 52.454059547355904 ], [ 16.979145343049595, 52.454052036444992 ], [ 16.979145343049595, 52.454052036444992 ], [ 16.979201038945401, 52.454048732988525 ], [ 16.979256981249417, 52.45404968908317 ], [ 16.979312287734142, 52.454054889651175 ], [ 16.979366086198546, 52.454064252678123 ], [ 16.979417528222211, 52.454077630506234 ], [ 16.979417528222211, 52.454077630506234 ], [ 16.97946580254461, 52.454094812162822 ], [ 16.979510147858456, 52.454115526687303 ], [ 16.979549864815514, 52.454139447404032 ], [ 16.979584327055491, 52.454166197073938 ], [ 16.979612991084121, 52.454195353843495 ], [ 16.979635404844657, 52.454226457897235 ], [ 16.979651214847571, 52.454259018709202 ], [ 16.979651214847571, 52.454259018709202 ], [ 16.979660171745998, 52.454292522778452 ], [ 16.979662134268931, 52.45432644172719 ], [ 16.979657071450141, 52.454360240633527 ], [ 16.979645063117513, 52.454393386467459 ], [ 16.979626298635125, 52.454425356497204 ], [ 16.979601073917767, 52.454455646533013 ], [ 16.979569786764962, 52.454483778878917 ], [ 16.979532930588011, 52.454509309866374 ], [ 16.979491086628986, 52.454531836851551 ], [ 16.979491086628986, 52.454531836851551 ], [ 16.979395143247398, 52.454566510717662 ], [ 16.979342556924934, 52.454578110762569 ], [ 16.979287985157125, 52.454585621757623 ], [ 16.979232288587976, 52.454588925247997 ], [ 16.979232288587976, 52.454588925247997 ], [ 16.979176345601502, 52.454587969134856 ] ], [ [ 16.980315216587545, 52.454625442317059 ], [ 16.980259501960049, 52.454620203824931 ], [ 16.98020530643133, 52.45461077206857 ], [ 16.980153484710954, 52.454597295795217 ], [ 16.980153484710954, 52.454597295795217 ], [ 16.980104854069488, 52.454579987537429 ], [ 16.980104854069488, 52.454579987537429 ], [ 16.980060181448927, 52.45455912026128 ], [ 16.980020171367094, 52.454535023061013 ], [ 16.979985454806723, 52.454508075968839 ], [ 16.979985454806723, 52.454508075968839 ], [ 16.979956579264496, 52.454478703961357 ], [ 16.979934000116955, 52.454447370256958 ], [ 16.979918073439439, 52.454414569010417 ], [ 16.979909050391299, 52.454380817519578 ], [ 16.979907073255792, 52.454346648067009 ], [ 16.979912173197214, 52.454312599525601 ], [ 16.979912173197214, 52.454312599525601 ], [ 16.979924269770429, 52.454279208860108 ], [ 16.979943172190524, 52.454247002659045 ], [ 16.979943172190524, 52.454247002659045 ], [ 16.979968582342558, 52.454216488830149 ], [ 16.980000099483775, 52.454188148590632 ], [ 16.980037226564168, 52.454162428878277 ], [ 16.9800793780656, 52.454139735303379 ], [ 16.980125889235925, 52.454120425752215 ], [ 16.980125889235925, 52.454120425752215 ], [ 16.980176026572359, 52.454104804743338 ], [ 16.980228999388888, 52.45409311862543 ], [ 16.980283972285246, 52.454085551692501 ], [ 16.980283972285246, 52.454085551692501 ], [ 16.980340078320857, 52.454082223277553 ], [ 16.980396432686113, 52.454083185870871 ], [ 16.980396432686113, 52.454083185870871 ], [ 16.980452146655299, 52.454088424292252 ], [ 16.980506341601334, 52.454097855930293 ], [ 16.980506341601334, 52.454097855930293 ], [ 16.980606793164064, 52.454128640114426 ], [ 16.980606793164064, 52.454128640114426 ], [ 16.980651465618411, 52.454149507183708 ], [ 16.980691475706919, 52.454173604171771 ], [ 16.980726192446433, 52.454200551059756 ], [ 16.980755068329014, 52.454229922883933 ], [ 16.980755068329014, 52.454229922883933 ], [ 16.980777647956735, 52.454261256437377 ], [ 16.980793575224087, 52.454294057574828 ], [ 16.980802598934662, 52.454327809005299 ], [ 16.980804576763571, 52.454361978449974 ], [ 16.980804576763571, 52.454361978449974 ], [ 16.980799477502952, 52.454396027036502 ], [ 16.980787381555171, 52.454429417797279 ], [ 16.980768479665826, 52.454461624137807 ], [ 16.980743069916524, 52.454492138141582 ], [ 16.980743069916524, 52.454492138141582 ], [ 16.980711553024712, 52.454520478580399 ], [ 16.980674426024727, 52.454546198503962 ], [ 16.980632274429642, 52.454568892288712 ], [ 16.980585762997507, 52.454588202035147 ], [ 16.980535625247541, 52.454603823212508 ], [ 16.980482651891748, 52.454615509461455 ], [ 16.980427678364283, 52.454623076479798 ], [ 16.980371571645364, 52.454626404929165 ], [ 16.980371571645364, 52.454626404929165 ], [ 16.980315216587545, 52.454625442317059 ] ], [ [ 16.981497364632904, 52.454667668345316 ], [ 16.981497364632904, 52.454667668345316 ], [ 16.981441009483337, 52.454666706269052 ], [ 16.981385293219361, 52.454661499708948 ], [ 16.981331094535118, 52.45465213077722 ], [ 16.981279268189855, 52.454638747230312 ], [ 16.981279268189855, 52.454638747230312 ], [ 16.981230631526973, 52.454621560138484 ], [ 16.981185951583392, 52.454600840556857 ], [ 16.981145932992387, 52.454576915250499 ], [ 16.981145932992387, 52.454576915250499 ], [ 16.981111206870889, 52.454550161540745 ], [ 16.981082320866395, 52.454521001354429 ], [ 16.981059730520499, 52.454489894569406 ], [ 16.981059730520499, 52.454489894569406 ], [ 16.981043792085242, 52.454457331761795 ], [ 16.98103475690548, 52.454423826469124 ], [ 16.981032767455932, 52.454389907091276 ], [ 16.981037855095206, 52.454356108557299 ], [ 16.98104993957228, 52.454322963889211 ], [ 16.981068830293129, 52.454290995795979 ], [ 16.981094229327407, 52.454260708430276 ], [ 16.981125736107753, 52.454232579437779 ], [ 16.981162853747598, 52.454207052424877 ], [ 16.981204996877715, 52.454184529962816 ], [ 16.981251500877946, 52.454165367239334 ], [ 16.981301632358548, 52.454149866457435 ], [ 16.981354600725783, 52.454138272069748 ], [ 16.981409570649454, 52.454130766923612 ], [ 16.981465675235768, 52.454127469377624 ], [ 16.981522029697846, 52.454128431435272 ], [ 16.981577745308329, 52.454133637924762 ], [ 16.98163194341414, 52.454143006738278 ], [ 16.98163194341414, 52.454143006738278 ], [ 16.981683769292385, 52.454156390126862 ], [ 16.981732405628993, 52.454173577030168 ], [ 16.981777085407554, 52.454194296404935 ], [ 16.981817104005163, 52.454218221499083 ], [ 16.981817104005163, 52.454218221499083 ], [ 16.981851830304468, 52.454244975004599 ], [ 16.981880716646803, 52.454274135007509 ], [ 16.981903307469342, 52.454305241641471 ], [ 16.981903307469342, 52.454305241641471 ], [ 16.981919246490104, 52.454337804339843 ], [ 16.981928282327431, 52.454371309571975 ], [ 16.981930272465299, 52.454405228941795 ], [ 16.981925185501851, 52.454439027520749 ], [ 16.981925185501851, 52.454439027520749 ], [ 16.98189421145166, 52.45450414051659 ], [ 16.98189421145166, 52.45450414051659 ], [ 16.981868812817186, 52.45453442805713 ], [ 16.981837306284437, 52.454562557248856 ], [ 16.981800188724428, 52.454588084472981 ], [ 16.981758045501376, 52.454610607144922 ], [ 16.981711541241271, 52.454629770063761 ], [ 16.981661409350188, 52.454645271014229 ], [ 16.981608440447658, 52.454656865533082 ], [ 16.981553469897509, 52.454664370764789 ], [ 16.981497364632904, 52.454667668345316 ] ], [ [ 16.97928589018095, 52.453932968106805 ], [ 16.979228713937786, 52.453931990935871 ], [ 16.979172181818349, 52.453926800949404 ], [ 16.979117185383419, 52.453917479998246 ], [ 16.97906459197333, 52.453904175082265 ], [ 16.979015231028647, 52.453887096031764 ], [ 16.97896988100868, 52.453866512198104 ], [ 16.97896988100868, 52.453866512198104 ], [ 16.978894000008271, 52.453816178831971 ], [ 16.978894000008271, 52.453816178831971 ], [ 16.978864665712159, 52.453787223096825 ], [ 16.97884171683728, 52.45375633765395 ], [ 16.978825515289795, 52.453724009588868 ], [ 16.978816316563915, 52.453690748737145 ], [ 16.97881426571346, 52.453657079643754 ], [ 16.978819395065255, 52.453623533290624 ], [ 16.978831623710345, 52.453590638722702 ], [ 16.978850758780975, 52.453558914704665 ], [ 16.978908436906828, 52.453500953180438 ], [ 16.97894607032821, 52.453475629753044 ], [ 16.97894607032821, 52.453475629753044 ], [ 16.978988805253895, 52.453453290618171 ], [ 16.979086813984594, 52.45341892179195 ], [ 16.979086813984594, 52.45341892179195 ], [ 16.979140542149267, 52.453407434108698 ], [ 16.979196304912229, 52.453400006186904 ], [ 16.979253222876245, 52.453396755167248 ], [ 16.979310398427096, 52.453397732319402 ], [ 16.979366929888478, 52.453402922233565 ], [ 16.979421925740969, 52.453412243063354 ], [ 16.979474518680814, 52.453425547816579 ], [ 16.979523879297009, 52.453442626673187 ], [ 16.979569229150876, 52.45346321029394 ], [ 16.97960985305204, 52.453486974067857 ], [ 16.979645110337149, 52.453513543231189 ], [ 16.979674444973547, 52.453542498777296 ], [ 16.979697394328483, 52.45357338406437 ], [ 16.979697394328483, 52.45357338406437 ], [ 16.979722795853718, 52.453638972805663 ], [ 16.979722795853718, 52.453638972805663 ], [ 16.979724847397328, 52.453672641890378 ], [ 16.979719718726084, 52.453706188289424 ], [ 16.979707490706176, 52.453739082954975 ], [ 16.979688356166072, 52.4537708071162 ], [ 16.979630678692015, 52.453828769025193 ], [ 16.979593045350949, 52.453854092669985 ], [ 16.979550310331593, 52.453876432021005 ], [ 16.979503147592929, 52.453895434768263 ], [ 16.97945230092569, 52.453910801222321 ], [ 16.979398572221911, 52.453922289040946 ], [ 16.979342808828036, 52.45392971705121 ], [ 16.97928589018095, 52.453932968106805 ] ], [ [ 16.980421378250934, 52.453972384364441 ], [ 16.980364612047765, 52.453971414747365 ], [ 16.980308489507589, 52.453966169304472 ], [ 16.980308489507589, 52.453966169304472 ], [ 16.980253895732002, 52.453956730761249 ], [ 16.980201691711265, 52.453943247971978 ], [ 16.980152700745123, 52.453925933572066 ], [ 16.980107695458162, 52.453905060624457 ], [ 16.980067385614589, 52.453880958312922 ], [ 16.980032406924554, 52.453854006750404 ], [ 16.980032406924554, 52.453854006750404 ], [ 16.980003311018649, 52.453824630984023 ], [ 16.979980556748625, 52.453793294291515 ], [ 16.979964502951528, 52.453760490874863 ], [ 16.979955402791354, 52.453726738066159 ], [ 16.979953399767354, 52.453692568168805 ], [ 16.979958525451984, 52.45365852006266 ], [ 16.979970698993995, 52.453625130705646 ], [ 16.979989728394536, 52.453592926665578 ], [ 16.980015313536011, 52.453562415816101 ], [ 16.980047050915907, 52.453534079327355 ], [ 16.980084440010881, 52.453508364077926 ], [ 16.980126891170659, 52.453485675607617 ], [ 16.980173734917312, 52.453466371722179 ], [ 16.980224232503183, 52.453450756850721 ], [ 16.980277587560973, 52.453439077245065 ], [ 16.980332958662331, 52.453431517096462 ], [ 16.980389472586868, 52.453428195630906 ], [ 16.980446238092437, 52.453429165229075 ], [ 16.980502359969517, 52.453434410600302 ], [ 16.980556953158185, 52.453443849023579 ], [ 16.980609156705047, 52.45345733165221 ], [ 16.980658147340147, 52.45347464586083 ], [ 16.980703152459686, 52.45349551859853 ], [ 16.980703152459686, 52.45349551859853 ], [ 16.980743462309981, 52.453519620694735 ], [ 16.980778441180465, 52.45354657205003 ], [ 16.980807537429204, 52.453575947630327 ], [ 16.980830292182901, 52.453607284169564 ], [ 16.980846346574126, 52.453640087475392 ], [ 16.980846346574126, 52.453640087475392 ], [ 16.980855447401556, 52.453673840222692 ], [ 16.980857451124002, 52.453708010111924 ], [ 16.980852326125127, 52.453742058263714 ], [ 16.980852326125127, 52.453742058263714 ], [ 16.980821124347166, 52.453807651898764 ], [ 16.980795539611346, 52.453838162925614 ], [ 16.980763802482663, 52.453866499616552 ], [ 16.980726413468677, 52.453892215080288 ], [ 16.980726413468677, 52.453892215080288 ], [ 16.980683962214567, 52.45391490376354 ], [ 16.980637118204193, 52.453934207847198 ], [ 16.980586620201784, 52.453949822889697 ], [ 16.980533264600808, 52.453961502628438 ], [ 16.980477892863746, 52.453969062863841 ], [ 16.980477892863746, 52.453969062863841 ], [ 16.980421378250934, 52.453972384364441 ] ], [ [ 16.981490640924026, 52.454002669056109 ], [ 16.981490640924026, 52.454002669056109 ], [ 16.981434109861897, 52.453997448602792 ], [ 16.981379115696232, 52.453988066106014 ], [ 16.981326525731685, 52.453974669536258 ], [ 16.981277169354559, 52.453957470169222 ], [ 16.9812318249522, 52.453936739253763 ], [ 16.981191207636854, 52.453912803733829 ], [ 16.981191207636854, 52.453912803733829 ], [ 16.981155957967694, 52.453886041092005 ], [ 16.981126631848809, 52.453856873396099 ], [ 16.981103691762556, 52.453825760642523 ], [ 16.981087499476406, 52.453793193501674 ], [ 16.981078310338411, 52.453759685579449 ], [ 16.981078310338411, 52.453759685579449 ], [ 16.981076269251073, 52.453725765317287 ], [ 16.981093646683171, 52.453658825610304 ], [ 16.981093646683171, 52.453658825610304 ], [ 16.981138539763339, 52.453596580435452 ], [ 16.981170486534644, 52.453568458944432 ], [ 16.981208127607498, 52.453542940856167 ], [ 16.981250869357794, 52.453520428600953 ], [ 16.981298037724819, 52.45350127720549 ], [ 16.981298037724819, 52.45350127720549 ], [ 16.981348888841449, 52.453485788693961 ], [ 16.981402620765, 52.453474207325357 ], [ 16.981458386123716, 52.453466715741584 ], [ 16.98151530547954, 52.453463432087318 ], [ 16.981572481196416, 52.453464408146928 ], [ 16.981572481196416, 52.453464408146928 ], [ 16.98168400517438, 52.453479010903123 ], [ 16.98168400517438, 52.453479010903123 ], [ 16.981736594665119, 52.453492407310073 ], [ 16.981785950711238, 52.453509606483159 ], [ 16.98183129494619, 52.45353033718569 ], [ 16.981871912268247, 52.453554272487139 ], [ 16.981907162117817, 52.453581034918628 ], [ 16.981907162117817, 52.453581034918628 ], [ 16.981936488579468, 52.45361020242558 ], [ 16.981936488579468, 52.45361020242558 ], [ 16.98195942914932, 52.453641315023432 ], [ 16.981975622029498, 52.453673882051604 ], [ 16.981984811834636, 52.453707389911244 ], [ 16.981984811834636, 52.453707389911244 ], [ 16.98198685362031, 52.453741310164865 ], [ 16.981981715169912, 52.453775107870008 ], [ 16.981969477503743, 52.453808250015591 ], [ 16.981950333602285, 52.453840213927876 ], [ 16.981924585363718, 52.453870495513513 ], [ 16.9818926388436, 52.45389861720956 ], [ 16.9818926388436, 52.45389861720956 ], [ 16.981812256007132, 52.453946647986562 ], [ 16.981765087376441, 52.45396579958328 ], [ 16.981765087376441, 52.45396579958328 ], [ 16.981714235843345, 52.453981288268508 ], [ 16.981660503376702, 52.453992869772406 ], [ 16.981604737382384, 52.454000361444507 ], [ 16.981547817338395, 52.454003645134605 ], [ 16.981547817338395, 52.454003645134605 ], [ 16.981490640924026, 52.454002669056109 ] ], [ [ 16.979126417746304, 52.441542274977884 ], [ 16.979039057030054, 52.441374560126128 ], [ 16.980638403244239, 52.441157563575374 ], [ 16.980675552426248, 52.441348451601819 ], [ 16.979126417746304, 52.441542274977884 ] ] ], [ [ [ 16.98081825389022, 52.466059728003316 ], [ 16.981031413781238, 52.466067954722654 ], [ 16.981188349518764, 52.466075491031248 ], [ 16.981366004903208, 52.466084010438323 ], [ 16.981797587187902, 52.466110984806889 ], [ 16.981809121699037, 52.466023036763488 ], [ 16.98182779016771, 52.465885381618016 ], [ 16.981828853966725, 52.465836380413087 ], [ 16.981573074217174, 52.465813396424032 ], [ 16.981065619322841, 52.465767856633889 ], [ 16.980983049186669, 52.465760420626331 ], [ 16.98081825389022, 52.466059728003316 ] ] ], [ [ [ 16.979359426337471, 52.468368041080062 ], [ 16.979248786540946, 52.468355986843136 ], [ 16.979294750749876, 52.46817886347614 ], [ 16.97942149108799, 52.468193081601036 ], [ 16.97944486128242, 52.468104076799548 ], [ 16.979500183472677, 52.468108439920641 ], [ 16.979585686335508, 52.467781875822432 ], [ 16.979725174765161, 52.467376273947707 ], [ 16.979811506895096, 52.467144074878583 ], [ 16.979893458383167, 52.466878881481307 ], [ 16.979946999014857, 52.466616620559222 ], [ 16.979703862782376, 52.466594028423891 ], [ 16.979532866695305, 52.466591196828858 ], [ 16.979439847332188, 52.466596443179817 ], [ 16.979324703440426, 52.46660886667788 ], [ 16.979285478969487, 52.466732138972787 ], [ 16.979003684462665, 52.466701509400011 ], [ 16.978845896579827, 52.4669471474662 ], [ 16.978706721053193, 52.46708867870673 ], [ 16.978400005024781, 52.467061939024887 ], [ 16.978251027807602, 52.467034927350696 ], [ 16.977993372982684, 52.466972418259211 ], [ 16.977799500179497, 52.466938522148546 ], [ 16.977476897453201, 52.466888932482711 ], [ 16.977279061478288, 52.466874035820886 ], [ 16.977159062676318, 52.466879898217776 ], [ 16.977043216322691, 52.466897973947503 ], [ 16.976960720654919, 52.466927413388014 ], [ 16.976910355185264, 52.466953085164036 ], [ 16.976865102094443, 52.466992515848105 ], [ 16.976835598562207, 52.467032126029935 ], [ 16.976810555330339, 52.467080447124609 ], [ 16.976735862620934, 52.467299351685924 ], [ 16.976625621105562, 52.467731354485828 ], [ 16.97652129172041, 52.468268782554148 ], [ 16.97646891970107, 52.468537178193216 ], [ 16.976367140374805, 52.468582387201856 ], [ 16.976255908568572, 52.468968411384473 ], [ 16.975711768708297, 52.470417806821793 ], [ 16.975759956762698, 52.470439678539009 ], [ 16.976006099448767, 52.470474202678709 ], [ 16.975729018055549, 52.471639988597289 ], [ 16.97563613642097, 52.471966063883464 ], [ 16.975018099680703, 52.473451697445682 ], [ 16.975013798515725, 52.473461967329996 ], [ 16.974952877726135, 52.473608252056231 ], [ 16.974531646293855, 52.474621090582581 ], [ 16.975015283503474, 52.474654916956588 ], [ 16.975700612993286, 52.474707034657314 ], [ 16.975832278554254, 52.474717023500155 ], [ 16.976474160254472, 52.474765874610888 ], [ 16.976554032423142, 52.474771468608715 ], [ 16.977428966371377, 52.474838962648391 ], [ 16.978130855071374, 52.474893058352016 ], [ 16.978261193063098, 52.474903111727912 ], [ 16.978268547582054, 52.47483586961782 ], [ 16.978208094633782, 52.474830788661386 ], [ 16.9782296077226, 52.474602519527842 ], [ 16.978241743449946, 52.47447275832883 ], [ 16.978251273014862, 52.474370925068641 ], [ 16.978280583127347, 52.474059321436016 ], [ 16.978312732464648, 52.473717905005117 ], [ 16.978322390843548, 52.47357469981764 ], [ 16.978326720579862, 52.473550938747685 ], [ 16.978331488870474, 52.473524037144223 ], [ 16.978365423335561, 52.473172577496442 ], [ 16.978497110134079, 52.471806784324663 ], [ 16.978451146294152, 52.471694558300527 ], [ 16.978496833080754, 52.471687514176828 ], [ 16.978595618664098, 52.471672383303556 ], [ 16.978664571236333, 52.471250916221372 ], [ 16.978811621205875, 52.470610061929676 ], [ 16.978649162899668, 52.47060377733979 ], [ 16.978597361436716, 52.470599653912103 ], [ 16.978651893826001, 52.470473495506084 ], [ 16.978877282048376, 52.469951806427929 ], [ 16.978714103031862, 52.469932377801513 ], [ 16.978781805965401, 52.469721267696443 ], [ 16.978918406413086, 52.469687534938764 ], [ 16.978929792650518, 52.469635112432364 ], [ 16.978995840074194, 52.469382959550913 ], [ 16.978887780874949, 52.469372388198387 ], [ 16.978938724567264, 52.469189503738733 ], [ 16.979055098383821, 52.469150388291212 ], [ 16.979230924068197, 52.468475846498272 ], [ 16.9792414511552, 52.468435731573976 ], [ 16.979245007860282, 52.468422390728271 ], [ 16.979342653580744, 52.468431974338003 ], [ 16.979359426337471, 52.468368041080062 ] ] ], [ [ [ 16.979598093494527, 52.472388197497345 ], [ 16.978909689564656, 52.472342795393068 ], [ 16.978892385713479, 52.472482542055936 ], [ 16.978842059723185, 52.472889666711815 ], [ 16.979535785906819, 52.472925176325568 ], [ 16.979566228984133, 52.472630411210204 ], [ 16.979598093494527, 52.472388197497345 ] ] ], [ [ [ 16.974330987382253, 52.480694791746316 ], [ 16.974243783846283, 52.481262101976334 ], [ 16.974232202287261, 52.481337816068688 ], [ 16.974146542658293, 52.481893909675868 ], [ 16.974894036144878, 52.481932525147045 ], [ 16.975701932913161, 52.481974328412349 ], [ 16.976778201673724, 52.48202998167374 ], [ 16.977661940383502, 52.482075677282772 ], [ 16.977696454000775, 52.481972022783097 ], [ 16.977783027747833, 52.481016053161426 ], [ 16.977693420591919, 52.48101047350503 ], [ 16.977746555171386, 52.480488000022611 ], [ 16.977829722804781, 52.480489422077888 ], [ 16.977877000439676, 52.479998238700666 ], [ 16.977895972402319, 52.479799787617587 ], [ 16.977924133799249, 52.479506962865528 ], [ 16.977931156563784, 52.479434138634772 ], [ 16.977981337429402, 52.478879594512051 ], [ 16.978031361873029, 52.478402309267089 ], [ 16.978069149108642, 52.478403854743853 ], [ 16.978141274459698, 52.477736896298282 ], [ 16.977846264124583, 52.477732751835191 ], [ 16.977826834218828, 52.477966902775833 ], [ 16.977536032749995, 52.477954464753189 ], [ 16.97745207734118, 52.47791894032941 ], [ 16.977354687778554, 52.477912957443863 ], [ 16.977378983287615, 52.477717295729811 ], [ 16.976459450018634, 52.477692751284224 ], [ 16.975401417941065, 52.477672124814411 ], [ 16.975304005670107, 52.478410873770294 ], [ 16.975280058205716, 52.478592329958268 ], [ 16.975248123325272, 52.478835440712956 ], [ 16.975405896993017, 52.478851363483436 ], [ 16.975383831581283, 52.478991837572551 ], [ 16.975502203192278, 52.478996472313675 ], [ 16.975468707805039, 52.479228673206912 ], [ 16.975339449926089, 52.479275030030763 ], [ 16.974563068197568, 52.479237721180645 ], [ 16.974545515410121, 52.479347241831235 ], [ 16.974330987382253, 52.480694791746316 ] ] ], [ [ [ 16.97594621164809, 52.483077620552642 ], [ 16.975916468550182, 52.483369248449321 ], [ 16.975417203867508, 52.48335602589146 ], [ 16.975243866330064, 52.483351439541245 ], [ 16.974883214823262, 52.483341846875611 ], [ 16.974168238204456, 52.483322856547623 ], [ 16.973785367045565, 52.483312700042902 ], [ 16.973771293312634, 52.483574015094185 ], [ 16.973716420062321, 52.484591506963 ], [ 16.974044622925497, 52.484605314299351 ], [ 16.974042404478176, 52.484938877254031 ], [ 16.974011949098362, 52.485361090640623 ], [ 16.974006778201353, 52.485374223777718 ], [ 16.973795053617863, 52.485406484283011 ], [ 16.973726232553478, 52.485759413324743 ], [ 16.97375818499129, 52.485868792526318 ], [ 16.973787577446245, 52.485969763102496 ], [ 16.973874494089703, 52.486268066050449 ], [ 16.974137061192557, 52.486318974661721 ], [ 16.974194512641681, 52.486348021119653 ], [ 16.97421380622972, 52.486357795660659 ], [ 16.974320964620119, 52.486693411758012 ], [ 16.974344531391697, 52.486767299311609 ], [ 16.974470535958027, 52.486740945174823 ], [ 16.975305538815686, 52.486566630534767 ], [ 16.975397363845836, 52.486565863889687 ], [ 16.975727363778688, 52.486563327471742 ], [ 16.97602199388648, 52.486560994359799 ], [ 16.976206968902488, 52.486559482557041 ], [ 16.976442420349965, 52.486527173940125 ], [ 16.97660154267794, 52.486289656966207 ], [ 16.976653342721136, 52.486220387144364 ], [ 16.976675382002217, 52.48618640572748 ], [ 16.976694911585874, 52.486149323291428 ], [ 16.976721856478093, 52.48608871254222 ], [ 16.976780175158531, 52.486079636491546 ], [ 16.976838493815681, 52.486070560411839 ], [ 16.97689242763138, 52.486063927719663 ], [ 16.976956820872278, 52.486060531991505 ], [ 16.976954927664256, 52.486060049890646 ], [ 16.97703458878452, 52.485967961073555 ], [ 16.977111660259588, 52.485877716727032 ], [ 16.977167714665555, 52.485812027248691 ], [ 16.977193718689723, 52.485781531402552 ], [ 16.977260799392898, 52.485690666371845 ], [ 16.977309894169441, 52.485622519268553 ], [ 16.977364078730009, 52.485536560415383 ], [ 16.977400659815196, 52.485468199272276 ], [ 16.97743637964183, 52.485107146968375 ], [ 16.977467524049416, 52.484807267980194 ], [ 16.97747677952772, 52.484717932383056 ], [ 16.977021145472811, 52.484700695804513 ], [ 16.976618757637652, 52.484685357788834 ], [ 16.97664278975159, 52.484482766210682 ], [ 16.976594542415043, 52.484416911571898 ], [ 16.976595913781452, 52.484403083717936 ], [ 16.976596517607444, 52.484396348277713 ], [ 16.976628479528809, 52.484069140570739 ], [ 16.976671654814822, 52.483626007468821 ], [ 16.977070450486131, 52.483642363256735 ], [ 16.977075332751784, 52.48359054930058 ], [ 16.977088033432285, 52.483455041624516 ], [ 16.977111367992187, 52.483103851148869 ], [ 16.976627320565765, 52.483092962660805 ], [ 16.97594621164809, 52.483077620552642 ] ] ], [ [ [ 16.976524567604134, 52.489436274788275 ], [ 16.977064195218137, 52.489393428150336 ], [ 16.977085134032894, 52.48923899344986 ], [ 16.977266255284185, 52.487597653254177 ], [ 16.977280669987355, 52.487167969568262 ], [ 16.977300832230366, 52.486869881640153 ], [ 16.977102747556547, 52.486864874894238 ], [ 16.977085436766814, 52.48684398174214 ], [ 16.976994562605242, 52.486734135375883 ], [ 16.977007628289499, 52.486609966897028 ], [ 16.976883355517526, 52.486605052984771 ], [ 16.976549824091496, 52.486642790096766 ], [ 16.976529629702142, 52.486684718087993 ], [ 16.97641806755356, 52.486698189747386 ], [ 16.97631264864221, 52.486709427880655 ], [ 16.976127528997267, 52.486999656273134 ], [ 16.976084045855753, 52.487205422651982 ], [ 16.976024961813735, 52.487202252945359 ], [ 16.976009066157811, 52.487387984246652 ], [ 16.975894101606208, 52.48754287844482 ], [ 16.975864740335279, 52.487694560493637 ], [ 16.975956552408466, 52.488512279633014 ], [ 16.975982729174174, 52.488632082693726 ], [ 16.976023874191835, 52.488820588933564 ], [ 16.976049393032682, 52.488871304062954 ], [ 16.976129329320901, 52.489030073124866 ], [ 16.976378643084821, 52.489443851911531 ], [ 16.976417170625815, 52.489548215981713 ], [ 16.976512442385353, 52.489806274954539 ], [ 16.976551750765559, 52.489912900917673 ], [ 16.976666135884425, 52.490200788200347 ], [ 16.9766898872961, 52.490216215072749 ], [ 16.976716841776909, 52.490219644299771 ], [ 16.976751419082333, 52.490214299506704 ], [ 16.976764464490373, 52.490196533953565 ], [ 16.976762856866827, 52.490176988708534 ], [ 16.976619276472029, 52.489802885893667 ], [ 16.976609532616809, 52.489777624958471 ], [ 16.976524567604134, 52.489436274788275 ] ] ], [ [ [ 16.966678740365854, 52.531535784898161 ], [ 16.966523632129061, 52.530941113710341 ], [ 16.966484877091585, 52.530161630063702 ], [ 16.966435070852885, 52.53011922034068 ], [ 16.966432253043305, 52.530102680073256 ], [ 16.96578984283682, 52.530087262456767 ], [ 16.96554466261335, 52.530075941525801 ], [ 16.96399881969672, 52.529969572293851 ], [ 16.963885264115437, 52.529961608592046 ], [ 16.962662998931599, 52.529875883538701 ], [ 16.962530254662784, 52.52986658222374 ], [ 16.962499130430398, 52.530032351246895 ], [ 16.962329431123241, 52.530932638483634 ], [ 16.962255699362224, 52.530973821893561 ], [ 16.962171589635687, 52.531102161361503 ], [ 16.962083139065484, 52.53114587940842 ], [ 16.96195061195888, 52.53116365411212 ], [ 16.96184085016387, 52.531196211721458 ], [ 16.961750162830018, 52.53126273656467 ], [ 16.961692309132992, 52.531346376502952 ], [ 16.961671645237075, 52.531404033892926 ], [ 16.961657077485629, 52.531444707090081 ], [ 16.961651558319911, 52.531525650828456 ], [ 16.961680318612373, 52.531617978273111 ], [ 16.961742006528919, 52.531744511679761 ], [ 16.961898268842493, 52.53177157796771 ], [ 16.962151764338163, 52.531797800287904 ], [ 16.962713526116833, 52.531849117646495 ], [ 16.963454621221331, 52.531910264808843 ], [ 16.963706686950097, 52.531929173779083 ], [ 16.963757935732428, 52.531634412570654 ], [ 16.963791765559893, 52.531464282626388 ], [ 16.963817180613042, 52.531319821551669 ], [ 16.964517763473332, 52.531373429263795 ], [ 16.965527339734624, 52.53144916545299 ], [ 16.965734134775779, 52.531464683366785 ], [ 16.965968795120851, 52.531480410106902 ], [ 16.96613092113029, 52.531495519211376 ], [ 16.966678740365854, 52.531535784898161 ] ] ], [ [ [ 16.975587304646144, 52.537595360418962 ], [ 16.976321214795909, 52.537892133446071 ], [ 16.976651536572863, 52.538025680859157 ], [ 16.97704157891226, 52.538053845880036 ], [ 16.977091547469861, 52.538057848115265 ], [ 16.977115442975343, 52.538122026114252 ], [ 16.977144793269375, 52.538125316083551 ], [ 16.977252148401657, 52.538135605876072 ], [ 16.977311119027338, 52.538142730012332 ], [ 16.977578471962307, 52.538166907214958 ], [ 16.978217970561118, 52.538063068118234 ], [ 16.978630676187205, 52.537996095788088 ], [ 16.979102158113189, 52.538046421945793 ], [ 16.979134531423512, 52.538035282249169 ], [ 16.979678019581776, 52.536267021996473 ], [ 16.979746852549763, 52.536043250091438 ], [ 16.979770777696789, 52.535965498211056 ], [ 16.979812510143358, 52.535824370790003 ], [ 16.979817047761621, 52.535809068027618 ], [ 16.979859829255361, 52.535664360783642 ], [ 16.980270177483138, 52.534317905211203 ], [ 16.98033960512679, 52.534281397820067 ], [ 16.980175509775968, 52.533964386494361 ], [ 16.979618348602752, 52.53318435837474 ], [ 16.978995379655856, 52.532389685588186 ], [ 16.978568166651254, 52.531870304422888 ], [ 16.978497002215597, 52.531909804496543 ], [ 16.977981435224031, 52.532210488938446 ], [ 16.976714052456323, 52.534273432067373 ], [ 16.976679922193291, 52.534329242689743 ], [ 16.976889320520709, 52.534368710302658 ], [ 16.976729270766132, 52.534651362667617 ], [ 16.976511666242011, 52.534604289186426 ], [ 16.97613416208775, 52.535221317442343 ], [ 16.976118446832871, 52.535245513128785 ], [ 16.975532763199777, 52.536145626759371 ], [ 16.975397526316289, 52.5363535095792 ], [ 16.974930110757374, 52.537051743145291 ], [ 16.974751294462763, 52.537318601530025 ], [ 16.974737978812648, 52.537338700731112 ], [ 16.974680648145995, 52.537424154639616 ], [ 16.975115842143339, 52.537531978793155 ], [ 16.975177372361873, 52.537438591621182 ], [ 16.975232371567294, 52.537451854907758 ], [ 16.975587304646144, 52.537595360418962 ] ] ], [ [ [ 16.981985214992633, 52.537643385076947 ], [ 16.982007771447986, 52.537332860016051 ], [ 16.982030096969105, 52.537269031127487 ], [ 16.982039119726888, 52.537193147288207 ], [ 16.982003684356638, 52.537119884728305 ], [ 16.981868361168026, 52.537088250577945 ], [ 16.981216709188114, 52.537017053054626 ], [ 16.980905329185688, 52.53697846149327 ], [ 16.980853800002365, 52.537185260250347 ], [ 16.980463680486022, 52.537216738549702 ], [ 16.980132365419998, 52.538309555507581 ], [ 16.980529261544017, 52.53835239672037 ], [ 16.980982964562774, 52.538401332603904 ], [ 16.981570240052044, 52.538464687477848 ], [ 16.981450919667385, 52.538869463468174 ], [ 16.98138862140696, 52.539079496522703 ], [ 16.983036259748374, 52.539248082257508 ], [ 16.98403157598548, 52.539349859014109 ], [ 16.984180813636261, 52.539348567746401 ], [ 16.983890320231559, 52.538944843507117 ], [ 16.983662311236213, 52.538629573784654 ], [ 16.983455227122505, 52.538347734631827 ], [ 16.983122965998533, 52.537911172483653 ], [ 16.982988331692034, 52.537947951791629 ], [ 16.98287686098281, 52.537979150629766 ], [ 16.982682462494139, 52.538033490029306 ], [ 16.982179996872116, 52.537883637262468 ], [ 16.981985214992633, 52.537643385076947 ] ] ], [ [ [ 16.970090177512461, 52.545862732448818 ], [ 16.970102344302056, 52.545973121171542 ], [ 16.971986750352055, 52.545769419417923 ], [ 16.972105220337969, 52.545756609025432 ], [ 16.972073401330952, 52.545653169144089 ], [ 16.971759262638976, 52.544630261896266 ], [ 16.96997642864272, 52.544827067645571 ], [ 16.970041132766514, 52.545416583958797 ], [ 16.970090177512461, 52.545862732448818 ] ] ], [ [ [ 16.97579079080954, 52.544919475299686 ], [ 16.975249354801935, 52.544943944413113 ], [ 16.975252078021452, 52.545175680846064 ], [ 16.975292106277106, 52.545637526663874 ], [ 16.974217705980408, 52.545615760186088 ], [ 16.973713039922881, 52.545620637899496 ], [ 16.973583771010492, 52.545625344024323 ], [ 16.973581923727, 52.545691692145091 ], [ 16.973376694416462, 52.545704727170083 ], [ 16.973382595990319, 52.545759153707337 ], [ 16.973393341626146, 52.545830122737605 ], [ 16.97358556401446, 52.545820822439502 ], [ 16.973769271749607, 52.545813804497747 ], [ 16.973860619249763, 52.54581968577547 ], [ 16.973908003248138, 52.54582553383915 ], [ 16.973974347063955, 52.545839351623364 ], [ 16.974017760016451, 52.545851337711817 ], [ 16.974051308431818, 52.545862885078506 ], [ 16.974195370590333, 52.545935056971047 ], [ 16.974099966738226, 52.546930080071647 ], [ 16.974094228100245, 52.546990603282133 ], [ 16.974067929390074, 52.547574331563894 ], [ 16.973869172123052, 52.547574796362248 ], [ 16.973485077265046, 52.547575864815961 ], [ 16.973540591877764, 52.548343487872231 ], [ 16.974402664284664, 52.548359865466601 ], [ 16.974423550473137, 52.549158914814576 ], [ 16.974500803812138, 52.549192256682147 ], [ 16.974733077713072, 52.549188226990665 ], [ 16.974732353420233, 52.549203954579674 ], [ 16.974724820304505, 52.549351511683064 ], [ 16.975014152291134, 52.54936122975009 ], [ 16.975005676120571, 52.549641436291786 ], [ 16.9767673579471, 52.549638738170707 ], [ 16.977624960128995, 52.54963738689338 ], [ 16.978028972257935, 52.549636735109623 ], [ 16.97842605104, 52.549636053453135 ], [ 16.978668776908467, 52.549635792268184 ], [ 16.978671464543243, 52.550026729151128 ], [ 16.978870527924045, 52.550026261433509 ], [ 16.978868698449109, 52.550075698671606 ], [ 16.978890838057374, 52.550075537118921 ], [ 16.978889485796099, 52.550098539354671 ], [ 16.978882709542095, 52.55022029597886 ], [ 16.979349200462867, 52.550170158860922 ], [ 16.979348198323656, 52.550069945596583 ], [ 16.979349517400692, 52.549928848039876 ], [ 16.979328408583559, 52.549900155674408 ], [ 16.9792845061476, 52.549879438781865 ], [ 16.979256083198173, 52.549807628908489 ], [ 16.979241144240699, 52.549612557948826 ], [ 16.979249402830781, 52.549606223091246 ], [ 16.979286671357411, 52.549581855379827 ], [ 16.979359725723839, 52.549533274492084 ], [ 16.979397746249273, 52.549534283425892 ], [ 16.979835131710491, 52.549529788094851 ], [ 16.980003326839174, 52.549539584679096 ], [ 16.9802316966714, 52.549543482442004 ], [ 16.980366245261028, 52.54954056200387 ], [ 16.980367311305262, 52.54959445586195 ], [ 16.980362436885095, 52.549780913791878 ], [ 16.980403750673119, 52.549780899290148 ], [ 16.980677905075495, 52.549780630654155 ], [ 16.982134257650998, 52.549779208155321 ], [ 16.982788780156206, 52.549775885626531 ], [ 16.982846331341037, 52.549737111932707 ], [ 16.982903881808848, 52.54950855922236 ], [ 16.982968670774866, 52.549504986463731 ], [ 16.983018690019442, 52.549508177472873 ], [ 16.983078572896122, 52.549476458934059 ], [ 16.983076482636132, 52.549676455743658 ], [ 16.983074525844867, 52.549854238990719 ], [ 16.981633838159812, 52.549996520620468 ], [ 16.980637964455681, 52.550104192470393 ], [ 16.980397593851372, 52.550130221511893 ], [ 16.980060838656581, 52.550166657318549 ], [ 16.979980025539639, 52.550175351540908 ], [ 16.979398302763705, 52.550238274360034 ], [ 16.979413688535878, 52.550423639094319 ], [ 16.98397160754277, 52.550034569001632 ], [ 16.983855833686722, 52.548459679941018 ], [ 16.982895408648933, 52.547724582099924 ], [ 16.982294397515542, 52.547247174315174 ], [ 16.982032117353391, 52.547043659048711 ], [ 16.98176732811142, 52.54709742643643 ], [ 16.981628517241102, 52.546932982306721 ], [ 16.98148704528187, 52.546794396111544 ], [ 16.981320327589739, 52.546620841098481 ], [ 16.980779937553127, 52.546192668679431 ], [ 16.979971005589324, 52.545607996802431 ], [ 16.979595062900444, 52.545325994422278 ], [ 16.979238001106538, 52.545015261701401 ], [ 16.979161144798525, 52.544938037594157 ], [ 16.978949590545209, 52.54472602739289 ], [ 16.978737655071175, 52.544467779696291 ], [ 16.978566860600633, 52.544242184525878 ], [ 16.978476333205034, 52.544109301187532 ], [ 16.978368256329112, 52.543889703433088 ], [ 16.978292942286355, 52.54370196538531 ], [ 16.978195310657906, 52.543335399483446 ], [ 16.978137173903637, 52.54289486766821 ], [ 16.977917836398664, 52.542873251839637 ], [ 16.977894725710069, 52.542953963809587 ], [ 16.977040332506949, 52.54295373111767 ], [ 16.976541242493806, 52.542989360115179 ], [ 16.972833716738087, 52.543290651615351 ], [ 16.973012032600064, 52.544852299356158 ], [ 16.97336593510915, 52.544830388464156 ], [ 16.973342762435305, 52.544638503295971 ], [ 16.973569044542753, 52.544629516528346 ], [ 16.974431616247244, 52.544581929424595 ], [ 16.975495380094273, 52.544593373815111 ], [ 16.975495380094273, 52.544593373815111 ], [ 16.97579079080954, 52.544919475299686 ] ], [ [ 16.977674114084653, 52.544615463851557 ], [ 16.977710255138089, 52.544605917934213 ], [ 16.977751741836276, 52.544611663686027 ], [ 16.977785501178882, 52.54462825039576 ], [ 16.977806621739024, 52.544659821453735 ], [ 16.977828102208967, 52.544712445268601 ], [ 16.977850025537467, 52.544803572156241 ], [ 16.977863545449193, 52.54483681217998 ], [ 16.977877846574874, 52.544872314120319 ], [ 16.977877805551351, 52.544892460601737 ], [ 16.977863686937191, 52.544901123684667 ], [ 16.977832926839305, 52.544899518751613 ], [ 16.977799115151647, 52.544900110234117 ], [ 16.977750192784917, 52.544902062458497 ], [ 16.977698572944991, 52.544911343873665 ], [ 16.977656091259323, 52.544904771616707 ], [ 16.977640943291345, 52.544897317324448 ], [ 16.977624719317735, 52.544887596072158 ], [ 16.977607518516866, 52.544873450927483 ], [ 16.977600238264408, 52.544823228379371 ], [ 16.977573483675268, 52.54471205157737 ], [ 16.977583411272484, 52.544698280108541 ], [ 16.97760898819228, 52.544687474366832 ], [ 16.977627246773991, 52.544678612236353 ], [ 16.977633216272281, 52.544670709344778 ], [ 16.977640453201239, 52.54465770137395 ], [ 16.977643402630189, 52.544635266081926 ], [ 16.977674114084653, 52.544615463851557 ] ] ], [ [ [ 16.971455475124642, 52.546937125955814 ], [ 16.971490348303693, 52.547489343162852 ], [ 16.971499014305703, 52.547627733844223 ], [ 16.972553917263625, 52.547602278867473 ], [ 16.972546226734355, 52.547471460195183 ], [ 16.972540462744607, 52.547375662283379 ], [ 16.972529223107976, 52.547181013338211 ], [ 16.972486087779707, 52.546532506060103 ], [ 16.972470625546354, 52.546263042238522 ], [ 16.972457986440808, 52.546044354534494 ], [ 16.971377072160724, 52.546077997022294 ], [ 16.971455475124642, 52.546937125955814 ] ] ], [ [ [ 16.969790625573783, 52.558785071859127 ], [ 16.969683814447542, 52.558785794323512 ], [ 16.969931350805009, 52.558393356762735 ], [ 16.970458201787395, 52.55759407724279 ], [ 16.970619679798816, 52.557356789073502 ], [ 16.97066560302672, 52.557289040151666 ], [ 16.970696971777382, 52.557223290227448 ], [ 16.970453578997805, 52.557256263064261 ], [ 16.969893416697936, 52.557348471111943 ], [ 16.968699002424227, 52.557561648591758 ], [ 16.964965933575076, 52.558184501961676 ], [ 16.963938283074441, 52.558355167799441 ], [ 16.963930380783445, 52.56003615252456 ], [ 16.963941851780351, 52.560428950071724 ], [ 16.963955452400096, 52.560750279728374 ], [ 16.963980351744581, 52.561337494649152 ], [ 16.963995370630226, 52.561513501157286 ], [ 16.964020891906948, 52.561813269663013 ], [ 16.964051571342477, 52.562173748288004 ], [ 16.964011106474235, 52.562190231286976 ], [ 16.963940400363811, 52.562219145807042 ], [ 16.963937365396326, 52.562673394405429 ], [ 16.963939051029648, 52.563025729115282 ], [ 16.963942327608496, 52.563165286664848 ], [ 16.964171851028681, 52.563047002603732 ], [ 16.964184327215222, 52.564748790413155 ], [ 16.964384001621017, 52.564741124904067 ], [ 16.964788736177898, 52.564753114857488 ], [ 16.964790080263928, 52.564753054929774 ], [ 16.964906216006494, 52.564750374794109 ], [ 16.965117802797977, 52.564745468053317 ], [ 16.96529756211471, 52.564752156068991 ], [ 16.965428862508972, 52.564763047627572 ], [ 16.965521442231424, 52.564771834404951 ], [ 16.965938712764956, 52.564797084489186 ], [ 16.966318648811789, 52.564812607413835 ], [ 16.966591084341488, 52.564826012515567 ], [ 16.966774896707317, 52.564837624816604 ], [ 16.966872615940986, 52.564843800540245 ], [ 16.96707642530335, 52.564866638926517 ], [ 16.967278575047949, 52.564896643871258 ], [ 16.96780439106514, 52.564997234599609 ], [ 16.968267955706732, 52.56508434233173 ], [ 16.968451030273872, 52.565118335070977 ], [ 16.968538430918787, 52.565137014217449 ], [ 16.968574006298528, 52.565142711106901 ], [ 16.970043201530185, 52.565112968213484 ], [ 16.970057954941716, 52.565111547128026 ], [ 16.970185615503112, 52.565102223819672 ], [ 16.970466081469667, 52.565092012840985 ], [ 16.970782894586236, 52.565087371189051 ], [ 16.971077964730831, 52.565092009135427 ], [ 16.971226966519357, 52.565088990364288 ], [ 16.971282148158711, 52.564954629589295 ], [ 16.971335007944298, 52.564883851336184 ], [ 16.9713746988458, 52.564852152275101 ], [ 16.971573338454004, 52.564763185578848 ], [ 16.971774688892268, 52.564711411300458 ], [ 16.971957854041669, 52.564695482016425 ], [ 16.972027657017389, 52.56466052109608 ], [ 16.972042560489626, 52.564439877422068 ], [ 16.972136825943274, 52.564335360224369 ], [ 16.972711609215757, 52.564119990240947 ], [ 16.972863342846814, 52.564071861416551 ], [ 16.97305167738179, 52.564020581612489 ], [ 16.973294121126109, 52.563967349879 ], [ 16.973462671013234, 52.563925804219757 ], [ 16.97360092118544, 52.563901188440653 ], [ 16.973857581903722, 52.563898117095505 ], [ 16.974212642844488, 52.563905633704969 ], [ 16.974413417076683, 52.564000721339504 ], [ 16.974518457747315, 52.564094620113764 ], [ 16.974525275964453, 52.564174066138065 ], [ 16.974484607680676, 52.564265471378569 ], [ 16.974377560646616, 52.564323990898316 ], [ 16.974211774306298, 52.564408038055461 ], [ 16.974167213293864, 52.564458992350758 ], [ 16.97408334186925, 52.564715961809561 ], [ 16.973989545928738, 52.565031313937908 ], [ 16.974020984519612, 52.565111361296601 ], [ 16.974085409529078, 52.565177042787475 ], [ 16.974449737288598, 52.565246327873957 ], [ 16.974675804778443, 52.565289141505964 ], [ 16.974860716621524, 52.564556215566689 ], [ 16.974963048608316, 52.564077853011234 ], [ 16.975092385380453, 52.563654007832376 ], [ 16.975260470864722, 52.563039337632482 ], [ 16.975426060805681, 52.562372997443042 ], [ 16.975470874174626, 52.562137035110183 ], [ 16.97548068904289, 52.561991226180652 ], [ 16.975485404745321, 52.561920881798677 ], [ 16.975629513186874, 52.561211271207355 ], [ 16.975687936492463, 52.560948918541058 ], [ 16.975713407369735, 52.560818847469804 ], [ 16.975719334692315, 52.56073179446917 ], [ 16.975722098384715, 52.560691007797537 ], [ 16.975799919728065, 52.560405964214326 ], [ 16.97563994896106, 52.560241148942588 ], [ 16.975454481878021, 52.560134452646459 ], [ 16.975268067777648, 52.560022703064426 ], [ 16.97527325740942, 52.559826716943363 ], [ 16.975277427693275, 52.559672086983127 ], [ 16.975278028839924, 52.559562906927646 ], [ 16.975483613157888, 52.559437805748821 ], [ 16.975315190763439, 52.558797681208056 ], [ 16.974593761073553, 52.558796040777807 ], [ 16.973441451562493, 52.558793404828819 ], [ 16.969790625573783, 52.558785071859127 ] ], [ [ 16.968124277367689, 52.558974587390757 ], [ 16.968103132289993, 52.558994641377602 ], [ 16.96809758484407, 52.559015682681697 ], [ 16.968114972808824, 52.559048180692187 ], [ 16.968153032387086, 52.559077255984548 ], [ 16.968306417198871, 52.559092121312489 ], [ 16.968391868143126, 52.559117602847778 ], [ 16.968444221335847, 52.559143955288661 ], [ 16.96848217129612, 52.559191376906519 ], [ 16.968501221176091, 52.559226241893711 ], [ 16.968547208071278, 52.559390367203498 ], [ 16.968467045950025, 52.559822065458953 ], [ 16.968278895062138, 52.559978214266103 ], [ 16.967923192229399, 52.559988477248631 ], [ 16.967635532889453, 52.55997940065766 ], [ 16.967301354050342, 52.559961429583296 ], [ 16.967077255956184, 52.559879960031331 ], [ 16.966795098671099, 52.559895530262907 ], [ 16.965896271203562, 52.559912735343971 ], [ 16.965695316687452, 52.559882928274668 ], [ 16.965421058230174, 52.559855368530833 ], [ 16.965390555728266, 52.559793773044206 ], [ 16.9655022665569, 52.559726977103445 ], [ 16.965672578473619, 52.559653543190251 ], [ 16.965789947859303, 52.559553745308136 ], [ 16.965866023725699, 52.559440555692376 ], [ 16.965916109721604, 52.559260721492137 ], [ 16.965858176861783, 52.559160429020004 ], [ 16.965758745655574, 52.559054386470045 ], [ 16.965741099843708, 52.558982848508947 ], [ 16.965810839666858, 52.55892045762765 ], [ 16.965913909505176, 52.558858549589594 ], [ 16.966018388634684, 52.558766175085502 ], [ 16.966084911645272, 52.558680793358342 ], [ 16.96610610338055, 52.558564052055061 ], [ 16.966246754545896, 52.558423460035002 ], [ 16.966290739819957, 52.558349923128524 ], [ 16.966329437648561, 52.558317309253546 ], [ 16.966407307549943, 52.558283299754592 ], [ 16.966531746898934, 52.558199632444065 ], [ 16.96678058459397, 52.558036344157216 ], [ 16.966852058408694, 52.55802255155475 ], [ 16.966921677069198, 52.558026535708329 ], [ 16.967040828480368, 52.558057184225454 ], [ 16.967172654489428, 52.55812330787932 ], [ 16.967264730311264, 52.558142697988018 ], [ 16.967327919220228, 52.558145312270796 ], [ 16.967386103170998, 52.558128502872712 ], [ 16.967422810281803, 52.558100621423371 ], [ 16.967436055100091, 52.558059924932849 ], [ 16.967444915678701, 52.558015105723975 ], [ 16.96748057612529, 52.557971556243075 ], [ 16.967522474937915, 52.557965440125436 ], [ 16.967598511015126, 52.557977449048607 ], [ 16.967640376203931, 52.558010367465933 ], [ 16.96763798748086, 52.558042885722777 ], [ 16.967599416711217, 52.558152583137357 ], [ 16.967642575507856, 52.558230944853868 ], [ 16.967721619254441, 52.558260903947698 ], [ 16.967845717012274, 52.558277155797143 ], [ 16.967891962963673, 52.558275971096165 ], [ 16.967941955643408, 52.558263967633998 ], [ 16.968011304867979, 52.558229091252002 ], [ 16.968139734967593, 52.558202694371722 ], [ 16.968227194413977, 52.558197450106498 ], [ 16.96830690925071, 52.558209701608035 ], [ 16.968423381381829, 52.558301553731539 ], [ 16.968461575753778, 52.558356444809597 ], [ 16.96846916300138, 52.558399837498733 ], [ 16.968448714392473, 52.558452732598525 ], [ 16.968414514528504, 52.558493429267976 ], [ 16.968393752221232, 52.558549916682878 ], [ 16.968352455490095, 52.558594089223007 ], [ 16.968318681091116, 52.558615995137551 ], [ 16.968274586475044, 52.558621714075194 ], [ 16.968234043345188, 52.558627224135911 ], [ 16.968203620957237, 52.558640463116021 ], [ 16.968191874081096, 52.558671111814341 ], [ 16.968190636307941, 52.558697893500039 ], [ 16.968228290719452, 52.558751696067453 ], [ 16.968321319553546, 52.558769662615759 ], [ 16.968352799364364, 52.558794217703479 ], [ 16.968356714495506, 52.55882126772854 ], [ 16.968302279003233, 52.558881494348761 ], [ 16.968124277367689, 52.558974587390757 ] ], [ [ 16.965109439307906, 52.561907001956534 ], [ 16.96512469481592, 52.561883519356115 ], [ 16.96514300514216, 52.561867374635035 ], [ 16.965170701338529, 52.561855708526153 ], [ 16.965209951995963, 52.56184630973658 ], [ 16.965275103339053, 52.561838525458178 ], [ 16.965285983285852, 52.561833046105548 ], [ 16.965321335814398, 52.561815395477026 ], [ 16.965325292336736, 52.561787311417362 ], [ 16.965292616800646, 52.561715245218046 ], [ 16.965262464637451, 52.561585479151162 ], [ 16.965214086155008, 52.561463674462175 ], [ 16.965170897464244, 52.561325409508903 ], [ 16.96512997865991, 52.561134926825368 ], [ 16.965091722031339, 52.560957081875308 ], [ 16.965054283591982, 52.560844459467909 ], [ 16.964994262159635, 52.56076059021138 ], [ 16.965008183133467, 52.560689415019503 ], [ 16.965019378940358, 52.560619721996893 ], [ 16.965075393310315, 52.560560603314698 ], [ 16.965148835447017, 52.560533084313995 ], [ 16.965432476434433, 52.560546145276732 ], [ 16.965527878269747, 52.560554351030937 ], [ 16.96559785889794, 52.560579298816435 ], [ 16.965679321756451, 52.560668663037106 ], [ 16.965741229230016, 52.560734126093045 ], [ 16.965828879643652, 52.560791846765802 ], [ 16.965943292212323, 52.560813420608788 ], [ 16.966090700395021, 52.560829984909674 ], [ 16.966178515848405, 52.560880962449033 ], [ 16.96626711512716, 52.560918192151881 ], [ 16.966359226100167, 52.5609720315883 ], [ 16.966480071504847, 52.561058744028742 ], [ 16.966553638445106, 52.561082763484542 ], [ 16.96659032160284, 52.561112894930702 ], [ 16.96661034416671, 52.561168193926456 ], [ 16.966657224630314, 52.561226742555704 ], [ 16.966713566810185, 52.561262608258986 ], [ 16.966769831517006, 52.561255479983551 ], [ 16.966848840756906, 52.561209707250384 ], [ 16.966899412667832, 52.561188450058353 ], [ 16.966903374624575, 52.561150652230467 ], [ 16.966992819031219, 52.561083472401066 ], [ 16.967050916068715, 52.561049482594498 ], [ 16.967112104925388, 52.561047565472307 ], [ 16.967256199687839, 52.561052828561202 ], [ 16.967361986186813, 52.561050328109467 ], [ 16.967415224342687, 52.561041618526112 ], [ 16.967584208798069, 52.560984168867428 ], [ 16.967766952943457, 52.560932351792104 ], [ 16.967838939938591, 52.560936286093281 ], [ 16.967945020830491, 52.560984877634645 ], [ 16.968037680394609, 52.560998161006744 ], [ 16.968219393967154, 52.56100056099293 ], [ 16.968312101500182, 52.561035161392802 ], [ 16.968413264515764, 52.561036897885735 ], [ 16.968465673925493, 52.561055696071612 ], [ 16.968511802655627, 52.561095433023482 ], [ 16.968545442685574, 52.561172281823232 ], [ 16.968573223567645, 52.561251368558551 ], [ 16.968553306128623, 52.561388549082693 ], [ 16.968505533801583, 52.561575979181143 ], [ 16.968479156582269, 52.561744348868821 ], [ 16.968476112471983, 52.561867697987182 ], [ 16.968490598870286, 52.562014103498605 ], [ 16.968489851686847, 52.562094139663202 ], [ 16.968461925856587, 52.562139531108606 ], [ 16.968435593009815, 52.562172807627988 ], [ 16.9684199445567, 52.5622048284527 ], [ 16.9684151944527, 52.562234158176352 ], [ 16.968391719512969, 52.562256690619101 ], [ 16.968356714808671, 52.562301960532061 ], [ 16.968355256821575, 52.562333505387244 ], [ 16.968352872529156, 52.562385091560252 ], [ 16.968327335062693, 52.562449052163281 ], [ 16.968329094477166, 52.562490815768406 ], [ 16.968341266320518, 52.562534017302937 ], [ 16.968372163119309, 52.562577630193083 ], [ 16.968422734071371, 52.562604311779403 ], [ 16.968483142122199, 52.562622527691076 ], [ 16.968557427281862, 52.562643859916093 ], [ 16.968604172596489, 52.56268945366665 ], [ 16.968636371727069, 52.562695312913114 ], [ 16.968816420594834, 52.562717920461786 ], [ 16.968935057870006, 52.562715279339308 ], [ 16.969035879648839, 52.562698930939831 ], [ 16.969076519693072, 52.562681819640559 ], [ 16.969109715310079, 52.562659723686934 ], [ 16.969127623488067, 52.562636286102638 ], [ 16.969123538967647, 52.56259052514276 ], [ 16.969118513359202, 52.562536383366357 ], [ 16.969092810090963, 52.562466596531543 ], [ 16.969111468558474, 52.562369418833534 ], [ 16.969140034417563, 52.562361274487927 ], [ 16.969182359016756, 52.562362000707147 ], [ 16.969300174918533, 52.562361143985463 ], [ 16.969398688178867, 52.562346824356375 ], [ 16.969467918810761, 52.562333801137584 ], [ 16.969481552133736, 52.562313438155826 ], [ 16.969480645792167, 52.562288328602897 ], [ 16.969506328510818, 52.562278695624784 ], [ 16.969605931945878, 52.562263135329815 ], [ 16.969804455680787, 52.562243605375429 ], [ 16.969886529546748, 52.56225607609953 ], [ 16.969954690751504, 52.562256615596475 ], [ 16.969997349250811, 52.562246913903103 ], [ 16.970041263347884, 52.562213219038945 ], [ 16.970098670647747, 52.562194146399271 ], [ 16.970213603227002, 52.562150246730383 ], [ 16.970290137673611, 52.562122867522348 ], [ 16.970353326166428, 52.562080868580736 ], [ 16.97035989601499, 52.562040866817043 ], [ 16.970376435171371, 52.561989523347783 ], [ 16.970452703670684, 52.561967895806198 ], [ 16.970496086018265, 52.561945704318177 ], [ 16.970551159524039, 52.561874874416567 ], [ 16.970585763312545, 52.561838231490647 ], [ 16.970625550804527, 52.561791603857309 ], [ 16.970656431171367, 52.561733310831428 ], [ 16.970652899190689, 52.561678745022114 ], [ 16.970638721399187, 52.561643784065105 ], [ 16.970653231296048, 52.561601220144482 ], [ 16.970683115740673, 52.56156449627354 ], [ 16.970874066925866, 52.561507508509131 ], [ 16.970911804467054, 52.561505277309763 ], [ 16.971066942665779, 52.561507936844777 ], [ 16.971109266494171, 52.561508662367061 ], [ 16.971192989176679, 52.561530154722469 ], [ 16.971253790987987, 52.561539831422245 ], [ 16.971324679777727, 52.561532411994584 ], [ 16.971358637937858, 52.561512936827242 ], [ 16.971402944264923, 52.561470703637525 ], [ 16.971431376409161, 52.561465434617652 ], [ 16.97147370020619, 52.561466160009275 ], [ 16.971568445257503, 52.561453482917848 ], [ 16.971611697980407, 52.561434077027158 ], [ 16.971671616612046, 52.56136054142825 ], [ 16.971694313745822, 52.561274855278647 ], [ 16.97176719892791, 52.561227355380446 ], [ 16.971906779661285, 52.561160941095061 ], [ 16.972136389224708, 52.561081678356032 ], [ 16.972201500978983, 52.561097094802605 ], [ 16.972341703908697, 52.561119554000463 ], [ 16.972490003699598, 52.561168055213543 ], [ 16.972629676463246, 52.561202017642707 ], [ 16.972922033077918, 52.56119263429067 ], [ 16.973214900968117, 52.561168958094356 ], [ 16.973280156570478, 52.561184466349374 ], [ 16.973311061535686, 52.561227988127555 ], [ 16.973304282220546, 52.56147746282447 ], [ 16.973318932233209, 52.561873551151301 ], [ 16.973316242412455, 52.561979907207949 ], [ 16.973304936724638, 52.562049059373692 ], [ 16.973217899590246, 52.562304265197113 ], [ 16.973153684850661, 52.562470998479498 ], [ 16.973130283788343, 52.562520785721773 ], [ 16.973089469607725, 52.562637731717714 ], [ 16.972980316406552, 52.562962803797632 ], [ 16.972819142910399, 52.5632957092525 ], [ 16.972768131379041, 52.563380910628105 ], [ 16.972732205878401, 52.563446223232361 ], [ 16.972692731688714, 52.563482873294788 ], [ 16.972667168878129, 52.563528306173438 ], [ 16.972622331029747, 52.563582043378787 ], [ 16.972576038040984, 52.56366732549607 ], [ 16.972575340628474, 52.563714443474147 ], [ 16.972569583740992, 52.563724058664079 ], [ 16.972496076463081, 52.563816969420351 ], [ 16.972474697581827, 52.563829285107651 ], [ 16.972348243528749, 52.563902131005868 ], [ 16.972342934323343, 52.563902040053101 ], [ 16.972108510834062, 52.56401494926115 ], [ 16.971918351946716, 52.564096147199962 ], [ 16.971435670569548, 52.564276215433715 ], [ 16.971241251423724, 52.564331345866677 ], [ 16.971041373186601, 52.564389620337181 ], [ 16.971025296054844, 52.564392582674579 ], [ 16.970630249689822, 52.564522163053198 ], [ 16.970174850071164, 52.56468974222058 ], [ 16.970158623356532, 52.564695939810512 ], [ 16.969785703705789, 52.564809707187067 ], [ 16.969753247891365, 52.564818954226197 ], [ 16.969514703492955, 52.564905794254699 ], [ 16.969498626074159, 52.564908756381534 ], [ 16.969310412128191, 52.564944472571923 ], [ 16.969117939179295, 52.564957359900809 ], [ 16.968990369996661, 52.564951933031111 ], [ 16.96886280288216, 52.564943268124075 ], [ 16.968687152905098, 52.56494025376535 ], [ 16.968676534267686, 52.56494007152876 ], [ 16.968449444416283, 52.564893990893111 ], [ 16.968302547229403, 52.564901183275204 ], [ 16.968207735730921, 52.56487680029111 ], [ 16.967875067372855, 52.56480938858418 ], [ 16.967563784702502, 52.564742343158883 ], [ 16.967384177130654, 52.564710027535327 ], [ 16.967303640207504, 52.564721686136636 ], [ 16.967239482011319, 52.564727060161161 ], [ 16.967101447013672, 52.564714975633471 ], [ 16.966964164515268, 52.564686624245951 ], [ 16.966853127089852, 52.564668437333218 ], [ 16.966837049588751, 52.564671399097691 ], [ 16.966735427334807, 52.564676219242983 ], [ 16.966676877771796, 52.564675213437319 ], [ 16.966613621802381, 52.564661085060941 ], [ 16.966576459056441, 52.564657208681687 ], [ 16.966411878102821, 52.564644667289052 ], [ 16.966385487793076, 52.564637648053264 ], [ 16.966226066540518, 52.564628432988663 ], [ 16.966093638629481, 52.564613205689213 ], [ 16.96591844586732, 52.564597153375708 ], [ 16.965706383710014, 52.564574081195758 ], [ 16.965498283211158, 52.56458021816379 ], [ 16.96540818005386, 52.56456895554107 ], [ 16.965173535540394, 52.564571397714239 ], [ 16.965029443433203, 52.564575396315277 ], [ 16.964912794111054, 52.564563676905742 ], [ 16.964838469119346, 52.564555923072113 ], [ 16.964758832562179, 52.564551315795725 ], [ 16.964685714497865, 52.564517499234171 ], [ 16.964634126687688, 52.564480904873399 ], [ 16.964620600277552, 52.564428775326057 ], [ 16.964616947417259, 52.564392915311721 ], [ 16.964694878377575, 52.564319602970933 ], [ 16.964784178401313, 52.564233444378942 ], [ 16.9648197849083, 52.564156166242277 ], [ 16.964837015594355, 52.564013543551226 ], [ 16.964845759777472, 52.563913947436184 ], [ 16.964844227816201, 52.563685646486114 ], [ 16.964856898065609, 52.563526755679774 ], [ 16.964852442454163, 52.56339347390125 ], [ 16.964843275122615, 52.563244011356119 ], [ 16.964865208701049, 52.563117749142386 ], [ 16.964843625632788, 52.563006928364594 ], [ 16.964808216866906, 52.562850448770369 ], [ 16.964787081132883, 52.562733159791343 ], [ 16.964768701889465, 52.56266790510314 ], [ 16.964786582398698, 52.562629177419609 ], [ 16.964857698734377, 52.562588217122659 ], [ 16.964881075785627, 52.562567842310585 ], [ 16.964897110626396, 52.562543473712267 ], [ 16.96489375724093, 52.562501142969566 ], [ 16.964869319467894, 52.562458359747971 ], [ 16.964844701358786, 52.562438598759407 ], [ 16.964770230161992, 52.562434080279296 ], [ 16.964698261341571, 52.562436080660085 ], [ 16.964634408171573, 52.562431744681973 ], [ 16.964584499345126, 52.562416315686434 ], [ 16.964548992660564, 52.562379907862656 ], [ 16.964465531568205, 52.56228268350845 ], [ 16.964410789993902, 52.562142150912592 ], [ 16.964409217331003, 52.562000823814834 ], [ 16.96442229031593, 52.561976674166949 ], [ 16.964435510756832, 52.561952527053627 ], [ 16.964486380685649, 52.561918504136855 ], [ 16.9645414304062, 52.561899393633276 ], [ 16.96463706255129, 52.561893123263751 ], [ 16.964794649407885, 52.561881172459266 ], [ 16.964937049948581, 52.561881642257156 ], [ 16.96498949766298, 52.561880475354997 ], [ 16.965026698145913, 52.561902611276487 ], [ 16.965057082187059, 52.561918963597982 ], [ 16.965076410111216, 52.561935035882151 ], [ 16.965090461428925, 52.561934378037371 ], [ 16.965105128038029, 52.561926805178807 ], [ 16.965106484843059, 52.561919812972555 ], [ 16.965109439307906, 52.561907001956534 ] ] ], [ [ [ 17.004947542996138, 52.439560124987459 ], [ 17.004927897120549, 52.439604045808473 ], [ 17.004666679549857, 52.440189758662669 ], [ 17.004633102622883, 52.440265104529374 ], [ 17.004445761200643, 52.440701048096841 ], [ 17.004398886451721, 52.440810078248802 ], [ 17.004249539751736, 52.44115752853412 ], [ 17.004245926370583, 52.44116583230965 ], [ 17.004141011638762, 52.441474547176846 ], [ 17.004076730877383, 52.441678803659478 ], [ 17.004583299674017, 52.441728548906639 ], [ 17.004773394803372, 52.441746328085308 ], [ 17.004943271225859, 52.441762056835962 ], [ 17.004943418298559, 52.441762059317817 ], [ 17.005193977770631, 52.441783736339758 ], [ 17.005903216389552, 52.441853175182516 ], [ 17.006441187976218, 52.441911626980115 ], [ 17.006706146637235, 52.441004784349687 ], [ 17.006717981458369, 52.440964329305594 ], [ 17.006821196408364, 52.440611331268791 ], [ 17.008814780118076, 52.440816537526509 ], [ 17.011139763964742, 52.440961266843296 ], [ 17.011101804877665, 52.440823733946509 ], [ 17.01003265003915, 52.440004703864005 ], [ 17.009467009415157, 52.439577752622299 ], [ 17.009383328961977, 52.439576343659027 ], [ 17.007058709965175, 52.43954590390608 ], [ 17.007044441685309, 52.439588116841499 ], [ 17.006703124724744, 52.439575346956552 ], [ 17.006625105944593, 52.439572412509563 ], [ 17.006328230297232, 52.439569565128892 ], [ 17.005978832036774, 52.439566280854798 ], [ 17.005853765500063, 52.439565520498192 ], [ 17.004947542996138, 52.439560124987459 ] ] ], [ [ [ 16.999893141941527, 52.441406176719163 ], [ 16.99993536605291, 52.441263610492229 ], [ 17.000250362909735, 52.441295562408499 ], [ 17.000608432204075, 52.441331929619011 ], [ 17.000743408322556, 52.441344735658276 ], [ 17.000922874353805, 52.441363150803681 ], [ 17.000968430317442, 52.441367968578753 ], [ 17.001612917917356, 52.441430402101084 ], [ 17.001620831291014, 52.441431165469474 ], [ 17.001935307473019, 52.441461664974433 ], [ 17.00211428857191, 52.441481059489753 ], [ 17.002263957855099, 52.441500947814987 ], [ 17.003114145636527, 52.441584387851414 ], [ 17.003499763910916, 52.441415240274473 ], [ 17.00377450590554, 52.440810870112735 ], [ 17.003713719204502, 52.440801119160369 ], [ 17.003753389859732, 52.440711485432246 ], [ 17.003816827755021, 52.440721191186014 ], [ 17.003882336317389, 52.440577667618513 ], [ 17.003947991510511, 52.440434146490198 ], [ 17.004353904456842, 52.439545428569637 ], [ 17.001438259599986, 52.439442944999399 ], [ 17.001253212232264, 52.439440429904245 ], [ 17.000793563341858, 52.439417997047855 ], [ 17.00065216405272, 52.439410658914895 ], [ 16.999781235996, 52.439366964883533 ], [ 16.999273706505715, 52.439368360623675 ], [ 16.998358847566028, 52.439375000761743 ], [ 16.996855514554873, 52.439357003400197 ], [ 16.996752590173394, 52.439354809698678 ], [ 16.996769121029942, 52.439532189395045 ], [ 16.996677092582143, 52.44035379672026 ], [ 16.997940199186029, 52.440470534110986 ], [ 16.997775368601744, 52.440658513672162 ], [ 16.997770214093393, 52.440707265910035 ], [ 16.997674688907793, 52.441022160622303 ], [ 16.998517953794803, 52.441105336718699 ], [ 16.998577568405498, 52.441124694500871 ], [ 16.998628673190684, 52.440977871798275 ], [ 16.998982845389257, 52.441015707036847 ], [ 16.998966862802213, 52.441069582731714 ], [ 16.999107013552823, 52.441081848626688 ], [ 16.999076424300469, 52.441181978103209 ], [ 16.999066159475944, 52.441223358439977 ], [ 16.999064862455306, 52.441238986721075 ], [ 16.999068676676483, 52.441258748983159 ], [ 16.99908114769805, 52.441279107478607 ], [ 16.999118875902955, 52.441313744793291 ], [ 16.999150441722218, 52.441334966110489 ], [ 16.999179117775665, 52.441345255305372 ], [ 16.999234201426116, 52.44135743050461 ], [ 16.99936631360011, 52.441371718696963 ], [ 16.998375301563811, 52.442774708272353 ], [ 16.998031248987786, 52.443269690206201 ], [ 16.997967145755037, 52.443362236263283 ], [ 16.999088360364471, 52.443458209311885 ], [ 16.999605209502807, 52.443531535167104 ], [ 16.999650707215096, 52.443514945817334 ], [ 17.000096338542942, 52.442876238459938 ], [ 17.000279035928322, 52.442602481694479 ], [ 17.000857595101522, 52.441735403843779 ], [ 17.001008262506563, 52.441531710261067 ], [ 16.999893141941527, 52.441406176719163 ] ] ], [ [ [ 16.992477964104467, 52.441604833131336 ], [ 16.992963673257986, 52.441915651185447 ], [ 16.993120725955382, 52.441824865514704 ], [ 16.995018583072287, 52.443013205561336 ], [ 16.997214057914825, 52.4417121428841 ], [ 16.997063868866913, 52.441616146815683 ], [ 16.996285537225688, 52.441532262048199 ], [ 16.994500816991653, 52.441333805357537 ], [ 16.992608622157821, 52.441123423050691 ], [ 16.992477964104467, 52.441604833131336 ] ] ], [ [ [ 17.003754488283768, 52.446038603822849 ], [ 17.003592115667253, 52.445996556732091 ], [ 17.003513402575681, 52.446112873985861 ], [ 17.003478338733537, 52.446165618515089 ], [ 17.003431050291475, 52.446218516371438 ], [ 17.003413171466217, 52.446255810931348 ], [ 17.003530080308792, 52.446287646464114 ], [ 17.003475346152744, 52.446352201236785 ], [ 17.003844172332116, 52.446457636859456 ], [ 17.004158184283035, 52.446541548903284 ], [ 17.004162423872629, 52.446535684185484 ], [ 17.004174077174074, 52.446538399327089 ], [ 17.004421294921556, 52.446602025094343 ], [ 17.004673604631897, 52.446666995485671 ], [ 17.004891579357096, 52.446348495553565 ], [ 17.004447215054498, 52.446214265482695 ], [ 17.003754488283768, 52.446038603822849 ] ] ], [ [ [ 17.003380695427957, 52.4637057642895 ], [ 17.002558514247333, 52.463830212221801 ], [ 17.002224990879615, 52.463885109962469 ], [ 17.00239634046892, 52.464273412662102 ], [ 17.002560479472365, 52.464645403441516 ], [ 17.002591820123957, 52.464717527857886 ], [ 17.002642568620871, 52.464832613299933 ], [ 17.002796923680549, 52.464812554622576 ], [ 17.003008124332595, 52.464779424566622 ], [ 17.003126779449129, 52.464760741320639 ], [ 17.003952699253194, 52.464632125107293 ], [ 17.003826873410638, 52.464337414961996 ], [ 17.003747531134287, 52.464349746978151 ], [ 17.003657638906819, 52.464360911455799 ], [ 17.00355386796419, 52.464106058520962 ], [ 17.003511347537945, 52.464017375889867 ], [ 17.003380695427957, 52.4637057642895 ] ] ], [ [ [ 17.021951943755312, 52.466376546558934 ], [ 17.022265866905091, 52.466137871211764 ], [ 17.021504182404136, 52.465754294030539 ], [ 17.021449000590387, 52.465983175701197 ], [ 17.02144072782438, 52.466023151961714 ], [ 17.021280828794694, 52.466015889391151 ], [ 17.021143877929926, 52.466009190508551 ], [ 17.021039978483152, 52.466007631689664 ], [ 17.021005609061529, 52.466291187161701 ], [ 17.02128691674444, 52.466477669806196 ], [ 17.021235766627377, 52.466606781859255 ], [ 17.021371894870221, 52.466608879753977 ], [ 17.021614133420282, 52.466615810832515 ], [ 17.021901528121219, 52.466410511259497 ], [ 17.021951943755312, 52.466376546558934 ] ] ], [ [ [ 17.034678113072633, 52.471860112685754 ], [ 17.034772980261256, 52.471879587856016 ], [ 17.034837188918694, 52.471892977029796 ], [ 17.034922732894934, 52.471738257535122 ], [ 17.034944216408416, 52.471699039614542 ], [ 17.034966332632994, 52.471658842830827 ], [ 17.035014959143016, 52.471569078251491 ], [ 17.035110456497545, 52.471392577923417 ], [ 17.035244045673238, 52.471180913081554 ], [ 17.035378821495421, 52.470932661019482 ], [ 17.035421978064914, 52.470853238786219 ], [ 17.035865664638354, 52.470940837795659 ], [ 17.036298490222226, 52.471027625179474 ], [ 17.036481297486272, 52.470689506961975 ], [ 17.03605287305524, 52.470606480974979 ], [ 17.035605873494088, 52.470513970691655 ], [ 17.03532801362822, 52.470456468380561 ], [ 17.035142474384713, 52.470792920515038 ], [ 17.035037296279295, 52.470770216239501 ], [ 17.034834784486289, 52.471094153644188 ], [ 17.034776590882405, 52.471187087060059 ], [ 17.034606787034296, 52.471500774454618 ], [ 17.03443842546703, 52.471811787289731 ], [ 17.034539032287572, 52.471831358045492 ], [ 17.034502300912145, 52.471898744449959 ], [ 17.034539951824073, 52.471906565641987 ], [ 17.034578334623379, 52.471914488928441 ], [ 17.034615503418511, 52.4718471997137 ], [ 17.034678113072633, 52.471860112685754 ] ] ], [ [ [ 17.005099396396872, 52.471236323513544 ], [ 17.006372960243702, 52.471529429364601 ], [ 17.006579318684949, 52.471499808860329 ], [ 17.007518212057921, 52.471719173318618 ], [ 17.007549095181307, 52.471684345915932 ], [ 17.007581478461713, 52.471635872392376 ], [ 17.007620119095897, 52.471569515614021 ], [ 17.007681771290159, 52.471476293672055 ], [ 17.007772351079932, 52.471358914551928 ], [ 17.007784435382323, 52.471332674786048 ], [ 17.005507704715175, 52.470802308136989 ], [ 17.005340713106378, 52.470834299688669 ], [ 17.005099396396872, 52.471236323513544 ] ] ], [ [ [ 17.000330134199121, 52.501002901330338 ], [ 17.00030717029928, 52.5010185229943 ], [ 17.000434600223709, 52.501087954502239 ], [ 17.000494525540589, 52.501047053990114 ], [ 17.000777670123778, 52.501212208145482 ], [ 17.001499952221302, 52.50160631116816 ], [ 17.001625754014587, 52.501679221632429 ], [ 17.001631083849542, 52.501675444122341 ], [ 17.00203920925064, 52.501392361807738 ], [ 17.00256099967077, 52.501030428654047 ], [ 17.002554197922823, 52.50101466371671 ], [ 17.002530236640101, 52.500984038255545 ], [ 17.002501477748183, 52.500958458527499 ], [ 17.00247794488417, 52.50094438980453 ], [ 17.002411053140662, 52.500904944494977 ], [ 17.001930473833497, 52.500637702097478 ], [ 17.001888101572412, 52.500613331357179 ], [ 17.001707806896981, 52.500552632287139 ], [ 17.001389218175905, 52.500398843911633 ], [ 17.001094286391915, 52.500230433933957 ], [ 17.000909059793589, 52.500132323917136 ], [ 17.000789032768797, 52.500068684424825 ], [ 17.000601545513117, 52.49997170496701 ], [ 17.000503880645368, 52.499918696660586 ], [ 17.000395492114588, 52.500007796917082 ], [ 17.000322921998549, 52.50006755154714 ], [ 17.000245917764079, 52.500130828895053 ], [ 17.000225707496465, 52.500147486467355 ], [ 17.000014472220364, 52.500304193745258 ], [ 17.000000045245482, 52.500313573729109 ], [ 16.999844861767581, 52.500414024607167 ], [ 16.999721104717459, 52.500494229858219 ], [ 16.99964248935272, 52.500541019995865 ], [ 16.999547887210696, 52.500589338587083 ], [ 16.999744197843334, 52.50068026283401 ], [ 17.000330134199121, 52.501002901330338 ] ] ], [ [ [ 16.987736332027701, 52.512358184484413 ], [ 16.987890559538499, 52.512376997445699 ], [ 16.988871166778143, 52.512468234376399 ], [ 16.989735577436608, 52.512521421583493 ], [ 16.989857625870865, 52.512279569886523 ], [ 16.98992869280379, 52.512037121685225 ], [ 16.990246338305678, 52.510865523580875 ], [ 16.99011320558504, 52.510387822772124 ], [ 16.989462638405985, 52.510336743465096 ], [ 16.989462277199241, 52.510215494059338 ], [ 16.989343963961598, 52.510204488947984 ], [ 16.989267684099197, 52.510196266846521 ], [ 16.989069433311368, 52.510176437478862 ], [ 16.988909423113277, 52.510158517068405 ], [ 16.98879759090055, 52.51015085953518 ], [ 16.988362298774572, 52.510101994685556 ], [ 16.988322579999448, 52.510271221788699 ], [ 16.98808283566661, 52.511162887994871 ], [ 16.987887316501268, 52.511786555945775 ], [ 16.987777235398561, 52.512227653272838 ], [ 16.987736332027701, 52.512358184484413 ] ] ], [ [ [ 16.988589914872829, 52.543684235084676 ], [ 16.98858973831544, 52.543736488757787 ], [ 16.988839882261136, 52.543776537373397 ], [ 16.989272231210844, 52.5438260674185 ], [ 16.989893608154635, 52.543884293357912 ], [ 16.990036795997568, 52.543908221746356 ], [ 16.990123735966623, 52.543945945245717 ], [ 16.990372348643415, 52.544103519585612 ], [ 16.990785626373089, 52.544386570958146 ], [ 16.990924785599042, 52.544314640988439 ], [ 16.990957832511267, 52.544337237964946 ], [ 16.991102484336761, 52.544435752312587 ], [ 16.991337015192194, 52.54445277507962 ], [ 16.992546338164811, 52.543996330103646 ], [ 16.992852527480213, 52.543881630311844 ], [ 16.992798611801003, 52.543757044790951 ], [ 16.992491532668993, 52.543047585412474 ], [ 16.992140364756448, 52.542906713719312 ], [ 16.992091550638335, 52.54291928691967 ], [ 16.992019916466607, 52.542934081222967 ], [ 16.99124103343798, 52.543081769764008 ], [ 16.991209702193345, 52.54302808183661 ], [ 16.99114689390964, 52.542907751742568 ], [ 16.991086672946306, 52.54279538048354 ], [ 16.99159636591191, 52.54269843935527 ], [ 16.992169275976405, 52.542583590774861 ], [ 16.991708145493558, 52.541494115961157 ], [ 16.990332655542669, 52.541678711846494 ], [ 16.990174429507114, 52.541699949386697 ], [ 16.990030937957329, 52.5419830801386 ], [ 16.98999028062903, 52.542027597894986 ], [ 16.98992273860776, 52.542036197262156 ], [ 16.9895133922473, 52.542109921928109 ], [ 16.988360994846168, 52.542325267881957 ], [ 16.987995397966749, 52.542380933009483 ], [ 16.988589914872829, 52.543684235084676 ] ] ], [ [ [ 17.07278951085674, 52.49012276085395 ], [ 17.072652419621196, 52.490188163633704 ], [ 17.072713704859169, 52.49023557239375 ], [ 17.072772569674161, 52.490281052898055 ], [ 17.072761410556485, 52.490286897203923 ], [ 17.072769400561754, 52.490292873630729 ], [ 17.072705443808697, 52.490323401245831 ], [ 17.072664498234264, 52.490343240891391 ], [ 17.072487516229586, 52.490151658248678 ], [ 17.072414456315791, 52.490060165693862 ], [ 17.072310255323281, 52.490104607885513 ], [ 17.072078828819077, 52.490217940761511 ], [ 17.071985065455269, 52.490262912564312 ], [ 17.072022256697416, 52.490291850569363 ], [ 17.071694681482462, 52.490443999511236 ], [ 17.071795466410006, 52.490514718119492 ], [ 17.071730175634006, 52.490545403350296 ], [ 17.071609172831543, 52.490600004320633 ], [ 17.072179077507002, 52.490967893705232 ], [ 17.07324935932316, 52.49155889382871 ], [ 17.074135663012775, 52.491086920498994 ], [ 17.073891930466562, 52.490837859471874 ], [ 17.073777895955413, 52.490743182183991 ], [ 17.073557635794607, 52.490567355828631 ], [ 17.073179929990438, 52.490261966016611 ], [ 17.073044676741173, 52.490153900722213 ], [ 17.072910090958622, 52.490215926812169 ], [ 17.072869754224705, 52.490184779228954 ], [ 17.072851508775408, 52.490170720807669 ], [ 17.07278951085674, 52.49012276085395 ] ] ], [ [ [ 17.062558137120064, 52.492188253290081 ], [ 17.062556028822165, 52.492165823124907 ], [ 17.0625504343624, 52.492105380207512 ], [ 17.062540339660565, 52.491996474619008 ], [ 17.062505235568281, 52.491628575250154 ], [ 17.062500484363724, 52.491579119098638 ], [ 17.062505304712605, 52.491570023941051 ], [ 17.062329812880328, 52.491576683127441 ], [ 17.062314103596062, 52.491377653276601 ], [ 17.061255866820066, 52.490831092130428 ], [ 17.061266584886948, 52.490919051524671 ], [ 17.06132681801164, 52.491415531058408 ], [ 17.061379596733069, 52.491850367795458 ], [ 17.061367199531283, 52.492634641469799 ], [ 17.061900516497335, 52.492586717431827 ], [ 17.062598051618576, 52.492550654974487 ], [ 17.062587598167447, 52.492503533878605 ], [ 17.062584802874444, 52.492473267483177 ], [ 17.062560927381334, 52.492215281682554 ], [ 17.062558656030035, 52.492193208615987 ], [ 17.062558137120064, 52.492188253290081 ] ] ], [ [ [ 16.968092137201737, 52.562323232276221 ], [ 16.968069866894602, 52.562294158234245 ], [ 16.968029395284432, 52.562253348989358 ], [ 16.967979043073246, 52.562225141958628 ], [ 16.967939385775761, 52.562192261618669 ], [ 16.967898874763183, 52.562174656864961 ], [ 16.967861979943379, 52.56215864321058 ], [ 16.967831000634632, 52.562142371340848 ], [ 16.967785868234476, 52.562125766512487 ], [ 16.967712847341904, 52.562089884784072 ], [ 16.967653608267803, 52.562020870919078 ], [ 16.967521084627258, 52.561950418698018 ], [ 16.967386391777247, 52.561946036958368 ], [ 16.967135075976593, 52.561961418196823 ], [ 16.966997337780807, 52.561971824255458 ], [ 16.966760686297139, 52.561970097640781 ], [ 16.966643467917564, 52.561961248278571 ], [ 16.966514080911232, 52.561931502909651 ], [ 16.966400018161238, 52.561860826931856 ], [ 16.96631373062916, 52.561776776912737 ], [ 16.966253708858517, 52.561759825711903 ], [ 16.966142463922544, 52.56176861732078 ], [ 16.966044645127983, 52.56177431167054 ], [ 16.965976032773792, 52.561799485781108 ], [ 16.965736510897266, 52.561926775595381 ], [ 16.965674944546581, 52.561933632376586 ], [ 16.965553917612635, 52.561917790881317 ], [ 16.965471910751067, 52.56189434527613 ], [ 16.965405459361641, 52.561898329720464 ], [ 16.965363635548538, 52.561902737490783 ], [ 16.965310341883971, 52.561912614461299 ], [ 16.965282046036311, 52.561914916249819 ], [ 16.965264149879026, 52.561918925843244 ], [ 16.965258065717997, 52.561926016666803 ], [ 16.965237640897136, 52.561943204366763 ], [ 16.965247559464224, 52.561964871195286 ], [ 16.965283592441786, 52.561993103068907 ], [ 16.96533858120274, 52.562013565950124 ], [ 16.965413051756382, 52.562018084066324 ], [ 16.965482515140504, 52.562012802250273 ], [ 16.965586634183701, 52.562008116081202 ], [ 16.965680214324031, 52.562001539768559 ], [ 16.96575225726744, 52.561997921100534 ], [ 16.965778346448563, 52.562011411192977 ], [ 16.965795126946936, 52.562050644797495 ], [ 16.965759267005375, 52.562079259858344 ], [ 16.96571309496214, 52.562097893912522 ], [ 16.965672227688653, 52.562116709069464 ], [ 16.965651922452714, 52.562150448356682 ], [ 16.965656326592622, 52.562173279564334 ], [ 16.965639274752203, 52.562194123016425 ], [ 16.965592803057646, 52.562219227750276 ], [ 16.965547026658125, 52.562286707440762 ], [ 16.965480317789385, 52.562347261479175 ], [ 16.965450899332527, 52.562361056681574 ], [ 16.965398284656604, 52.562365818631108 ], [ 16.965368624652292, 52.56235613460963 ], [ 16.965339112133268, 52.562346453115978 ], [ 16.965283180487926, 52.562349539024311 ], [ 16.965165683234911, 52.562369015368816 ], [ 16.965000981373198, 52.56240072169026 ], [ 16.964983167740396, 52.562409319740631 ], [ 16.964977346969864, 52.562420282616102 ], [ 16.964983098836793, 52.562442687308959 ], [ 16.9650007816463, 52.562462418969183 ], [ 16.965000531996797, 52.562496502971364 ], [ 16.965007241759185, 52.562542848898033 ], [ 16.965034163624882, 52.562560670720472 ], [ 16.96511494868232, 52.562575461112033 ], [ 16.965227051697052, 52.562596006534527 ], [ 16.965303675625794, 52.562592287001536 ], [ 16.965443594131617, 52.562595411786418 ], [ 16.965581900288111, 52.562607862734531 ], [ 16.965641312622004, 52.562618867573271 ], [ 16.965697376233464, 52.562638449326478 ], [ 16.965712238555643, 52.562661730108275 ], [ 16.9657107786526, 52.562693274909797 ], [ 16.965693015751537, 52.562723100419568 ], [ 16.965686907388992, 52.56275303629856 ], [ 16.96569737844678, 52.562781907997127 ], [ 16.965750026985937, 52.562811504610487 ], [ 16.96580535038381, 52.562888546981227 ], [ 16.965827885652164, 52.562911869675602 ], [ 16.965852566511305, 52.562936668323417 ], [ 16.965879473898021, 52.562964383397585 ], [ 16.96588961657217, 52.563000354907459 ], [ 16.965873733058999, 52.563037408158692 ], [ 16.965836498634914, 52.56307976085678 ], [ 16.96582985379095, 52.563121290130546 ], [ 16.96583231875556, 52.563170081442372 ], [ 16.965864845246244, 52.563229462979891 ], [ 16.965928645565903, 52.563276430218487 ], [ 16.966041237035139, 52.563334309468118 ], [ 16.966068691483638, 52.563353399396618 ], [ 16.966142178225283, 52.563391988413827 ], [ 16.966188295635391, 52.563412838093967 ], [ 16.966229955838191, 52.563427944777871 ], [ 16.966295068885895, 52.563443364482282 ], [ 16.966337009690367, 52.563455597783054 ], [ 16.966361824194532, 52.563477520448423 ], [ 16.966381719905204, 52.563503675844878 ], [ 16.966382553528089, 52.563536699137167 ], [ 16.966400170605418, 52.563564254462477 ], [ 16.966441635603346, 52.563583585022677 ], [ 16.966506892276161, 52.563599097018304 ], [ 16.966575558543308, 52.563588764059197 ], [ 16.966646251800899, 52.563585661298184 ], [ 16.966688377957567, 52.563590702241498 ], [ 16.966719714060087, 52.563576939673609 ], [ 16.966729803274216, 52.563559843997012 ], [ 16.966723599422689, 52.563543997452022 ], [ 16.966734017054542, 52.563519801944324 ], [ 16.966751199544671, 52.563505706284751 ], [ 16.966775722778308, 52.56348607033506 ], [ 16.96679178664775, 52.563441914595074 ], [ 16.966789586669449, 52.56338737153262 ], [ 16.966791112349789, 52.563354388773242 ], [ 16.966793232500113, 52.563308554420601 ], [ 16.966785932830369, 52.563265346475355 ], [ 16.966780691068948, 52.563238273622879 ], [ 16.966779707905449, 52.56319571383959 ], [ 16.966796157445636, 52.563168743777688 ], [ 16.966812749876127, 52.563154637973405 ], [ 16.966838552250433, 52.563139251291027 ], [ 16.966872884990874, 52.56313408471587 ], [ 16.966928612060659, 52.563125867802491 ], [ 16.966950066576899, 52.563124707300666 ], [ 16.967002358143368, 52.563114182774072 ], [ 16.9670478701718, 52.56309706590509 ], [ 16.967144817427432, 52.563087937915789 ], [ 16.967194406489881, 52.563081594195076 ], [ 16.967242311255461, 52.563063798805317 ], [ 16.967281856052505, 52.563025712659368 ], [ 16.967299485015506, 52.562998762784979 ], [ 16.967315097174914, 52.562967550965368 ], [ 16.967321607598151, 52.562928897474912 ], [ 16.9673231993503, 52.562894476761009 ], [ 16.967324653951277, 52.562863021800332 ], [ 16.967352053624733, 52.562829044302447 ], [ 16.967439807538415, 52.562788907850432 ], [ 16.967546154958555, 52.56278075044829 ], [ 16.967718192797136, 52.562749976034539 ], [ 16.96780305480797, 52.562721302324469 ], [ 16.967871534498702, 52.562718160834983 ], [ 16.967893051162388, 52.562709266159814 ], [ 16.967916726031667, 52.562682419997707 ], [ 16.967956475431116, 52.562662235737641 ], [ 16.967995555904366, 52.562656520752277 ], [ 16.968037149658091, 52.562647521022278 ], [ 16.968054111199748, 52.562638188346035 ], [ 16.968055997246044, 52.562622930468855 ], [ 16.968061204628221, 52.562583714914453 ], [ 16.968063057511504, 52.562543632286925 ], [ 16.96806523020577, 52.562522173285252 ], [ 16.968082013086399, 52.562503933212277 ], [ 16.968089706646936, 52.562484367842771 ], [ 16.968100067186143, 52.562458192498873 ], [ 16.968101525362858, 52.562426647649332 ], [ 16.968094870536639, 52.562366271804471 ], [ 16.968092137201737, 52.562323232276221 ] ] ] ] } },
{ "type": "Feature", "properties": { "gml_id": null, "lokalnyId": null, "przestrzen": null, "wersjaId": null, "czyObiektB": null, "x_kod": null, "x_skrKarto": null, "x_katDoklG": null, "x_doklGeom": null, "x_doklGe_1": null, "x_zrodloDa": null, "x_zrodlo_1": null, "x_katIstni": null, "x_rodzajRe": null, "x_aktualno": null, "x_aktual_1": null, "poczatekWe": null, "x_dataUtwo": null, "x_kodKarto": null, "x_kodKar_1": null, "x_kodKar_2": null, "x_kodKar_3": null, "x_kodKar_4": null, "x_kodKar_5": null, "x_kodKar_6": null, "nazwa": null, "idPRG": null, "idTerytJed": null, "idTerytTer": null, "rodzaj": null, "PRG|BT_Ref": null, "PRG|BT_R_1": null, "x_informDo": null }, "geometry": { "type": "MultiPolygon", "coordinates": [ [ [ [ 17.018544055546489, 52.459396287189314 ], [ 17.017700529460939, 52.459444749700182 ], [ 17.017298373832563, 52.459550346447116 ], [ 17.017260210723308, 52.459911368801436 ], [ 17.018096617614894, 52.459990245855757 ], [ 17.018102927963085, 52.459949960977617 ], [ 17.018360920711132, 52.459962649579722 ], [ 17.018604072121118, 52.459958269524662 ], [ 17.018544055546489, 52.459396287189314 ] ] ] ] } }
]
}
