{
"type": "FeatureCollection",
"name": "przemysl_1933",
"crs": { "type": "name", "properties": { "name": "urn:ogc:def:crs:OGC:1.3:CRS84" } },
"features": [
{ "type": "Feature", "properties": { "id": null }, "geometry": { "type": "MultiPolygon", "coordinates": [ [ [ [ 16.977642326516683, 52.470381359349403 ], [ 16.978686489103453, 52.470407092805765 ], [ 16.978860494344314, 52.470388393328726 ], [ 16.97886040634279, 52.470296443363033 ], [ 16.97887123311196, 52.470060189498597 ], [ 16.978920416565902, 52.469737896908036 ], [ 16.978985742058679, 52.469344948480995 ], [ 16.97905412999302, 52.46907289890941 ], [ 16.979096334712484, 52.468902858714777 ], [ 16.979142837380973, 52.46873289195117 ], [ 16.979260976252679, 52.468478111810278 ], [ 16.979050152396919, 52.468385187650206 ], [ 16.978010667678291, 52.468292573454789 ], [ 16.977848214166638, 52.468471038043333 ], [ 16.977728772903035, 52.468918229629928 ], [ 16.977708578800875, 52.469124111630506 ], [ 16.977686381099428, 52.469420594300594 ], [ 16.977683834689451, 52.469851395099681 ], [ 16.977642326516683, 52.470381359349403 ] ] ] ] } },
{ "type": "Feature", "properties": { "id": null }, "geometry": { "type": "MultiPolygon", "coordinates": [ [ [ [ 16.978205660032124, 52.474819622814088 ], [ 16.977032908825926, 52.474781177901065 ], [ 16.976917801502424, 52.475836615674737 ], [ 16.977888407973879, 52.475874232414355 ], [ 16.977897813912044, 52.475950579058605 ], [ 16.977982796237168, 52.476067624365768 ], [ 16.978103254447241, 52.476161632259711 ], [ 16.97834910695212, 52.476242021076764 ], [ 16.97852894380242, 52.476260857759335 ], [ 16.978769929815954, 52.476259722512367 ], [ 16.979010434569464, 52.476269086936014 ], [ 16.97930652191609, 52.476277507554904 ], [ 16.979358026909409, 52.475781252044257 ], [ 16.979452962945388, 52.47514558240853 ], [ 16.978165664318727, 52.475128936529792 ], [ 16.978205660032124, 52.474819622814088 ] ] ] ] } },
{ "type": "Feature", "properties": { "id": null }, "geometry": { "type": "MultiPolygon", "coordinates": [ [ [ [ 16.975448440838495, 52.478790599191676 ], [ 16.976320588986219, 52.478818661529623 ], [ 16.976363842410596, 52.47787627389058 ], [ 16.975512244461584, 52.477869580303476 ], [ 16.975448440838495, 52.478790599191676 ] ] ] ] } },
{ "type": "Feature", "properties": { "id": null }, "geometry": { "type": "MultiPolygon", "coordinates": [ [ [ [ 16.976265857736994, 52.479524193501859 ], [ 16.977435619109439, 52.479554933156194 ], [ 16.978079196357278, 52.479594835781825 ], [ 16.978242708706393, 52.477921827633345 ], [ 16.977226170606308, 52.477930432608652 ], [ 16.977048463940505, 52.479177890918713 ], [ 16.976319751303389, 52.479118136206765 ], [ 16.976265857736994, 52.479524193501859 ] ] ] ] } }
]
}
